<?xml version="1.0" encoding="utf-8"?>
<gpx version="1.1" creator="Movescount - http://www.movescount.com" xmlns:xsi="http://www.w3.org/2001/XMLSchema-instance" xsi:schemaLocation="http://www.topografix.com/GPX/1/1 http://www.topografix.com/GPX/1/1/gpx.xsd http://www.cluetrust.com/XML/GPXDATA/1/0 http://www.cluetrust.com/Schemas/gpxdata10.xsd http://www.garmin.com/xmlschemas/TrackPointExtension/v1 http://www.garmin.com/xmlschemas/TrackPointExtensionv1.xsd" xmlns:gpxdata="http://www.cluetrust.com/XML/GPXDATA/1/0" xmlns:gpxtpx="http://www.garmin.com/xmlschemas/TrackPointExtension/v1" xmlns="http://www.topografix.com/GPX/1/1">
   <rte>
      <name>ollegil 20</name>
      <rtept lat="33.55746" lon="126.744939" />
      <rtept lat="33.557564" lon="126.745127" />
      <rtept lat="33.557667" lon="126.745547" />
      <rtept lat="33.557683" lon="126.745607" />
      <rtept lat="33.557721" lon="126.745616" />
      <rtept lat="33.557763" lon="126.745644" />
      <rtept lat="33.557848" lon="126.745817" />
      <rtept lat="33.557891" lon="126.745844" />
      <rtept lat="33.557999" lon="126.746" />
      <rtept lat="33.558063" lon="126.746352" />
      <rtept lat="33.558065" lon="126.746535" />
      <rtept lat="33.558062" lon="126.746823" />
      <rtept lat="33.558032" lon="126.746887" />
      <rtept lat="33.557976" lon="126.747007" />
      <rtept lat="33.557701" lon="126.747129" />
      <rtept lat="33.557618" lon="126.747205" />
      <rtept lat="33.55757" lon="126.747294" />
      <rtept lat="33.557529" lon="126.747456" />
      <rtept lat="33.5575" lon="126.747711" />
      <rtept lat="33.557388" lon="126.747802" />
      <rtept lat="33.557463" lon="126.748003" />
      <rtept lat="33.557596" lon="126.748052" />
      <rtept lat="33.557738" lon="126.748147" />
      <rtept lat="33.557846" lon="126.748269" />
      <rtept lat="33.557895" lon="126.748366" />
      <rtept lat="33.5579" lon="126.748534" />
      <rtept lat="33.557963" lon="126.748624" />
      <rtept lat="33.558008" lon="126.7487" />
      <rtept lat="33.557898" lon="126.748985" />
      <rtept lat="33.557837" lon="126.749102" />
      <rtept lat="33.557715" lon="126.749202" />
      <rtept lat="33.55776" lon="126.749365" />
      <rtept lat="33.557684" lon="126.749555" />
      <rtept lat="33.557749" lon="126.749706" />
      <rtept lat="33.557768" lon="126.749853" />
      <rtept lat="33.557806" lon="126.74995" />
      <rtept lat="33.55779" lon="126.750096" />
      <rtept lat="33.557796" lon="126.750194" />
      <rtept lat="33.55801" lon="126.750285" />
      <rtept lat="33.55806" lon="126.750346" />
      <rtept lat="33.558082" lon="126.750407" />
      <rtept lat="33.558083" lon="126.750476" />
      <rtept lat="33.558043" lon="126.750594" />
      <rtept lat="33.55793" lon="126.750851" />
      <rtept lat="33.55784" lon="126.751019" />
      <rtept lat="33.557728" lon="126.75117" />
      <rtept lat="33.557747" lon="126.75122" />
      <rtept lat="33.557875" lon="126.751388" />
      <rtept lat="33.557869" lon="126.75151" />
      <rtept lat="33.557864" lon="126.75174" />
      <rtept lat="33.557832" lon="126.75192" />
      <rtept lat="33.557629" lon="126.75228" />
      <rtept lat="33.557394" lon="126.752554" />
      <rtept lat="33.557476" lon="126.752683" />
      <rtept lat="33.557699" lon="126.752822" />
      <rtept lat="33.557903" lon="126.753279" />
      <rtept lat="33.558037" lon="126.753457" />
      <rtept lat="33.55819" lon="126.753599" />
      <rtept lat="33.558308" lon="126.753658" />
      <rtept lat="33.558444" lon="126.753673" />
      <rtept lat="33.558716" lon="126.753644" />
      <rtept lat="33.55885" lon="126.753675" />
      <rtept lat="33.558928" lon="126.753731" />
      <rtept lat="33.55897" lon="126.753805" />
      <rtept lat="33.55898" lon="126.753868" />
      <rtept lat="33.558916" lon="126.75403" />
      <rtept lat="33.55889" lon="126.754081" />
      <rtept lat="33.558881" lon="126.754239" />
      <rtept lat="33.558504" lon="126.754445" />
      <rtept lat="33.558487" lon="126.754454" />
      <rtept lat="33.558493" lon="126.754668" />
      <rtept lat="33.558454" lon="126.754808" />
      <rtept lat="33.558363" lon="126.75485" />
      <rtept lat="33.55829" lon="126.755076" />
      <rtept lat="33.558134" lon="126.755239" />
      <rtept lat="33.558036" lon="126.755311" />
      <rtept lat="33.557779" lon="126.755438" />
      <rtept lat="33.557769" lon="126.755443" />
      <rtept lat="33.557787" lon="126.755583" />
      <rtept lat="33.557757" lon="126.756135" />
      <rtept lat="33.557686" lon="126.756815" />
      <rtept lat="33.557563" lon="126.757713" />
      <rtept lat="33.557365" lon="126.758081" />
      <rtept lat="33.557211" lon="126.758254" />
      <rtept lat="33.556763" lon="126.75866" />
      <rtept lat="33.556702" lon="126.758733" />
      <rtept lat="33.557015" lon="126.759265" />
      <rtept lat="33.557036" lon="126.759341" />
      <rtept lat="33.557128" lon="126.759384" />
      <rtept lat="33.557243" lon="126.759587" />
      <rtept lat="33.557459" lon="126.759917" />
      <rtept lat="33.557981" lon="126.760403" />
      <rtept lat="33.558055" lon="126.760522" />
      <rtept lat="33.55814" lon="126.760798" />
      <rtept lat="33.558142" lon="126.761149" />
      <rtept lat="33.55828" lon="126.761416" />
      <rtept lat="33.558405" lon="126.761918" />
      <rtept lat="33.558456" lon="126.762002" />
      <rtept lat="33.558603" lon="126.762126" />
      <rtept lat="33.55878" lon="126.762245" />
      <rtept lat="33.558971" lon="126.762453" />
      <rtept lat="33.559207" lon="126.762619" />
      <rtept lat="33.559312" lon="126.76264" />
      <rtept lat="33.559437" lon="126.762639" />
      <rtept lat="33.559817" lon="126.762576" />
      <rtept lat="33.56" lon="126.76251" />
      <rtept lat="33.560195" lon="126.762467" />
      <rtept lat="33.560308" lon="126.76248" />
      <rtept lat="33.56048" lon="126.762452" />
      <rtept lat="33.560872" lon="126.762517" />
      <rtept lat="33.560906" lon="126.762579" />
      <rtept lat="33.560965" lon="126.76263" />
      <rtept lat="33.561037" lon="126.762614" />
      <rtept lat="33.561179" lon="126.76264" />
      <rtept lat="33.561227" lon="126.762619" />
      <rtept lat="33.561328" lon="126.762503" />
      <rtept lat="33.561382" lon="126.762328" />
      <rtept lat="33.561482" lon="126.762219" />
      <rtept lat="33.561495" lon="126.761983" />
      <rtept lat="33.561542" lon="126.761858" />
      <rtept lat="33.561589" lon="126.761795" />
      <rtept lat="33.561784" lon="126.761643" />
      <rtept lat="33.56219" lon="126.761519" />
      <rtept lat="33.562289" lon="126.761729" />
      <rtept lat="33.562298" lon="126.761943" />
      <rtept lat="33.562245" lon="126.762228" />
      <rtept lat="33.562257" lon="126.762343" />
      <rtept lat="33.56228" lon="126.762576" />
      <rtept lat="33.562459" lon="126.763038" />
      <rtept lat="33.562522" lon="126.763343" />
      <rtept lat="33.562753" lon="126.763898" />
      <rtept lat="33.562748" lon="126.764013" />
      <rtept lat="33.563008" lon="126.76425" />
      <rtept lat="33.563125" lon="126.763794" />
      <rtept lat="33.563246" lon="126.763558" />
      <rtept lat="33.56359" lon="126.763408" />
      <rtept lat="33.563693" lon="126.763596" />
      <rtept lat="33.56401" lon="126.763617" />
      <rtept lat="33.56418" lon="126.763488" />
      <rtept lat="33.564399" lon="126.763574" />
      <rtept lat="33.564596" lon="126.763526" />
      <rtept lat="33.564895" lon="126.763681" />
      <rtept lat="33.565016" lon="126.763869" />
      <rtept lat="33.565172" lon="126.764633" />
      <rtept lat="33.565284" lon="126.765055" />
      <rtept lat="33.565405" lon="126.765226" />
      <rtept lat="33.565316" lon="126.765399" />
      <rtept lat="33.565246" lon="126.76547" />
      <rtept lat="33.565186" lon="126.765496" />
      <rtept lat="33.565141" lon="126.765913" />
      <rtept lat="33.564998" lon="126.766095" />
      <rtept lat="33.564784" lon="126.766181" />
      <rtept lat="33.564699" lon="126.766385" />
      <rtept lat="33.564498" lon="126.766455" />
      <rtept lat="33.564323" lon="126.766476" />
      <rtept lat="33.564203" lon="126.766707" />
      <rtept lat="33.564149" lon="126.766868" />
      <rtept lat="33.56398" lon="126.767131" />
      <rtept lat="33.563828" lon="126.76857" />
      <rtept lat="33.563816" lon="126.768869" />
      <rtept lat="33.563826" lon="126.769052" />
      <rtept lat="33.56398" lon="126.770223" />
      <rtept lat="33.564042" lon="126.77051" />
      <rtept lat="33.564114" lon="126.770693" />
      <rtept lat="33.564217" lon="126.770855" />
      <rtept lat="33.564497" lon="126.771203" />
      <rtept lat="33.564733" lon="126.771642" />
      <rtept lat="33.564795" lon="126.771885" />
      <rtept lat="33.564821" lon="126.77219" />
      <rtept lat="33.564821" lon="126.772321" />
      <rtept lat="33.56477" lon="126.772699" />
      <rtept lat="33.56472" lon="126.772939" />
      <rtept lat="33.563923" lon="126.77648" />
      <rtept lat="33.563879" lon="126.776995" />
      <rtept lat="33.563871" lon="126.777601" />
      <rtept lat="33.563844" lon="126.777868" />
      <rtept lat="33.563709" lon="126.778313" />
      <rtept lat="33.563064" lon="126.779747" />
      <rtept lat="33.562989" lon="126.780003" />
      <rtept lat="33.562969" lon="126.780267" />
      <rtept lat="33.562937" lon="126.780286" />
      <rtept lat="33.562956" lon="126.780441" />
      <rtept lat="33.563012" lon="126.780641" />
      <rtept lat="33.563075" lon="126.780786" />
      <rtept lat="33.563199" lon="126.78098" />
      <rtept lat="33.563143" lon="126.781067" />
      <rtept lat="33.563088" lon="126.781372" />
      <rtept lat="33.563017" lon="126.78151" />
      <rtept lat="33.562682" lon="126.781811" />
      <rtept lat="33.562387" lon="126.781988" />
      <rtept lat="33.562257" lon="126.782133" />
      <rtept lat="33.561999" lon="126.782915" />
      <rtept lat="33.56193" lon="126.783298" />
      <rtept lat="33.561945" lon="126.783419" />
      <rtept lat="33.561812" lon="126.783535" />
      <rtept lat="33.561626" lon="126.783833" />
      <rtept lat="33.561546" lon="126.78398" />
      <rtept lat="33.561416" lon="126.783976" />
      <rtept lat="33.561359" lon="126.783924" />
      <rtept lat="33.561322" lon="126.783959" />
      <rtept lat="33.561103" lon="126.784253" />
      <rtept lat="33.561022" lon="126.784421" />
      <rtept lat="33.561025" lon="126.784508" />
      <rtept lat="33.561306" lon="126.784756" />
      <rtept lat="33.561367" lon="126.784848" />
      <rtept lat="33.561258" lon="126.785089" />
      <rtept lat="33.561468" lon="126.785053" />
      <rtept lat="33.561504" lon="126.785295" />
      <rtept lat="33.561597" lon="126.785596" />
      <rtept lat="33.561615" lon="126.785724" />
      <rtept lat="33.561627" lon="126.786342" />
      <rtept lat="33.561597" lon="126.786542" />
      <rtept lat="33.56157" lon="126.786638" />
      <rtept lat="33.561483" lon="126.786814" />
      <rtept lat="33.561239" lon="126.787099" />
      <rtept lat="33.561138" lon="126.787282" />
      <rtept lat="33.561069" lon="126.787481" />
      <rtept lat="33.560894" lon="126.788214" />
      <rtept lat="33.56084" lon="126.788347" />
      <rtept lat="33.560619" lon="126.788726" />
      <rtept lat="33.560563" lon="126.788867" />
      <rtept lat="33.560409" lon="126.789454" />
      <rtept lat="33.560318" lon="126.78972" />
      <rtept lat="33.560211" lon="126.789939" />
      <rtept lat="33.56002" lon="126.790226" />
      <rtept lat="33.559824" lon="126.790559" />
      <rtept lat="33.559632" lon="126.791013" />
      <rtept lat="33.559582" lon="126.791196" />
      <rtept lat="33.559554" lon="126.791459" />
      <rtept lat="33.559574" lon="126.791824" />
      <rtept lat="33.559654" lon="126.792639" />
      <rtept lat="33.55965" lon="126.792747" />
      <rtept lat="33.559613" lon="126.793016" />
      <rtept lat="33.559579" lon="126.793142" />
      <rtept lat="33.559454" lon="126.793457" />
      <rtept lat="33.559339" lon="126.793655" />
      <rtept lat="33.558653" lon="126.794398" />
      <rtept lat="33.55838" lon="126.794735" />
      <rtept lat="33.55826" lon="126.794841" />
      <rtept lat="33.558103" lon="126.794902" />
      <rtept lat="33.557958" lon="126.794912" />
      <rtept lat="33.557851" lon="126.794882" />
      <rtept lat="33.557776" lon="126.794837" />
      <rtept lat="33.557711" lon="126.794749" />
      <rtept lat="33.557265" lon="126.794653" />
      <rtept lat="33.557016" lon="126.79465" />
      <rtept lat="33.55677" lon="126.794752" />
      <rtept lat="33.556652" lon="126.794813" />
      <rtept lat="33.556581" lon="126.794888" />
      <rtept lat="33.556598" lon="126.794915" />
      <rtept lat="33.556508" lon="126.795003" />
      <rtept lat="33.556341" lon="126.79523" />
      <rtept lat="33.555954" lon="126.795802" />
      <rtept lat="33.555746" lon="126.796135" />
      <rtept lat="33.555666" lon="126.796301" />
      <rtept lat="33.555162" lon="126.797544" />
      <rtept lat="33.555051" lon="126.797894" />
      <rtept lat="33.555011" lon="126.798114" />
      <rtept lat="33.55499" lon="126.798344" />
      <rtept lat="33.554996" lon="126.798854" />
      <rtept lat="33.555032" lon="126.79921" />
      <rtept lat="33.554979" lon="126.799224" />
      <rtept lat="33.555007" lon="126.799355" />
      <rtept lat="33.55512" lon="126.799735" />
      <rtept lat="33.555247" lon="126.80001" />
      <rtept lat="33.555406" lon="126.800284" />
      <rtept lat="33.55563" lon="126.800526" />
      <rtept lat="33.555774" lon="126.800649" />
      <rtept lat="33.556125" lon="126.800868" />
      <rtept lat="33.556831" lon="126.801212" />
      <rtept lat="33.557283" lon="126.801465" />
      <rtept lat="33.557477" lon="126.801644" />
      <rtept lat="33.55767" lon="126.801973" />
      <rtept lat="33.557765" lon="126.802276" />
      <rtept lat="33.557796" lon="126.802582" />
      <rtept lat="33.557763" lon="126.802862" />
      <rtept lat="33.557683" lon="126.803108" />
      <rtept lat="33.557413" lon="126.803577" />
      <rtept lat="33.556742" lon="126.804595" />
      <rtept lat="33.556613" lon="126.804838" />
      <rtept lat="33.556558" lon="126.805006" />
      <rtept lat="33.556526" lon="126.805201" />
      <rtept lat="33.556524" lon="126.805336" />
      <rtept lat="33.556628" lon="126.80602" />
      <rtept lat="33.556591" lon="126.806362" />
      <rtept lat="33.556458" lon="126.807156" />
      <rtept lat="33.556375" lon="126.807755" />
      <rtept lat="33.557224" lon="126.807712" />
      <rtept lat="33.557327" lon="126.807871" />
      <rtept lat="33.557409" lon="126.808001" />
      <rtept lat="33.55734" lon="126.808174" />
      <rtept lat="33.557308" lon="126.808314" />
      <rtept lat="33.557432" lon="126.808398" />
      <rtept lat="33.557425" lon="126.808626" />
      <rtept lat="33.557452" lon="126.808732" />
      <rtept lat="33.5573" lon="126.809365" />
      <rtept lat="33.557181" lon="126.809431" />
      <rtept lat="33.557024" lon="126.809406" />
      <rtept lat="33.55665" lon="126.809707" />
      <rtept lat="33.556469" lon="126.8098" />
      <rtept lat="33.556188" lon="126.809983" />
      <rtept lat="33.556032" lon="126.810197" />
      <rtept lat="33.555885" lon="126.810081" />
      <rtept lat="33.555534" lon="126.809829" />
      <rtept lat="33.555393" lon="126.809755" />
      <rtept lat="33.555228" lon="126.809715" />
      <rtept lat="33.554944" lon="126.809369" />
      <rtept lat="33.554904" lon="126.80936" />
      <rtept lat="33.554793" lon="126.809495" />
      <rtept lat="33.554689" lon="126.80955" />
      <rtept lat="33.5546" lon="126.809769" />
      <rtept lat="33.554475" lon="126.809888" />
      <rtept lat="33.554423" lon="126.810019" />
      <rtept lat="33.554348" lon="126.810554" />
      <rtept lat="33.554356" lon="126.811099" />
      <rtept lat="33.554233" lon="126.811365" />
      <rtept lat="33.554189" lon="126.811338" />
      <rtept lat="33.554006" lon="126.811287" />
      <rtept lat="33.553881" lon="126.811118" />
      <rtept lat="33.553733" lon="126.811029" />
      <rtept lat="33.553528" lon="126.81108" />
      <rtept lat="33.553128" lon="126.811233" />
      <rtept lat="33.552971" lon="126.811252">
         <ele>10</ele>
      </rtept>
      <rtept lat="33.552814" lon="126.811428">
         <ele>10</ele>
      </rtept>
      <rtept lat="33.552717" lon="126.811477">
         <ele>10</ele>
      </rtept>
      <rtept lat="33.552518" lon="126.811484">
         <ele>10</ele>
      </rtept>
      <rtept lat="33.552489" lon="126.811501">
         <ele>10</ele>
      </rtept>
      <rtept lat="33.552414" lon="126.811671">
         <ele>10</ele>
      </rtept>
      <rtept lat="33.552347" lon="126.811927">
         <ele>10</ele>
      </rtept>
      <rtept lat="33.552308" lon="126.811998">
         <ele>10</ele>
      </rtept>
      <rtept lat="33.552263" lon="126.812029">
         <ele>10</ele>
      </rtept>
      <rtept lat="33.552155" lon="126.812042">
         <ele>10</ele>
      </rtept>
      <rtept lat="33.552199" lon="126.812187">
         <ele>10</ele>
      </rtept>
      <rtept lat="33.552186" lon="126.812252">
         <ele>10</ele>
      </rtept>
      <rtept lat="33.552121" lon="126.8124">
         <ele>10</ele>
      </rtept>
      <rtept lat="33.551991" lon="126.812501">
         <ele>10</ele>
      </rtept>
      <rtept lat="33.551947" lon="126.812579">
         <ele>10</ele>
      </rtept>
      <rtept lat="33.551934" lon="126.812653">
         <ele>10</ele>
      </rtept>
      <rtept lat="33.552061" lon="126.813018">
         <ele>10</ele>
      </rtept>
      <rtept lat="33.552169" lon="126.813518">
         <ele>10</ele>
      </rtept>
      <rtept lat="33.552196" lon="126.813665">
         <ele>10</ele>
      </rtept>
      <rtept lat="33.55212" lon="126.813715">
         <ele>10</ele>
      </rtept>
      <rtept lat="33.552038" lon="126.813802">
         <ele>10</ele>
      </rtept>
      <rtept lat="33.551807" lon="126.814088">
         <ele>10</ele>
      </rtept>
      <rtept lat="33.551531" lon="126.814298">
         <ele>10</ele>
      </rtept>
      <rtept lat="33.551492" lon="126.814362">
         <ele>10</ele>
      </rtept>
      <rtept lat="33.551462" lon="126.814457">
         <ele>10</ele>
      </rtept>
      <rtept lat="33.551496" lon="126.814548">
         <ele>10</ele>
      </rtept>
      <rtept lat="33.551501" lon="126.814608">
         <ele>10</ele>
      </rtept>
      <rtept lat="33.551503" lon="126.814709">
         <ele>10</ele>
      </rtept>
      <rtept lat="33.55148" lon="126.814782">
         <ele>10</ele>
      </rtept>
      <rtept lat="33.551472" lon="126.814892">
         <ele>10</ele>
      </rtept>
      <rtept lat="33.551519" lon="126.81506">
         <ele>10</ele>
      </rtept>
      <rtept lat="33.551487" lon="126.815274">
         <ele>10</ele>
      </rtept>
      <rtept lat="33.551356" lon="126.815599">
         <ele>10</ele>
      </rtept>
      <rtept lat="33.551317" lon="126.81589">
         <ele>10</ele>
      </rtept>
      <rtept lat="33.551332" lon="126.815974">
         <ele>10</ele>
      </rtept>
      <rtept lat="33.551408" lon="126.816157">
         <ele>10</ele>
      </rtept>
      <rtept lat="33.551404" lon="126.816266">
         <ele>10</ele>
      </rtept>
      <rtept lat="33.55121" lon="126.816649">
         <ele>10</ele>
      </rtept>
      <rtept lat="33.551201" lon="126.817035">
         <ele>10</ele>
      </rtept>
      <rtept lat="33.551186" lon="126.817083">
         <ele>10</ele>
      </rtept>
      <rtept lat="33.551097" lon="126.817212">
         <ele>10</ele>
      </rtept>
      <rtept lat="33.551392" lon="126.817602">
         <ele>10</ele>
      </rtept>
      <rtept lat="33.55157" lon="126.81783" />
      <rtept lat="33.551689" lon="126.817937" />
      <rtept lat="33.551462" lon="126.818206" />
      <rtept lat="33.55133" lon="126.818313" />
      <rtept lat="33.551201" lon="126.818469" />
      <rtept lat="33.550944" lon="126.818594" />
      <rtept lat="33.550762" lon="126.818657" />
      <rtept lat="33.550641" lon="126.818727">
         <ele>20</ele>
      </rtept>
      <rtept lat="33.550392" lon="126.818931">
         <ele>20</ele>
      </rtept>
      <rtept lat="33.550267" lon="126.819073">
         <ele>20</ele>
      </rtept>
      <rtept lat="33.550165" lon="126.819128">
         <ele>20</ele>
      </rtept>
      <rtept lat="33.550041" lon="126.819148">
         <ele>20</ele>
      </rtept>
      <rtept lat="33.549825" lon="126.819106">
         <ele>20</ele>
      </rtept>
      <rtept lat="33.549559" lon="126.819143">
         <ele>20</ele>
      </rtept>
      <rtept lat="33.549477" lon="126.819198">
         <ele>20</ele>
      </rtept>
      <rtept lat="33.549397" lon="126.819303">
         <ele>20</ele>
      </rtept>
      <rtept lat="33.549202" lon="126.819432">
         <ele>20</ele>
      </rtept>
      <rtept lat="33.549104" lon="126.819472">
         <ele>20</ele>
      </rtept>
      <rtept lat="33.548936" lon="126.81946">
         <ele>20</ele>
      </rtept>
      <rtept lat="33.548872" lon="126.819504">
         <ele>20</ele>
      </rtept>
      <rtept lat="33.548808" lon="126.819629">
         <ele>20</ele>
      </rtept>
      <rtept lat="33.548712" lon="126.819911">
         <ele>20</ele>
      </rtept>
      <rtept lat="33.548618" lon="126.820095">
         <ele>20</ele>
      </rtept>
      <rtept lat="33.548652" lon="126.820184">
         <ele>20</ele>
      </rtept>
      <rtept lat="33.548686" lon="126.820382">
         <ele>20</ele>
      </rtept>
      <rtept lat="33.548694" lon="126.820544">
         <ele>20</ele>
      </rtept>
      <rtept lat="33.548683" lon="126.820623">
         <ele>20</ele>
      </rtept>
      <rtept lat="33.548736" lon="126.820654">
         <ele>20</ele>
      </rtept>
      <rtept lat="33.548768" lon="126.820727">
         <ele>20</ele>
      </rtept>
      <rtept lat="33.548725" lon="126.821023">
         <ele>20</ele>
      </rtept>
      <rtept lat="33.548664" lon="126.821377" />
      <rtept lat="33.548736" lon="126.821695" />
      <rtept lat="33.548901" lon="126.821987" />
      <rtept lat="33.548988" lon="126.822101" />
      <rtept lat="33.54906" lon="126.822159" />
      <rtept lat="33.549011" lon="126.82256" />
      <rtept lat="33.549047" lon="126.822779" />
      <rtept lat="33.549188" lon="126.823105" />
      <rtept lat="33.549191" lon="126.823303" />
      <rtept lat="33.549165" lon="126.823513">
         <ele>10</ele>
      </rtept>
      <rtept lat="33.549141" lon="126.823707">
         <ele>10</ele>
      </rtept>
      <rtept lat="33.549233" lon="126.823869">
         <ele>10</ele>
      </rtept>
      <rtept lat="33.549415" lon="126.823958">
         <ele>10</ele>
      </rtept>
      <rtept lat="33.549693" lon="126.824638">
         <ele>10</ele>
      </rtept>
      <rtept lat="33.549563" lon="126.824709">
         <ele>10</ele>
      </rtept>
      <rtept lat="33.549583" lon="126.824894">
         <ele>10</ele>
      </rtept>
      <rtept lat="33.549693" lon="126.825008">
         <ele>10</ele>
      </rtept>
      <rtept lat="33.549785" lon="126.825083">
         <ele>10</ele>
      </rtept>
      <rtept lat="33.549843" lon="126.825102">
         <ele>10</ele>
      </rtept>
      <rtept lat="33.54992" lon="126.825064">
         <ele>10</ele>
      </rtept>
      <rtept lat="33.549982" lon="126.825054">
         <ele>10</ele>
      </rtept>
      <rtept lat="33.550057" lon="126.825104">
         <ele>10</ele>
      </rtept>
      <rtept lat="33.549939" lon="126.825312">
         <ele>10</ele>
      </rtept>
      <rtept lat="33.54981" lon="126.825391">
         <ele>10</ele>
      </rtept>
      <rtept lat="33.549717" lon="126.825414">
         <ele>10</ele>
      </rtept>
      <rtept lat="33.549671" lon="126.825392">
         <ele>10</ele>
      </rtept>
      <rtept lat="33.549492" lon="126.825292">
         <ele>10</ele>
      </rtept>
      <rtept lat="33.549304" lon="126.82512">
         <ele>10</ele>
      </rtept>
      <rtept lat="33.549122" lon="126.824872">
         <ele>10</ele>
      </rtept>
      <rtept lat="33.549078" lon="126.824877">
         <ele>10</ele>
      </rtept>
      <rtept lat="33.548866" lon="126.82479">
         <ele>10</ele>
      </rtept>
      <rtept lat="33.548787" lon="126.824655">
         <ele>10</ele>
      </rtept>
      <rtept lat="33.548673" lon="126.824593">
         <ele>10</ele>
      </rtept>
      <rtept lat="33.548572" lon="126.824432">
         <ele>10</ele>
      </rtept>
      <rtept lat="33.548502" lon="126.824391">
         <ele>10</ele>
      </rtept>
      <rtept lat="33.548467" lon="126.824387">
         <ele>10</ele>
      </rtept>
      <rtept lat="33.548339" lon="126.824436">
         <ele>10</ele>
      </rtept>
      <rtept lat="33.548259" lon="126.824425">
         <ele>10</ele>
      </rtept>
      <rtept lat="33.548159" lon="126.824323">
         <ele>10</ele>
      </rtept>
      <rtept lat="33.548107" lon="126.824291">
         <ele>10</ele>
      </rtept>
      <rtept lat="33.548015" lon="126.824297">
         <ele>10</ele>
      </rtept>
      <rtept lat="33.547929" lon="126.824219">
         <ele>10</ele>
      </rtept>
      <rtept lat="33.5478" lon="126.82414">
         <ele>10</ele>
      </rtept>
      <rtept lat="33.547653" lon="126.824117">
         <ele>10</ele>
      </rtept>
      <rtept lat="33.547573" lon="126.824122">
         <ele>10</ele>
      </rtept>
      <rtept lat="33.547324" lon="126.824256">
         <ele>10</ele>
      </rtept>
      <rtept lat="33.547264" lon="126.824251">
         <ele>10</ele>
      </rtept>
      <rtept lat="33.547049" lon="126.824133">
         <ele>10</ele>
      </rtept>
      <rtept lat="33.546765" lon="126.824082">
         <ele>10</ele>
      </rtept>
      <rtept lat="33.546557" lon="126.823986">
         <ele>10</ele>
      </rtept>
      <rtept lat="33.546506" lon="126.824">
         <ele>10</ele>
      </rtept>
      <rtept lat="33.54626" lon="126.824287">
         <ele>10</ele>
      </rtept>
      <rtept lat="33.546182" lon="126.824342">
         <ele>10</ele>
      </rtept>
      <rtept lat="33.546142" lon="126.824346">
         <ele>10</ele>
      </rtept>
      <rtept lat="33.546074" lon="126.824325">
         <ele>10</ele>
      </rtept>
      <rtept lat="33.545667" lon="126.82409">
         <ele>10</ele>
      </rtept>
      <rtept lat="33.545485" lon="126.824026">
         <ele>10</ele>
      </rtept>
      <rtept lat="33.545291" lon="126.82412">
         <ele>10</ele>
      </rtept>
      <rtept lat="33.54509" lon="126.824293">
         <ele>10</ele>
      </rtept>
      <rtept lat="33.545013" lon="126.824449">
         <ele>10</ele>
      </rtept>
      <rtept lat="33.545066" lon="126.824601">
         <ele>10</ele>
      </rtept>
      <rtept lat="33.5453" lon="126.824752">
         <ele>10</ele>
      </rtept>
      <rtept lat="33.545554" lon="126.825032">
         <ele>10</ele>
      </rtept>
      <rtept lat="33.545608" lon="126.825094">
         <ele>10</ele>
      </rtept>
      <rtept lat="33.54567" lon="126.825245">
         <ele>10</ele>
      </rtept>
      <rtept lat="33.545726" lon="126.82527">
         <ele>10</ele>
      </rtept>
      <rtept lat="33.545857" lon="126.82551">
         <ele>10</ele>
      </rtept>
      <rtept lat="33.545896" lon="126.82563">
         <ele>10</ele>
      </rtept>
      <rtept lat="33.545935" lon="126.825852">
         <ele>10</ele>
      </rtept>
      <rtept lat="33.545911" lon="126.82592">
         <ele>10</ele>
      </rtept>
      <rtept lat="33.545762" lon="126.826101">
         <ele>10</ele>
      </rtept>
      <rtept lat="33.545595" lon="126.826239">
         <ele>10</ele>
      </rtept>
      <rtept lat="33.545539" lon="126.826508">
         <ele>10</ele>
      </rtept>
      <rtept lat="33.545464" lon="126.826607">
         <ele>10</ele>
      </rtept>
      <rtept lat="33.545382" lon="126.826674">
         <ele>10</ele>
      </rtept>
      <rtept lat="33.545197" lon="126.826638">
         <ele>10</ele>
      </rtept>
      <rtept lat="33.54491" lon="126.826961">
         <ele>10</ele>
      </rtept>
      <rtept lat="33.544804" lon="126.82722">
         <ele>10</ele>
      </rtept>
      <rtept lat="33.544694" lon="126.827329">
         <ele>10</ele>
      </rtept>
      <rtept lat="33.544612" lon="126.827498" />
      <rtept lat="33.544336" lon="126.827401">
         <ele>10</ele>
      </rtept>
      <rtept lat="33.544077" lon="126.827341">
         <ele>10</ele>
      </rtept>
      <rtept lat="33.543868" lon="126.827326">
         <ele>10</ele>
      </rtept>
      <rtept lat="33.543409" lon="126.827361">
         <ele>10</ele>
      </rtept>
      <rtept lat="33.54332" lon="126.827401">
         <ele>10</ele>
      </rtept>
      <rtept lat="33.543133" lon="126.82757">
         <ele>10</ele>
      </rtept>
      <rtept lat="33.542972" lon="126.827688">
         <ele>10</ele>
      </rtept>
      <rtept lat="33.542585" lon="126.827904">
         <ele>10</ele>
      </rtept>
      <rtept lat="33.542427" lon="126.82797" />
      <rtept lat="33.542348" lon="126.827982" />
      <rtept lat="33.542128" lon="126.827936" />
      <rtept lat="33.541783" lon="126.827987" />
      <rtept lat="33.541507" lon="126.827995" />
      <rtept lat="33.541358" lon="126.828041" />
      <rtept lat="33.541254" lon="126.828142" />
      <rtept lat="33.541109" lon="126.828211" />
      <rtept lat="33.54121" lon="126.828508" />
      <rtept lat="33.54128" lon="126.82864" />
      <rtept lat="33.541034" lon="126.829035" />
      <rtept lat="33.540882" lon="126.829246" />
      <rtept lat="33.540706" lon="126.829368" />
      <rtept lat="33.540599" lon="126.829376" />
      <rtept lat="33.540536" lon="126.829415" />
      <rtept lat="33.540424" lon="126.829524" />
      <rtept lat="33.540298" lon="126.829648" />
      <rtept lat="33.540437" lon="126.829816" />
      <rtept lat="33.540655" lon="126.830024" />
      <rtept lat="33.540593" lon="126.830264" />
      <rtept lat="33.540596" lon="126.830566" />
      <rtept lat="33.540623" lon="126.83061" />
      <rtept lat="33.540546" lon="126.830785" />
      <rtept lat="33.540528" lon="126.830915" />
      <rtept lat="33.540349" lon="126.831031" />
      <rtept lat="33.540282" lon="126.831133" />
      <rtept lat="33.540247" lon="126.831223" />
      <rtept lat="33.54023" lon="126.831331" />
      <rtept lat="33.540222" lon="126.831429" />
      <rtept lat="33.539989" lon="126.83144" />
      <rtept lat="33.539868" lon="126.831547" />
      <rtept lat="33.539692" lon="126.831862" />
      <rtept lat="33.539313" lon="126.832443" />
      <rtept lat="33.539103" lon="126.832847" />
      <rtept lat="33.539049" lon="126.83294" />
      <rtept lat="33.539188" lon="126.833058" />
      <rtept lat="33.539219" lon="126.833059" />
      <rtept lat="33.539359" lon="126.832936" />
      <rtept lat="33.539415" lon="126.832906" />
      <rtept lat="33.539445" lon="126.832904" />
      <rtept lat="33.539463" lon="126.832921" />
      <rtept lat="33.539705" lon="126.833137" />
      <rtept lat="33.539667" lon="126.833213" />
      <rtept lat="33.539766" lon="126.833354" />
      <rtept lat="33.53973" lon="126.833662" />
      <rtept lat="33.539765" lon="126.833703" />
      <rtept lat="33.539657" lon="126.83389" />
      <rtept lat="33.539112" lon="126.834857" />
      <rtept lat="33.538734" lon="126.835253" />
      <rtept lat="33.538445" lon="126.835455" />
      <rtept lat="33.538109" lon="126.835579" />
      <rtept lat="33.537832" lon="126.835653" />
      <rtept lat="33.53715" lon="126.835706" />
      <rtept lat="33.536678" lon="126.835667" />
      <rtept lat="33.536369" lon="126.835674" />
      <rtept lat="33.536091" lon="126.835713" />
      <rtept lat="33.535706" lon="126.835795" />
      <rtept lat="33.535888" lon="126.83596" />
      <rtept lat="33.535476" lon="126.83666" />
      <rtept lat="33.535392" lon="126.836803" />
      <rtept lat="33.535298" lon="126.836867" />
      <rtept lat="33.535027" lon="126.837163" />
      <rtept lat="33.534942" lon="126.837223" />
      <rtept lat="33.534874" lon="126.837346" />
      <rtept lat="33.534788" lon="126.837367" />
      <rtept lat="33.535105" lon="126.837553" />
      <rtept lat="33.534995" lon="126.837678" />
      <rtept lat="33.534803" lon="126.837995" />
      <rtept lat="33.534773" lon="126.838088" />
      <rtept lat="33.534796" lon="126.83819" />
      <rtept lat="33.534897" lon="126.838367" />
      <rtept lat="33.534807" lon="126.838478" />
      <rtept lat="33.53475" lon="126.838507" />
      <rtept lat="33.534697" lon="126.838581" />
      <rtept lat="33.534681" lon="126.838858" />
      <rtept lat="33.534656" lon="126.838952" />
      <rtept lat="33.534539" lon="126.839223" />
      <rtept lat="33.534482" lon="126.839313" />
      <rtept lat="33.534359" lon="126.839433" />
      <rtept lat="33.53418" lon="126.839527" />
      <rtept lat="33.53397" lon="126.839806" />
      <rtept lat="33.534063" lon="126.840117" />
      <rtept lat="33.533765" lon="126.840186" />
      <rtept lat="33.533549" lon="126.840246" />
      <rtept lat="33.533434" lon="126.840311" />
      <rtept lat="33.533296" lon="126.840419" />
      <rtept lat="33.533225" lon="126.840507" />
      <rtept lat="33.532571" lon="126.840731">
         <ele>10</ele>
      </rtept>
      <rtept lat="33.531865" lon="126.841298">
         <ele>10</ele>
      </rtept>
      <rtept lat="33.531659" lon="126.841446">
         <ele>10</ele>
      </rtept>
      <rtept lat="33.531585" lon="126.841551">
         <ele>10</ele>
      </rtept>
      <rtept lat="33.531471" lon="126.841445">
         <ele>10</ele>
      </rtept>
      <rtept lat="33.531083" lon="126.841163">
         <ele>10</ele>
      </rtept>
      <rtept lat="33.530738" lon="126.840852">
         <ele>10</ele>
      </rtept>
      <rtept lat="33.530545" lon="126.841129">
         <ele>10</ele>
      </rtept>
      <rtept lat="33.530729" lon="126.841325">
         <ele>10</ele>
      </rtept>
      <rtept lat="33.530737" lon="126.841367">
         <ele>10</ele>
      </rtept>
      <rtept lat="33.530638" lon="126.841547">
         <ele>10</ele>
      </rtept>
      <rtept lat="33.530399" lon="126.841788">
         <ele>10</ele>
      </rtept>
      <rtept lat="33.530266" lon="126.842214">
         <ele>10</ele>
      </rtept>
      <rtept lat="33.530231" lon="126.842269">
         <ele>10</ele>
      </rtept>
      <rtept lat="33.530139" lon="126.842308">
         <ele>10</ele>
      </rtept>
      <rtept lat="33.530176" lon="126.842448">
         <ele>10</ele>
      </rtept>
      <rtept lat="33.530177" lon="126.842508">
         <ele>10</ele>
      </rtept>
      <rtept lat="33.53005" lon="126.842669">
         <ele>10</ele>
      </rtept>
      <rtept lat="33.529857" lon="126.842963">
         <ele>10</ele>
      </rtept>
      <rtept lat="33.52953" lon="126.843373">
         <ele>10</ele>
      </rtept>
      <rtept lat="33.529806" lon="126.843534">
         <ele>10</ele>
      </rtept>
      <rtept lat="33.529571" lon="126.844024">
         <ele>10</ele>
      </rtept>
      <rtept lat="33.529543" lon="126.844194">
         <ele>10</ele>
      </rtept>
      <rtept lat="33.529605" lon="126.844476">
         <ele>10</ele>
      </rtept>
      <rtept lat="33.529816" lon="126.845116">
         <ele>10</ele>
      </rtept>
      <rtept lat="33.529945" lon="126.845459">
         <ele>10</ele>
      </rtept>
      <rtept lat="33.530137" lon="126.845893">
         <ele>10</ele>
      </rtept>
      <rtept lat="33.530014" lon="126.846091">
         <ele>10</ele>
      </rtept>
      <rtept lat="33.529821" lon="126.846325">
         <ele>10</ele>
      </rtept>
      <rtept lat="33.529641" lon="126.846602">
         <ele>10</ele>
      </rtept>
      <rtept lat="33.529588" lon="126.846796">
         <ele>10</ele>
      </rtept>
      <rtept lat="33.529496" lon="126.846938">
         <ele>10</ele>
      </rtept>
      <rtept lat="33.529462" lon="126.847108">
         <ele>10</ele>
      </rtept>
      <rtept lat="33.529467" lon="126.847284">
         <ele>10</ele>
      </rtept>
      <rtept lat="33.529445" lon="126.847336">
         <ele>10</ele>
      </rtept>
      <rtept lat="33.529375" lon="126.847387">
         <ele>10</ele>
      </rtept>
      <rtept lat="33.529403" lon="126.847562">
         <ele>10</ele>
      </rtept>
      <rtept lat="33.529511" lon="126.847681">
         <ele>10</ele>
      </rtept>
      <rtept lat="33.529671" lon="126.847907">
         <ele>10</ele>
      </rtept>
      <rtept lat="33.529901" lon="126.847826">
         <ele>10</ele>
      </rtept>
      <rtept lat="33.529578" lon="126.848162">
         <ele>10</ele>
      </rtept>
      <rtept lat="33.529512" lon="126.84826">
         <ele>10</ele>
      </rtept>
      <rtept lat="33.529479" lon="126.848364">
         <ele>10</ele>
      </rtept>
      <rtept lat="33.529415" lon="126.848489">
         <ele>10</ele>
      </rtept>
      <rtept lat="33.529252" lon="126.84873">
         <ele>10</ele>
      </rtept>
      <rtept lat="33.529189" lon="126.848801">
         <ele>10</ele>
      </rtept>
      <rtept lat="33.529072" lon="126.84887">
         <ele>10</ele>
      </rtept>
      <rtept lat="33.528989" lon="126.848978">
         <ele>10</ele>
      </rtept>
      <rtept lat="33.52881" lon="126.849337">
         <ele>10</ele>
      </rtept>
      <rtept lat="33.528674" lon="126.849483">
         <ele>10</ele>
      </rtept>
      <rtept lat="33.528524" lon="126.849677">
         <ele>10</ele>
      </rtept>
      <rtept lat="33.52839" lon="126.849792">
         <ele>10</ele>
      </rtept>
      <rtept lat="33.528247" lon="126.84986">
         <ele>10</ele>
      </rtept>
      <rtept lat="33.528195" lon="126.849902">
         <ele>10</ele>
      </rtept>
      <rtept lat="33.527972" lon="126.850255">
         <ele>10</ele>
      </rtept>
      <rtept lat="33.527846" lon="126.850402">
         <ele>10</ele>
      </rtept>
      <rtept lat="33.527689" lon="126.850669">
         <ele>10</ele>
      </rtept>
      <rtept lat="33.52775" lon="126.850801">
         <ele>10</ele>
      </rtept>
      <rtept lat="33.527833" lon="126.850982" />
      <rtept lat="33.527666" lon="126.851146" />
      <rtept lat="33.527519" lon="126.851262" />
      <rtept lat="33.527367" lon="126.851354" />
      <rtept lat="33.527275" lon="126.851377" />
      <rtept lat="33.527055" lon="126.851375">
         <ele>10</ele>
      </rtept>
      <rtept lat="33.526923" lon="126.851459">
         <ele>10</ele>
      </rtept>
      <rtept lat="33.526947" lon="126.851691">
         <ele>10</ele>
      </rtept>
      <rtept lat="33.52692" lon="126.85183">
         <ele>10</ele>
      </rtept>
      <rtept lat="33.526731" lon="126.852222">
         <ele>10</ele>
      </rtept>
      <rtept lat="33.526664" lon="126.852238">
         <ele>10</ele>
      </rtept>
      <rtept lat="33.526531" lon="126.852252" />
      <rtept lat="33.526456" lon="126.852315" />
      <rtept lat="33.526202" lon="126.8526" />
      <rtept lat="33.526106" lon="126.852683" />
      <rtept lat="33.526555" lon="126.852836" />
      <rtept lat="33.526673" lon="126.852893" />
      <rtept lat="33.526591" lon="126.853084" />
      <rtept lat="33.526681" lon="126.85322" />
      <rtept lat="33.526743" lon="126.853312" />
      <rtept lat="33.526721" lon="126.853466" />
      <rtept lat="33.526818" lon="126.853699" />
      <rtept lat="33.526792" lon="126.853841" />
      <rtept lat="33.526835" lon="126.853916" />
      <rtept lat="33.527018" lon="126.854062" />
      <rtept lat="33.527147" lon="126.854204" />
      <rtept lat="33.527039" lon="126.854443" />
      <rtept lat="33.527363" lon="126.854648" />
      <rtept lat="33.526726" lon="126.856088" />
      <rtept lat="33.52657" lon="126.856409" />
      <rtept lat="33.526615" lon="126.856431" />
      <rtept lat="33.526558" lon="126.856634" />
      <rtept lat="33.526149" lon="126.858085" />
      <rtept lat="33.526106" lon="126.858161" />
      <rtept lat="33.526072" lon="126.858183" />
      <rtept lat="33.526013" lon="126.858187" />
      <rtept lat="33.525503" lon="126.857991" />
      <rtept lat="33.525321" lon="126.857983" />
      <rtept lat="33.525242" lon="126.858013" />
      <rtept lat="33.525123" lon="126.858098" />
      <rtept lat="33.525054" lon="126.858188" />
      <rtept lat="33.525007" lon="126.8583" />
      <rtept lat="33.524983" lon="126.858375" />
      <rtept lat="33.524922" lon="126.858772" />
      <rtept lat="33.524853" lon="126.85949" />
      <rtept lat="33.52476" lon="126.859944" />
      <rtept lat="33.524622" lon="126.860898" />
      <rtept lat="33.524622" lon="126.861165" />
      <rtept lat="33.524676" lon="126.861433" />
      <rtept lat="33.524695" lon="126.861708" />
      <rtept lat="33.524654" lon="126.861935" />
      <rtept lat="33.524609" lon="126.862064" />
      <rtept lat="33.524568" lon="126.862046" />
      <rtept lat="33.524544" lon="126.862124" />
      <rtept lat="33.524423" lon="126.862138" />
      <rtept lat="33.523988" lon="126.862251" />
      <rtept lat="33.523212" lon="126.862527" />
      <rtept lat="33.523249" lon="126.862681" />
      <rtept lat="33.523019" lon="126.862759" />
   </rte>
</gpx>