<?xml version="1.0" encoding="utf-8"?>
<gpx version="1.1" creator="Movescount - http://www.movescount.com" xmlns:xsi="http://www.w3.org/2001/XMLSchema-instance" xsi:schemaLocation="http://www.topografix.com/GPX/1/1 http://www.topografix.com/GPX/1/1/gpx.xsd http://www.cluetrust.com/XML/GPXDATA/1/0 http://www.cluetrust.com/Schemas/gpxdata10.xsd http://www.garmin.com/xmlschemas/TrackPointExtension/v1 http://www.garmin.com/xmlschemas/TrackPointExtensionv1.xsd" xmlns:gpxdata="http://www.cluetrust.com/XML/GPXDATA/1/0" xmlns:gpxtpx="http://www.garmin.com/xmlschemas/TrackPointExtension/v1" xmlns="http://www.topografix.com/GPX/1/1">
   <rte>
      <name>ollegil 15-a</name>
      <rtept lat="33.418639" lon="126.262341" />
      <rtept lat="33.41865" lon="126.262415" />
      <rtept lat="33.419753" lon="126.262113" />
      <rtept lat="33.420038" lon="126.26202" />
      <rtept lat="33.421585" lon="126.261921" />
      <rtept lat="33.421784" lon="126.261922" />
      <rtept lat="33.422126" lon="126.261996" />
      <rtept lat="33.422925" lon="126.262483" />
      <rtept lat="33.424777" lon="126.263638" />
      <rtept lat="33.424871" lon="126.263845" />
      <rtept lat="33.424979" lon="126.264407" />
      <rtept lat="33.425033" lon="126.264479" />
      <rtept lat="33.425156" lon="126.26449" />
      <rtept lat="33.426108" lon="126.264253" />
      <rtept lat="33.426207" lon="126.264942">
         <ele>10</ele>
      </rtept>
      <rtept lat="33.426215" lon="126.264995">
         <ele>10</ele>
      </rtept>
      <rtept lat="33.426323" lon="126.265184">
         <ele>10</ele>
      </rtept>
      <rtept lat="33.426462" lon="126.265517">
         <ele>10</ele>
      </rtept>
      <rtept lat="33.426494" lon="126.265721">
         <ele>10</ele>
      </rtept>
      <rtept lat="33.4264" lon="126.266549">
         <ele>10</ele>
      </rtept>
      <rtept lat="33.426188" lon="126.26698">
         <ele>10</ele>
      </rtept>
      <rtept lat="33.426202" lon="126.267179">
         <ele>10</ele>
      </rtept>
      <rtept lat="33.426059" lon="126.267436">
         <ele>10</ele>
      </rtept>
      <rtept lat="33.426038" lon="126.267526">
         <ele>10</ele>
      </rtept>
      <rtept lat="33.426093" lon="126.267923">
         <ele>10</ele>
      </rtept>
      <rtept lat="33.426177" lon="126.268055">
         <ele>10</ele>
      </rtept>
      <rtept lat="33.426232" lon="126.268418">
         <ele>10</ele>
      </rtept>
      <rtept lat="33.426179" lon="126.268584">
         <ele>10</ele>
      </rtept>
      <rtept lat="33.426087" lon="126.26875">
         <ele>10</ele>
      </rtept>
      <rtept lat="33.426131" lon="126.268839">
         <ele>10</ele>
      </rtept>
      <rtept lat="33.42632" lon="126.269102">
         <ele>10</ele>
      </rtept>
      <rtept lat="33.426513" lon="126.269091">
         <ele>10</ele>
      </rtept>
      <rtept lat="33.426563" lon="126.269064">
         <ele>10</ele>
      </rtept>
      <rtept lat="33.426682" lon="126.268883">
         <ele>10</ele>
      </rtept>
      <rtept lat="33.426724" lon="126.26886" />
      <rtept lat="33.426953" lon="126.268824" />
      <rtept lat="33.426993" lon="126.269182" />
      <rtept lat="33.427123" lon="126.269538" />
      <rtept lat="33.427163" lon="126.26972" />
      <rtept lat="33.427436" lon="126.270094" />
      <rtept lat="33.427517" lon="126.270205" />
      <rtept lat="33.426767" lon="126.271219" />
      <rtept lat="33.425252" lon="126.273329">
         <ele>20</ele>
      </rtept>
      <rtept lat="33.425167" lon="126.273448">
         <ele>20</ele>
      </rtept>
      <rtept lat="33.426595" lon="126.274943">
         <ele>20</ele>
      </rtept>
      <rtept lat="33.426492" lon="126.275085">
         <ele>20</ele>
      </rtept>
      <rtept lat="33.425495" lon="126.276468" />
      <rtept lat="33.425436" lon="126.276576" />
      <rtept lat="33.425419" lon="126.27664" />
      <rtept lat="33.425443" lon="126.277041" />
      <rtept lat="33.425423" lon="126.277128" />
      <rtept lat="33.425342" lon="126.27729" />
      <rtept lat="33.425337" lon="126.277424" />
      <rtept lat="33.425423" lon="126.277604" />
      <rtept lat="33.425292" lon="126.277624" />
      <rtept lat="33.425303" lon="126.277705" />
      <rtept lat="33.425547" lon="126.277644" />
      <rtept lat="33.425654" lon="126.277776" />
      <rtept lat="33.42572" lon="126.277892" />
      <rtept lat="33.425757" lon="126.277956" />
      <rtept lat="33.425774" lon="126.278031" />
      <rtept lat="33.425824" lon="126.278111" />
      <rtept lat="33.426259" lon="126.278537" />
      <rtept lat="33.426438" lon="126.278842" />
      <rtept lat="33.426657" lon="126.279112" />
      <rtept lat="33.426704" lon="126.279206" />
      <rtept lat="33.426852" lon="126.279266" />
      <rtept lat="33.427018" lon="126.279379" />
      <rtept lat="33.427167" lon="126.279524" />
      <rtept lat="33.427284" lon="126.279603" />
      <rtept lat="33.427437" lon="126.279629" />
      <rtept lat="33.427531" lon="126.280262" />
      <rtept lat="33.427549" lon="126.280384" />
      <rtept lat="33.427599" lon="126.280523" />
      <rtept lat="33.427804" lon="126.280878" />
      <rtept lat="33.427848" lon="126.280918" />
      <rtept lat="33.427922" lon="126.280947" />
      <rtept lat="33.428132" lon="126.28097" />
      <rtept lat="33.428246" lon="126.281027" />
      <rtept lat="33.428503" lon="126.28141" />
      <rtept lat="33.428571" lon="126.281457" />
      <rtept lat="33.428703" lon="126.281493" />
      <rtept lat="33.428822" lon="126.281618" />
      <rtept lat="33.42891" lon="126.281731" />
      <rtept lat="33.429252" lon="126.282304" />
      <rtept lat="33.429289" lon="126.282402" />
      <rtept lat="33.429057" lon="126.282509" />
      <rtept lat="33.428927" lon="126.282724" />
      <rtept lat="33.429097" lon="126.283099">
         <ele>30</ele>
      </rtept>
      <rtept lat="33.429352" lon="126.283369">
         <ele>30</ele>
      </rtept>
      <rtept lat="33.429438" lon="126.283427">
         <ele>30</ele>
      </rtept>
      <rtept lat="33.429539" lon="126.283442">
         <ele>30</ele>
      </rtept>
      <rtept lat="33.429622" lon="126.283405">
         <ele>30</ele>
      </rtept>
      <rtept lat="33.429696" lon="126.283392">
         <ele>30</ele>
      </rtept>
      <rtept lat="33.429747" lon="126.2834">
         <ele>30</ele>
      </rtept>
      <rtept lat="33.42983" lon="126.283507">
         <ele>30</ele>
      </rtept>
      <rtept lat="33.430212" lon="126.28367">
         <ele>30</ele>
      </rtept>
      <rtept lat="33.430328" lon="126.28389">
         <ele>30</ele>
      </rtept>
      <rtept lat="33.430366" lon="126.284008">
         <ele>30</ele>
      </rtept>
      <rtept lat="33.430373" lon="126.284138">
         <ele>30</ele>
      </rtept>
      <rtept lat="33.430295" lon="126.284263">
         <ele>30</ele>
      </rtept>
      <rtept lat="33.430259" lon="126.284271">
         <ele>30</ele>
      </rtept>
      <rtept lat="33.430198" lon="126.284372">
         <ele>30</ele>
      </rtept>
      <rtept lat="33.430247" lon="126.284457">
         <ele>30</ele>
      </rtept>
      <rtept lat="33.430591" lon="126.284787">
         <ele>30</ele>
      </rtept>
      <rtept lat="33.430804" lon="126.284881">
         <ele>30</ele>
      </rtept>
      <rtept lat="33.430892" lon="126.285118">
         <ele>30</ele>
      </rtept>
      <rtept lat="33.430987" lon="126.285312">
         <ele>30</ele>
      </rtept>
      <rtept lat="33.431097" lon="126.285389">
         <ele>30</ele>
      </rtept>
      <rtept lat="33.431215" lon="126.285432">
         <ele>30</ele>
      </rtept>
      <rtept lat="33.43151" lon="126.285529" />
      <rtept lat="33.431599" lon="126.285601" />
      <rtept lat="33.431864" lon="126.285935" />
      <rtept lat="33.431882" lon="126.286171" />
      <rtept lat="33.431921" lon="126.286253" />
      <rtept lat="33.431993" lon="126.286346" />
      <rtept lat="33.432145" lon="126.286488" />
      <rtept lat="33.432321" lon="126.286575" />
      <rtept lat="33.432458" lon="126.286611" />
      <rtept lat="33.432474" lon="126.286588" />
      <rtept lat="33.43253" lon="126.286703" />
      <rtept lat="33.432515" lon="126.286869" />
      <rtept lat="33.432539" lon="126.286958" />
      <rtept lat="33.432648" lon="126.2871" />
      <rtept lat="33.432716" lon="126.287234" />
      <rtept lat="33.432739" lon="126.28735">
         <ele>30</ele>
      </rtept>
      <rtept lat="33.432728" lon="126.287464">
         <ele>30</ele>
      </rtept>
      <rtept lat="33.432756" lon="126.287574">
         <ele>30</ele>
      </rtept>
      <rtept lat="33.432813" lon="126.287728">
         <ele>30</ele>
      </rtept>
      <rtept lat="33.432692" lon="126.287944">
         <ele>30</ele>
      </rtept>
      <rtept lat="33.432615" lon="126.288195">
         <ele>30</ele>
      </rtept>
      <rtept lat="33.432612" lon="126.288253">
         <ele>30</ele>
      </rtept>
      <rtept lat="33.432864" lon="126.288589">
         <ele>30</ele>
      </rtept>
      <rtept lat="33.432947" lon="126.288968">
         <ele>30</ele>
      </rtept>
      <rtept lat="33.433094" lon="126.289078">
         <ele>30</ele>
      </rtept>
      <rtept lat="33.433206" lon="126.289255">
         <ele>30</ele>
      </rtept>
      <rtept lat="33.433224" lon="126.289442">
         <ele>30</ele>
      </rtept>
      <rtept lat="33.433405" lon="126.289626">
         <ele>30</ele>
      </rtept>
      <rtept lat="33.433478" lon="126.289767">
         <ele>30</ele>
      </rtept>
      <rtept lat="33.433422" lon="126.289997">
         <ele>30</ele>
      </rtept>
      <rtept lat="33.433431" lon="126.290352">
         <ele>30</ele>
      </rtept>
      <rtept lat="33.433467" lon="126.290586">
         <ele>30</ele>
      </rtept>
      <rtept lat="33.433422" lon="126.290832">
         <ele>30</ele>
      </rtept>
      <rtept lat="33.433446" lon="126.290975">
         <ele>30</ele>
      </rtept>
      <rtept lat="33.433567" lon="126.29105">
         <ele>30</ele>
      </rtept>
      <rtept lat="33.434007" lon="126.291212">
         <ele>30</ele>
      </rtept>
      <rtept lat="33.43406" lon="126.291279">
         <ele>30</ele>
      </rtept>
      <rtept lat="33.434078" lon="126.291438">
         <ele>30</ele>
      </rtept>
      <rtept lat="33.434344" lon="126.291814">
         <ele>30</ele>
      </rtept>
      <rtept lat="33.434395" lon="126.291842">
         <ele>30</ele>
      </rtept>
      <rtept lat="33.434503" lon="126.291842">
         <ele>30</ele>
      </rtept>
      <rtept lat="33.434547" lon="126.291892">
         <ele>30</ele>
      </rtept>
      <rtept lat="33.434583" lon="126.292104">
         <ele>30</ele>
      </rtept>
      <rtept lat="33.434682" lon="126.292267">
         <ele>30</ele>
      </rtept>
      <rtept lat="33.434724" lon="126.292316">
         <ele>30</ele>
      </rtept>
      <rtept lat="33.434771" lon="126.292515">
         <ele>30</ele>
      </rtept>
      <rtept lat="33.43494" lon="126.292982">
         <ele>30</ele>
      </rtept>
      <rtept lat="33.435023" lon="126.293059">
         <ele>30</ele>
      </rtept>
      <rtept lat="33.434537" lon="126.293222">
         <ele>30</ele>
      </rtept>
      <rtept lat="33.434332" lon="126.293265">
         <ele>30</ele>
      </rtept>
      <rtept lat="33.434159" lon="126.293934">
         <ele>30</ele>
      </rtept>
      <rtept lat="33.434122" lon="126.294729">
         <ele>30</ele>
      </rtept>
      <rtept lat="33.434115" lon="126.294966" />
      <rtept lat="33.433979" lon="126.295255" />
      <rtept lat="33.433951" lon="126.295688" />
      <rtept lat="33.433965" lon="126.295954" />
      <rtept lat="33.43381" lon="126.296084" />
      <rtept lat="33.43377" lon="126.296165" />
      <rtept lat="33.433701" lon="126.29645" />
      <rtept lat="33.432907" lon="126.297853" />
      <rtept lat="33.432911" lon="126.297901" />
      <rtept lat="33.432331" lon="126.298019">
         <ele>40</ele>
      </rtept>
      <rtept lat="33.432329" lon="126.298168">
         <ele>40</ele>
      </rtept>
      <rtept lat="33.432208" lon="126.298542">
         <ele>40</ele>
      </rtept>
      <rtept lat="33.43189" lon="126.299413">
         <ele>40</ele>
      </rtept>
      <rtept lat="33.431897" lon="126.299483">
         <ele>40</ele>
      </rtept>
      <rtept lat="33.431651" lon="126.299584">
         <ele>40</ele>
      </rtept>
      <rtept lat="33.431514" lon="126.299725">
         <ele>40</ele>
      </rtept>
      <rtept lat="33.431413" lon="126.299927">
         <ele>40</ele>
      </rtept>
      <rtept lat="33.431234" lon="126.300332">
         <ele>40</ele>
      </rtept>
      <rtept lat="33.43116" lon="126.30065">
         <ele>40</ele>
      </rtept>
      <rtept lat="33.431048" lon="126.300979">
         <ele>40</ele>
      </rtept>
      <rtept lat="33.431101" lon="126.301068">
         <ele>40</ele>
      </rtept>
      <rtept lat="33.430842" lon="126.301185">
         <ele>40</ele>
      </rtept>
      <rtept lat="33.430152" lon="126.301291">
         <ele>40</ele>
      </rtept>
      <rtept lat="33.430142" lon="126.301302">
         <ele>40</ele>
      </rtept>
      <rtept lat="33.430155" lon="126.301447">
         <ele>40</ele>
      </rtept>
      <rtept lat="33.430165" lon="126.301566">
         <ele>40</ele>
      </rtept>
      <rtept lat="33.430138" lon="126.301816">
         <ele>40</ele>
      </rtept>
      <rtept lat="33.430093" lon="126.30195">
         <ele>40</ele>
      </rtept>
      <rtept lat="33.429916" lon="126.302299">
         <ele>40</ele>
      </rtept>
      <rtept lat="33.429882" lon="126.302414">
         <ele>40</ele>
      </rtept>
      <rtept lat="33.42991" lon="126.302631">
         <ele>40</ele>
      </rtept>
      <rtept lat="33.429972" lon="126.302875">
         <ele>40</ele>
      </rtept>
      <rtept lat="33.429967" lon="126.302942">
         <ele>40</ele>
      </rtept>
      <rtept lat="33.429851" lon="126.303219">
         <ele>40</ele>
      </rtept>
      <rtept lat="33.429755" lon="126.303396">
         <ele>40</ele>
      </rtept>
      <rtept lat="33.429537" lon="126.303698">
         <ele>40</ele>
      </rtept>
      <rtept lat="33.429547" lon="126.30376">
         <ele>40</ele>
      </rtept>
      <rtept lat="33.429541" lon="126.304311">
         <ele>40</ele>
      </rtept>
      <rtept lat="33.429521" lon="126.304524">
         <ele>40</ele>
      </rtept>
      <rtept lat="33.429589" lon="126.304688">
         <ele>40</ele>
      </rtept>
      <rtept lat="33.42964" lon="126.304809">
         <ele>40</ele>
      </rtept>
      <rtept lat="33.429781" lon="126.304774">
         <ele>40</ele>
      </rtept>
      <rtept lat="33.430029" lon="126.304647">
         <ele>40</ele>
      </rtept>
      <rtept lat="33.43016" lon="126.304612">
         <ele>40</ele>
      </rtept>
      <rtept lat="33.430301" lon="126.304551">
         <ele>40</ele>
      </rtept>
      <rtept lat="33.430437" lon="126.304532">
         <ele>40</ele>
      </rtept>
      <rtept lat="33.430558" lon="126.304512">
         <ele>40</ele>
      </rtept>
      <rtept lat="33.430777" lon="126.304277">
         <ele>40</ele>
      </rtept>
      <rtept lat="33.430891" lon="126.304242">
         <ele>40</ele>
      </rtept>
      <rtept lat="33.431093" lon="126.304257">
         <ele>40</ele>
      </rtept>
      <rtept lat="33.431187" lon="126.3043">
         <ele>40</ele>
      </rtept>
      <rtept lat="33.431662" lon="126.304324">
         <ele>40</ele>
      </rtept>
      <rtept lat="33.431861" lon="126.304607">
         <ele>40</ele>
      </rtept>
      <rtept lat="33.431906" lon="126.304741">
         <ele>40</ele>
      </rtept>
      <rtept lat="33.431892" lon="126.304977">
         <ele>40</ele>
      </rtept>
      <rtept lat="33.431482" lon="126.305309">
         <ele>40</ele>
      </rtept>
      <rtept lat="33.43131" lon="126.305564">
         <ele>40</ele>
      </rtept>
      <rtept lat="33.43119" lon="126.305652">
         <ele>40</ele>
      </rtept>
      <rtept lat="33.430879" lon="126.305882">
         <ele>40</ele>
      </rtept>
      <rtept lat="33.430696" lon="126.305921">
         <ele>40</ele>
      </rtept>
      <rtept lat="33.430563" lon="126.305978">
         <ele>40</ele>
      </rtept>
      <rtept lat="33.430394" lon="126.306276">
         <ele>40</ele>
      </rtept>
      <rtept lat="33.430138" lon="126.306594">
         <ele>40</ele>
      </rtept>
      <rtept lat="33.429919" lon="126.307033">
         <ele>40</ele>
      </rtept>
      <rtept lat="33.429735" lon="126.30723">
         <ele>40</ele>
      </rtept>
      <rtept lat="33.430057" lon="126.307381">
         <ele>40</ele>
      </rtept>
      <rtept lat="33.43025" lon="126.30763">
         <ele>40</ele>
      </rtept>
      <rtept lat="33.43033" lon="126.307806">
         <ele>40</ele>
      </rtept>
      <rtept lat="33.430415" lon="126.308139">
         <ele>40</ele>
      </rtept>
      <rtept lat="33.430577" lon="126.308464">
         <ele>50</ele>
      </rtept>
      <rtept lat="33.430695" lon="126.308593">
         <ele>50</ele>
      </rtept>
      <rtept lat="33.430737" lon="126.308675">
         <ele>50</ele>
      </rtept>
      <rtept lat="33.430704" lon="126.308813">
         <ele>50</ele>
      </rtept>
      <rtept lat="33.430478" lon="126.308863">
         <ele>50</ele>
      </rtept>
      <rtept lat="33.430455" lon="126.308943">
         <ele>50</ele>
      </rtept>
      <rtept lat="33.430636" lon="126.309502">
         <ele>50</ele>
      </rtept>
      <rtept lat="33.430959" lon="126.310397">
         <ele>60</ele>
      </rtept>
      <rtept lat="33.431001" lon="126.310677">
         <ele>60</ele>
      </rtept>
      <rtept lat="33.430736" lon="126.310836">
         <ele>60</ele>
      </rtept>
      <rtept lat="33.430657" lon="126.310765">
         <ele>60</ele>
      </rtept>
      <rtept lat="33.430598" lon="126.310529">
         <ele>60</ele>
      </rtept>
      <rtept lat="33.430535" lon="126.310467">
         <ele>60</ele>
      </rtept>
      <rtept lat="33.430427" lon="126.310429">
         <ele>60</ele>
      </rtept>
      <rtept lat="33.430315" lon="126.31055">
         <ele>60</ele>
      </rtept>
      <rtept lat="33.430263" lon="126.310728">
         <ele>60</ele>
      </rtept>
      <rtept lat="33.43011" lon="126.310952">
         <ele>60</ele>
      </rtept>
      <rtept lat="33.430064" lon="126.311069">
         <ele>60</ele>
      </rtept>
      <rtept lat="33.429987" lon="126.311396">
         <ele>60</ele>
      </rtept>
      <rtept lat="33.429958" lon="126.31152">
         <ele>60</ele>
      </rtept>
      <rtept lat="33.42997" lon="126.311652">
         <ele>60</ele>
      </rtept>
      <rtept lat="33.430181" lon="126.312069">
         <ele>60</ele>
      </rtept>
      <rtept lat="33.430189" lon="126.312202">
         <ele>64.88104</ele>
      </rtept>
      <rtept lat="33.430068" lon="126.312377">
         <ele>70</ele>
      </rtept>
      <rtept lat="33.429914" lon="126.312742">
         <ele>70</ele>
      </rtept>
      <rtept lat="33.429795" lon="126.312876">
         <ele>70</ele>
      </rtept>
      <rtept lat="33.429679" lon="126.312951">
         <ele>70</ele>
      </rtept>
      <rtept lat="33.429581" lon="126.313145">
         <ele>70</ele>
      </rtept>
      <rtept lat="33.429793" lon="126.313144">
         <ele>70</ele>
      </rtept>
      <rtept lat="33.430236" lon="126.312989">
         <ele>70</ele>
      </rtept>
      <rtept lat="33.430442" lon="126.312975">
         <ele>70</ele>
      </rtept>
      <rtept lat="33.430721" lon="126.313035">
         <ele>70</ele>
      </rtept>
      <rtept lat="33.431146" lon="126.313051">
         <ele>70</ele>
      </rtept>
      <rtept lat="33.431372" lon="126.313043">
         <ele>70</ele>
      </rtept>
      <rtept lat="33.431579" lon="126.313067">
         <ele>70</ele>
      </rtept>
      <rtept lat="33.4317" lon="126.31303">
         <ele>70</ele>
      </rtept>
      <rtept lat="33.431853" lon="126.312936">
         <ele>70</ele>
      </rtept>
      <rtept lat="33.432132" lon="126.312706">
         <ele>70</ele>
      </rtept>
      <rtept lat="33.432229" lon="126.31302">
         <ele>70</ele>
      </rtept>
      <rtept lat="33.432157" lon="126.313283">
         <ele>70</ele>
      </rtept>
      <rtept lat="33.432186" lon="126.31337">
         <ele>70</ele>
      </rtept>
      <rtept lat="33.432336" lon="126.313439">
         <ele>70</ele>
      </rtept>
      <rtept lat="33.43284" lon="126.313385">
         <ele>70</ele>
      </rtept>
      <rtept lat="33.432973" lon="126.313449">
         <ele>70</ele>
      </rtept>
      <rtept lat="33.433057" lon="126.31357">
         <ele>70</ele>
      </rtept>
      <rtept lat="33.433265" lon="126.313714">
         <ele>70</ele>
      </rtept>
      <rtept lat="33.433366" lon="126.313755">
         <ele>70</ele>
      </rtept>
      <rtept lat="33.433564" lon="126.313887">
         <ele>70</ele>
      </rtept>
      <rtept lat="33.433952" lon="126.314001">
         <ele>70</ele>
      </rtept>
      <rtept lat="33.434023" lon="126.314115">
         <ele>70</ele>
      </rtept>
      <rtept lat="33.434111" lon="126.314377">
         <ele>70</ele>
      </rtept>
      <rtept lat="33.434288" lon="126.314547">
         <ele>70</ele>
      </rtept>
      <rtept lat="33.43433" lon="126.314503">
         <ele>70</ele>
      </rtept>
      <rtept lat="33.434424" lon="126.314468">
         <ele>70</ele>
      </rtept>
      <rtept lat="33.434493" lon="126.314473">
         <ele>70</ele>
      </rtept>
      <rtept lat="33.434631" lon="126.314528">
         <ele>70</ele>
      </rtept>
      <rtept lat="33.434707" lon="126.314507">
         <ele>70</ele>
      </rtept>
      <rtept lat="33.434793" lon="126.314642">
         <ele>70</ele>
      </rtept>
      <rtept lat="33.434894" lon="126.314715">
         <ele>70</ele>
      </rtept>
      <rtept lat="33.435014" lon="126.314875">
         <ele>70</ele>
      </rtept>
      <rtept lat="33.435221" lon="126.315047">
         <ele>70</ele>
      </rtept>
      <rtept lat="33.435273" lon="126.31517">
         <ele>70</ele>
      </rtept>
      <rtept lat="33.435253" lon="126.315328">
         <ele>70</ele>
      </rtept>
      <rtept lat="33.435273" lon="126.315499">
         <ele>70</ele>
      </rtept>
      <rtept lat="33.435298" lon="126.315588" />
      <rtept lat="33.43549" lon="126.31561" />
      <rtept lat="33.4356" lon="126.315717">
         <ele>60</ele>
      </rtept>
      <rtept lat="33.435696" lon="126.315988">
         <ele>60</ele>
      </rtept>
      <rtept lat="33.435974" lon="126.3162">
         <ele>60</ele>
      </rtept>
      <rtept lat="33.436276" lon="126.316331">
         <ele>60</ele>
      </rtept>
      <rtept lat="33.436404" lon="126.316358">
         <ele>57.32751</ele>
      </rtept>
      <rtept lat="33.436692" lon="126.316334">
         <ele>55.65868</ele>
      </rtept>
      <rtept lat="33.43697" lon="126.316586">
         <ele>50</ele>
      </rtept>
      <rtept lat="33.436936" lon="126.316817">
         <ele>50</ele>
      </rtept>
      <rtept lat="33.436952" lon="126.31702">
         <ele>50</ele>
      </rtept>
      <rtept lat="33.436997" lon="126.317232">
         <ele>50</ele>
      </rtept>
      <rtept lat="33.437121" lon="126.317517">
         <ele>50</ele>
      </rtept>
      <rtept lat="33.437066" lon="126.317576">
         <ele>50</ele>
      </rtept>
      <rtept lat="33.436886" lon="126.317615">
         <ele>50</ele>
      </rtept>
      <rtept lat="33.436526" lon="126.317837">
         <ele>50</ele>
      </rtept>
      <rtept lat="33.436077" lon="126.317961">
         <ele>50</ele>
      </rtept>
      <rtept lat="33.435727" lon="126.318135">
         <ele>55.37186</ele>
      </rtept>
      <rtept lat="33.435456" lon="126.318185">
         <ele>60</ele>
      </rtept>
      <rtept lat="33.435134" lon="126.318159">
         <ele>60</ele>
      </rtept>
      <rtept lat="33.434779" lon="126.318078">
         <ele>64.04887</ele>
      </rtept>
      <rtept lat="33.434688" lon="126.318039">
         <ele>64.99535</ele>
      </rtept>
      <rtept lat="33.434581" lon="126.318123">
         <ele>65.87917</ele>
      </rtept>
      <rtept lat="33.434451" lon="126.318306">
         <ele>66.79811</ele>
      </rtept>
      <rtept lat="33.43413" lon="126.31857">
         <ele>70</ele>
      </rtept>
      <rtept lat="33.433944" lon="126.318635">
         <ele>70</ele>
      </rtept>
      <rtept lat="33.433333" lon="126.318518">
         <ele>70</ele>
      </rtept>
      <rtept lat="33.433188" lon="126.318442">
         <ele>70</ele>
      </rtept>
      <rtept lat="33.432905" lon="126.318544">
         <ele>70</ele>
      </rtept>
      <rtept lat="33.432649" lon="126.31873">
         <ele>80</ele>
      </rtept>
      <rtept lat="33.4325" lon="126.318819">
         <ele>80</ele>
      </rtept>
      <rtept lat="33.432268" lon="126.31886">
         <ele>80</ele>
      </rtept>
      <rtept lat="33.432077" lon="126.318947">
         <ele>80</ele>
      </rtept>
      <rtept lat="33.43167" lon="126.319242">
         <ele>80</ele>
      </rtept>
      <rtept lat="33.431543" lon="126.319287">
         <ele>80</ele>
      </rtept>
      <rtept lat="33.431257" lon="126.319299">
         <ele>80</ele>
      </rtept>
      <rtept lat="33.431098" lon="126.319343">
         <ele>80</ele>
      </rtept>
      <rtept lat="33.430785" lon="126.319198">
         <ele>80</ele>
      </rtept>
      <rtept lat="33.430432" lon="126.319112">
         <ele>80</ele>
      </rtept>
      <rtept lat="33.43004" lon="126.319057" />
      <rtept lat="33.432032" lon="126.321143">
         <ele>80</ele>
      </rtept>
      <rtept lat="33.432365" lon="126.321538">
         <ele>80</ele>
      </rtept>
      <rtept lat="33.432681" lon="126.321987">
         <ele>80</ele>
      </rtept>
      <rtept lat="33.432887" lon="126.322371">
         <ele>80</ele>
      </rtept>
      <rtept lat="33.433188" lon="126.322713">
         <ele>80</ele>
      </rtept>
      <rtept lat="33.433168" lon="126.323057">
         <ele>80</ele>
      </rtept>
      <rtept lat="33.433102" lon="126.323153">
         <ele>80</ele>
      </rtept>
      <rtept lat="33.43299" lon="126.323216">
         <ele>80</ele>
      </rtept>
      <rtept lat="33.432662" lon="126.323222">
         <ele>85.49717</ele>
      </rtept>
      <rtept lat="33.43255" lon="126.323248">
         <ele>86.65007</ele>
      </rtept>
      <rtept lat="33.432387" lon="126.323519">
         <ele>90</ele>
      </rtept>
      <rtept lat="33.432276" lon="126.323873">
         <ele>89.93842</ele>
      </rtept>
      <rtept lat="33.432203" lon="126.324173">
         <ele>89.71577</ele>
      </rtept>
      <rtept lat="33.432107" lon="126.324388">
         <ele>89.24028</ele>
      </rtept>
      <rtept lat="33.431977" lon="126.324591">
         <ele>90</ele>
      </rtept>
      <rtept lat="33.431825" lon="126.324752">
         <ele>90</ele>
      </rtept>
      <rtept lat="33.431657" lon="126.324752">
         <ele>90</ele>
      </rtept>
      <rtept lat="33.431487" lon="126.32468">
         <ele>90</ele>
      </rtept>
      <rtept lat="33.431388" lon="126.3249">
         <ele>90</ele>
      </rtept>
      <rtept lat="33.431451" lon="126.325147">
         <ele>90</ele>
      </rtept>
      <rtept lat="33.431366" lon="126.325208">
         <ele>90</ele>
      </rtept>
      <rtept lat="33.431194" lon="126.325447">
         <ele>90</ele>
      </rtept>
      <rtept lat="33.430865" lon="126.325785">
         <ele>96.48474</ele>
      </rtept>
      <rtept lat="33.431035" lon="126.326086">
         <ele>95.16438</ele>
      </rtept>
      <rtept lat="33.431409" lon="126.326617">
         <ele>90</ele>
      </rtept>
      <rtept lat="33.431312" lon="126.326696">
         <ele>92.05457</ele>
      </rtept>
      <rtept lat="33.431672" lon="126.327471">
         <ele>90</ele>
      </rtept>
      <rtept lat="33.431779" lon="126.32757">
         <ele>90</ele>
      </rtept>
      <rtept lat="33.431875" lon="126.327588">
         <ele>90</ele>
      </rtept>
      <rtept lat="33.432052" lon="126.327581">
         <ele>85.45616</ele>
      </rtept>
      <rtept lat="33.432229" lon="126.327548">
         <ele>84.08793</ele>
      </rtept>
      <rtept lat="33.432577" lon="126.327685">
         <ele>80</ele>
      </rtept>
      <rtept lat="33.432652" lon="126.327752">
         <ele>80</ele>
      </rtept>
      <rtept lat="33.432866" lon="126.327648">
         <ele>80</ele>
      </rtept>
      <rtept lat="33.432981" lon="126.32756">
         <ele>80</ele>
      </rtept>
      <rtept lat="33.433068" lon="126.327723">
         <ele>80</ele>
      </rtept>
      <rtept lat="33.433054" lon="126.327884">
         <ele>80</ele>
      </rtept>
      <rtept lat="33.433153" lon="126.328044">
         <ele>80</ele>
      </rtept>
      <rtept lat="33.433203" lon="126.328524">
         <ele>80</ele>
      </rtept>
      <rtept lat="33.433384" lon="126.328494">
         <ele>80</ele>
      </rtept>
      <rtept lat="33.433468" lon="126.328851">
         <ele>80</ele>
      </rtept>
      <rtept lat="33.433547" lon="126.329018">
         <ele>80</ele>
      </rtept>
      <rtept lat="33.433802" lon="126.329317">
         <ele>83.12292</ele>
      </rtept>
      <rtept lat="33.43391" lon="126.329379">
         <ele>83.27251</ele>
      </rtept>
      <rtept lat="33.434202" lon="126.329449">
         <ele>82.89664</ele>
      </rtept>
      <rtept lat="33.434381" lon="126.329547">
         <ele>83.19534</ele>
      </rtept>
      <rtept lat="33.434685" lon="126.329789">
         <ele>84.25894</ele>
      </rtept>
      <rtept lat="33.43482" lon="126.330038">
         <ele>85.92845</ele>
      </rtept>
      <rtept lat="33.43486" lon="126.330067">
         <ele>85.91265</ele>
      </rtept>
      <rtept lat="33.434813" lon="126.330262">
         <ele>88.21976</ele>
      </rtept>
      <rtept lat="33.434472" lon="126.330432">
         <ele>90</ele>
      </rtept>
      <rtept lat="33.433915" lon="126.330488">
         <ele>90</ele>
      </rtept>
      <rtept lat="33.433702" lon="126.330984">
         <ele>97.12027</ele>
      </rtept>
      <rtept lat="33.43375" lon="126.331091">
         <ele>100</ele>
      </rtept>
      <rtept lat="33.433747" lon="126.331105">
         <ele>100</ele>
      </rtept>
      <rtept lat="33.433893" lon="126.331105">
         <ele>100</ele>
      </rtept>
      <rtept lat="33.434121" lon="126.331159">
         <ele>100</ele>
      </rtept>
      <rtept lat="33.434463" lon="126.330952">
         <ele>94.57104</ele>
      </rtept>
      <rtept lat="33.434575" lon="126.33062">
         <ele>90</ele>
      </rtept>
      <rtept lat="33.434472" lon="126.330432">
         <ele>90</ele>
      </rtept>
      <rtept lat="33.434813" lon="126.330262">
         <ele>88.21976</ele>
      </rtept>
      <rtept lat="33.43486" lon="126.330067">
         <ele>85.91265</ele>
      </rtept>
      <rtept lat="33.434941" lon="126.330067">
         <ele>85.24056</ele>
      </rtept>
      <rtept lat="33.435064" lon="126.330032">
         <ele>83.80767</ele>
      </rtept>
      <rtept lat="33.435513" lon="126.329985">
         <ele>80</ele>
      </rtept>
      <rtept lat="33.435837" lon="126.329902">
         <ele>80</ele>
      </rtept>
      <rtept lat="33.435937" lon="126.329918">
         <ele>80</ele>
      </rtept>
      <rtept lat="33.436018" lon="126.329974">
         <ele>80</ele>
      </rtept>
      <rtept lat="33.436146" lon="126.330008">
         <ele>80</ele>
      </rtept>
      <rtept lat="33.43627" lon="126.330003">
         <ele>80</ele>
      </rtept>
      <rtept lat="33.436394" lon="126.329985">
         <ele>80</ele>
      </rtept>
      <rtept lat="33.436694" lon="126.329897">
         <ele>80</ele>
      </rtept>
      <rtept lat="33.436948" lon="126.329845">
         <ele>80</ele>
      </rtept>
      <rtept lat="33.437065" lon="126.329918">
         <ele>80</ele>
      </rtept>
      <rtept lat="33.437399" lon="126.330272">
         <ele>80</ele>
      </rtept>
      <rtept lat="33.437566" lon="126.330436" />
      <rtept lat="33.437743" lon="126.330515" />
      <rtept lat="33.437911" lon="126.330562" />
      <rtept lat="33.438358" lon="126.33054">
         <ele>70</ele>
      </rtept>
      <rtept lat="33.438513" lon="126.330564">
         <ele>70</ele>
      </rtept>
      <rtept lat="33.438741" lon="126.33046">
         <ele>70</ele>
      </rtept>
      <rtept lat="33.4389" lon="126.330354">
         <ele>70</ele>
      </rtept>
      <rtept lat="33.43896" lon="126.330001">
         <ele>70</ele>
      </rtept>
      <rtept lat="33.439218" lon="126.329161">
         <ele>70</ele>
      </rtept>
      <rtept lat="33.43935" lon="126.328948">
         <ele>70</ele>
      </rtept>
      <rtept lat="33.439529" lon="126.328777">
         <ele>70</ele>
      </rtept>
      <rtept lat="33.439661" lon="126.328563">
         <ele>70</ele>
      </rtept>
      <rtept lat="33.439814" lon="126.328144">
         <ele>70</ele>
      </rtept>
      <rtept lat="33.440117" lon="126.327947">
         <ele>60</ele>
      </rtept>
      <rtept lat="33.440529" lon="126.327698">
         <ele>60</ele>
      </rtept>
      <rtept lat="33.440591" lon="126.327682">
         <ele>60</ele>
      </rtept>
      <rtept lat="33.440824" lon="126.327739">
         <ele>60</ele>
      </rtept>
      <rtept lat="33.440903" lon="126.327742">
         <ele>60</ele>
      </rtept>
      <rtept lat="33.441075" lon="126.327688">
         <ele>60</ele>
      </rtept>
      <rtept lat="33.44179" lon="126.327264">
         <ele>60</ele>
      </rtept>
      <rtept lat="33.442129" lon="126.327088">
         <ele>60</ele>
      </rtept>
      <rtept lat="33.442423" lon="126.327058">
         <ele>60</ele>
      </rtept>
      <rtept lat="33.442712" lon="126.327129">
         <ele>60</ele>
      </rtept>
      <rtept lat="33.44291" lon="126.327149">
         <ele>60</ele>
      </rtept>
      <rtept lat="33.443029" lon="126.327142">
         <ele>60</ele>
      </rtept>
      <rtept lat="33.443346" lon="126.327073">
         <ele>60</ele>
      </rtept>
      <rtept lat="33.443432" lon="126.326876">
         <ele>60</ele>
      </rtept>
      <rtept lat="33.443879" lon="126.326532">
         <ele>60</ele>
      </rtept>
      <rtept lat="33.444326" lon="126.326383">
         <ele>60</ele>
      </rtept>
      <rtept lat="33.444721" lon="126.32629">
         <ele>60</ele>
      </rtept>
      <rtept lat="33.444915" lon="126.326219">
         <ele>60</ele>
      </rtept>
      <rtept lat="33.445124" lon="126.326089">
         <ele>60</ele>
      </rtept>
      <rtept lat="33.445518" lon="126.326117">
         <ele>60.14777</ele>
      </rtept>
      <rtept lat="33.445544" lon="126.326098">
         <ele>60.68623</ele>
      </rtept>
      <rtept lat="33.44586" lon="126.325865">
         <ele>67.16809</ele>
      </rtept>
      <rtept lat="33.446141" lon="126.325725">
         <ele>73.80119</ele>
      </rtept>
      <rtept lat="33.446718" lon="126.325557">
         <ele>91.38928</ele>
      </rtept>
      <rtept lat="33.447299" lon="126.325746">
         <ele>98.80885</ele>
      </rtept>
      <rtept lat="33.447819" lon="126.325775">
         <ele>105.691</ele>
      </rtept>
      <rtept lat="33.448398" lon="126.325807">
         <ele>107.9947</ele>
      </rtept>
      <rtept lat="33.448811" lon="126.325606">
         <ele>111.9183</ele>
      </rtept>
      <rtept lat="33.449227" lon="126.325155">
         <ele>112.8962</ele>
      </rtept>
      <rtept lat="33.449415" lon="126.32491">
         <ele>109.0615</ele>
      </rtept>
      <rtept lat="33.449836" lon="126.324523">
         <ele>100</ele>
      </rtept>
      <rtept lat="33.450226" lon="126.324238">
         <ele>97.36454</ele>
      </rtept>
      <rtept lat="33.450487" lon="126.324233">
         <ele>94.703</ele>
      </rtept>
      <rtept lat="33.450592" lon="126.324289">
         <ele>93.67622</ele>
      </rtept>
      <rtept lat="33.4509" lon="126.324345">
         <ele>90</ele>
      </rtept>
      <rtept lat="33.451266" lon="126.324527">
         <ele>90</ele>
      </rtept>
      <rtept lat="33.451468" lon="126.324896">
         <ele>84.70319</ele>
      </rtept>
      <rtept lat="33.451511" lon="126.325134">
         <ele>80</ele>
      </rtept>
      <rtept lat="33.451628" lon="126.325387">
         <ele>80</ele>
      </rtept>
      <rtept lat="33.451702" lon="126.325517">
         <ele>80</ele>
      </rtept>
      <rtept lat="33.451854" lon="126.325723">
         <ele>80</ele>
      </rtept>
      <rtept lat="33.451858" lon="126.325961">
         <ele>76.7792</ele>
      </rtept>
      <rtept lat="33.451905" lon="126.326073">
         <ele>75.79286</ele>
      </rtept>
      <rtept lat="33.452018" lon="126.326264">
         <ele>73.97523</ele>
      </rtept>
      <rtept lat="33.452365" lon="126.326643">
         <ele>70</ele>
      </rtept>
      <rtept lat="33.452478" lon="126.326391">
         <ele>70</ele>
      </rtept>
      <rtept lat="33.452571" lon="126.326092">
         <ele>70</ele>
      </rtept>
      <rtept lat="33.452673" lon="126.32598">
         <ele>70</ele>
      </rtept>
      <rtept lat="33.452871" lon="126.325825">
         <ele>70</ele>
      </rtept>
      <rtept lat="33.452988" lon="126.325769">
         <ele>70</ele>
      </rtept>
      <rtept lat="33.453125" lon="126.325867">
         <ele>70</ele>
      </rtept>
      <rtept lat="33.453342" lon="126.325981">
         <ele>66.03999</ele>
      </rtept>
      <rtept lat="33.453668" lon="126.326436">
         <ele>60</ele>
      </rtept>
      <rtept lat="33.454423" lon="126.326702">
         <ele>54.39649</ele>
      </rtept>
      <rtept lat="33.454164" lon="126.326921">
         <ele>55.84015</ele>
      </rtept>
      <rtept lat="33.453979" lon="126.327036">
         <ele>60</ele>
      </rtept>
      <rtept lat="33.453984" lon="126.327115">
         <ele>60</ele>
      </rtept>
      <rtept lat="33.453942" lon="126.327166">
         <ele>60</ele>
      </rtept>
      <rtept lat="33.453972" lon="126.327312">
         <ele>60</ele>
      </rtept>
      <rtept lat="33.454322" lon="126.327791">
         <ele>50</ele>
      </rtept>
      <rtept lat="33.454571" lon="126.32784">
         <ele>50</ele>
      </rtept>
      <rtept lat="33.454656" lon="126.328025">
         <ele>50</ele>
      </rtept>
      <rtept lat="33.454769" lon="126.32858">
         <ele>50</ele>
      </rtept>
      <rtept lat="33.454921" lon="126.328725">
         <ele>50</ele>
      </rtept>
      <rtept lat="33.455209" lon="126.328811">
         <ele>50</ele>
      </rtept>
      <rtept lat="33.455394" lon="126.328925">
         <ele>50</ele>
      </rtept>
      <rtept lat="33.455602" lon="126.329107">
         <ele>50</ele>
      </rtept>
      <rtept lat="33.455623" lon="126.329175">
         <ele>50</ele>
      </rtept>
      <rtept lat="33.455569" lon="126.329335">
         <ele>50</ele>
      </rtept>
      <rtept lat="33.455366" lon="126.329729">
         <ele>50</ele>
      </rtept>
      <rtept lat="33.455371" lon="126.329929">
         <ele>50</ele>
      </rtept>
      <rtept lat="33.455538" lon="126.330105">
         <ele>50</ele>
      </rtept>
      <rtept lat="33.455826" lon="126.33">
         <ele>50</ele>
      </rtept>
      <rtept lat="33.45605" lon="126.32952">
         <ele>50</ele>
      </rtept>
      <rtept lat="33.45617" lon="126.329517">
         <ele>50</ele>
      </rtept>
      <rtept lat="33.456361" lon="126.329631">
         <ele>50</ele>
      </rtept>
      <rtept lat="33.456494" lon="126.329846">
         <ele>50</ele>
      </rtept>
      <rtept lat="33.456558" lon="126.330023">
         <ele>50</ele>
      </rtept>
      <rtept lat="33.456582" lon="126.33009">
         <ele>50</ele>
      </rtept>
      <rtept lat="33.456607" lon="126.33037">
         <ele>50</ele>
      </rtept>
      <rtept lat="33.456571" lon="126.330734">
         <ele>50</ele>
      </rtept>
      <rtept lat="33.456481" lon="126.330974">
         <ele>50</ele>
      </rtept>
      <rtept lat="33.45643" lon="126.331239">
         <ele>50</ele>
      </rtept>
      <rtept lat="33.456325" lon="126.331547">
         <ele>50</ele>
      </rtept>
      <rtept lat="33.456286" lon="126.331827">
         <ele>50</ele>
      </rtept>
      <rtept lat="33.456366" lon="126.331886">
         <ele>50</ele>
      </rtept>
      <rtept lat="33.456543" lon="126.331895">
         <ele>50</ele>
      </rtept>
      <rtept lat="33.456564" lon="126.332046">
         <ele>50</ele>
      </rtept>
      <rtept lat="33.456566" lon="126.332256">
         <ele>50</ele>
      </rtept>
      <rtept lat="33.456605" lon="126.332339">
         <ele>50</ele>
      </rtept>
      <rtept lat="33.456553" lon="126.332619">
         <ele>50</ele>
      </rtept>
      <rtept lat="33.45656" lon="126.332876">
         <ele>60</ele>
      </rtept>
      <rtept lat="33.456895" lon="126.332858">
         <ele>60</ele>
      </rtept>
      <rtept lat="33.457019" lon="126.332754">
         <ele>60</ele>
      </rtept>
      <rtept lat="33.457411" lon="126.332777">
         <ele>60</ele>
      </rtept>
      <rtept lat="33.457357" lon="126.332999">
         <ele>60</ele>
      </rtept>
      <rtept lat="33.457313" lon="126.333283">
         <ele>60</ele>
      </rtept>
      <rtept lat="33.457262" lon="126.333449">
         <ele>60</ele>
      </rtept>
      <rtept lat="33.457039" lon="126.333939">
         <ele>60</ele>
      </rtept>
      <rtept lat="33.456973" lon="126.334145">
         <ele>60</ele>
      </rtept>
      <rtept lat="33.456903" lon="126.334468">
         <ele>60</ele>
      </rtept>
      <rtept lat="33.456855" lon="126.334604">
         <ele>60</ele>
      </rtept>
      <rtept lat="33.456732" lon="126.334835">
         <ele>62.04623</ele>
      </rtept>
      <rtept lat="33.456857" lon="126.334928">
         <ele>62.35781</ele>
      </rtept>
      <rtept lat="33.457102" lon="126.334839">
         <ele>60.30769</ele>
      </rtept>
      <rtept lat="33.457293" lon="126.334821">
         <ele>60.81989</ele>
      </rtept>
      <rtept lat="33.457433" lon="126.334975">
         <ele>60.00421</ele>
      </rtept>
      <rtept lat="33.457632" lon="126.335063">
         <ele>60.37962</ele>
      </rtept>
      <rtept lat="33.45769" lon="126.335208">
         <ele>61.03897</ele>
      </rtept>
      <rtept lat="33.458187" lon="126.335347">
         <ele>57.25527</ele>
      </rtept>
      <rtept lat="33.458285" lon="126.335463">
         <ele>57.14339</ele>
      </rtept>
      <rtept lat="33.458462" lon="126.335622">
         <ele>56.29333</ele>
      </rtept>
      <rtept lat="33.458542" lon="126.335751">
         <ele>56.71752</ele>
      </rtept>
      <rtept lat="33.458672" lon="126.335916">
         <ele>56.95204</ele>
      </rtept>
      <rtept lat="33.458826" lon="126.336036">
         <ele>56.03424</ele>
      </rtept>
      <rtept lat="33.458954" lon="126.336156">
         <ele>55.4968</ele>
      </rtept>
      <rtept lat="33.459099" lon="126.336339">
         <ele>55.64085</ele>
      </rtept>
      <rtept lat="33.459239" lon="126.336489">
         <ele>55.08623</ele>
      </rtept>
      <rtept lat="33.459455" lon="126.33666">
         <ele>52.67208</ele>
      </rtept>
      <rtept lat="33.459578" lon="126.336795">
         <ele>51.92789</ele>
      </rtept>
      <rtept lat="33.459654" lon="126.336881">
         <ele>51.41185</ele>
      </rtept>
      <rtept lat="33.459809" lon="126.337019">
         <ele>50.20086</ele>
      </rtept>
      <rtept lat="33.459956" lon="126.337192">
         <ele>50.66711</ele>
      </rtept>
      <rtept lat="33.46004" lon="126.337459">
         <ele>52.78849</ele>
      </rtept>
      <rtept lat="33.460144" lon="126.337815">
         <ele>58.30197</ele>
      </rtept>
      <rtept lat="33.460282" lon="126.338063">
         <ele>60.76032</ele>
      </rtept>
      <rtept lat="33.460472" lon="126.338201">
         <ele>59.3052</ele>
      </rtept>
      <rtept lat="33.460754" lon="126.338185">
         <ele>51.81266</ele>
      </rtept>
      <rtept lat="33.460945" lon="126.338058">
         <ele>45.28855</ele>
      </rtept>
      <rtept lat="33.462452" lon="126.337695">
         <ele>23.57268</ele>
      </rtept>
      <rtept lat="33.462359" lon="126.337363">
         <ele>20</ele>
      </rtept>
      <rtept lat="33.462475" lon="126.337333">
         <ele>20</ele>
      </rtept>
      <rtept lat="33.462514" lon="126.337328">
         <ele>20</ele>
      </rtept>
      <rtept lat="33.462593" lon="126.337642">
         <ele>20</ele>
      </rtept>
      <rtept lat="33.462932" lon="126.338729">
         <ele>22.48327</ele>
      </rtept>
      <rtept lat="33.463273" lon="126.339195">
         <ele>20</ele>
      </rtept>
      <rtept lat="33.463934" lon="126.339835">
         <ele>20</ele>
      </rtept>
      <rtept lat="33.464114" lon="126.339531">
         <ele>20</ele>
      </rtept>
      <rtept lat="33.464405" lon="126.339744">
         <ele>20</ele>
      </rtept>
      <rtept lat="33.464556" lon="126.339928">
         <ele>20</ele>
      </rtept>
      <rtept lat="33.464586" lon="126.339904">
         <ele>20</ele>
      </rtept>
      <rtept lat="33.464877" lon="126.339824">
         <ele>20</ele>
      </rtept>
      <rtept lat="33.465078" lon="126.339756" />
      <rtept lat="33.465142" lon="126.339696" />
      <rtept lat="33.465359" lon="126.339379">
         <ele>10</ele>
      </rtept>
      <rtept lat="33.465551" lon="126.339196">
         <ele>10</ele>
      </rtept>
      <rtept lat="33.465597" lon="126.339122">
         <ele>10</ele>
      </rtept>
      <rtept lat="33.465946" lon="126.338832">
         <ele>10</ele>
      </rtept>
      <rtept lat="33.466188" lon="126.338748">
         <ele>10</ele>
      </rtept>
      <rtept lat="33.46625" lon="126.338687">
         <ele>10</ele>
      </rtept>
      <rtept lat="33.46639" lon="126.338456">
         <ele>10</ele>
      </rtept>
      <rtept lat="33.466633" lon="126.338448">
         <ele>10</ele>
      </rtept>
      <rtept lat="33.466701" lon="126.338373">
         <ele>10</ele>
      </rtept>
      <rtept lat="33.466722" lon="126.338195">
         <ele>10</ele>
      </rtept>
      <rtept lat="33.466749" lon="126.338116">
         <ele>10</ele>
      </rtept>
      <rtept lat="33.466894" lon="126.338094">
         <ele>10</ele>
      </rtept>
   </rte>
</gpx>