<?xml version="1.0" encoding="utf-8"?>
<kml xmlns:gx="http://www.google.com/kml/ext/2.2" xmlns="http://www.opengis.net/kml/2.2">
  <Document>
    <Style id="base_track_style">
      <LineStyle>
        <color>7f00ffff</color>
        <width>4</width>
      </LineStyle>
    </Style>
    <Folder><Placemark>
  <styleUrl>#base_track_style</styleUrl>
  <name>route</name>
  <MultiGeometry>
    <LineString>
      <coordinates>126.236672,33.274585,50
126.236672,33.274562,50
126.236062,33.274566,50
126.236099,33.274175,50
126.236111,33.27384,50
126.236031,33.273639,50
126.236027,33.273443,50
126.235658,33.272554,50
126.234277,33.273314,50
126.233769,33.2736,50
126.233724,33.273665,50
126.233691,33.273794,50
126.233675,33.273956,50
126.233271,33.273979,50
126.232958,33.27399,50
126.232883,33.273993,50
126.232887,33.273731,50
126.23289,33.273569,50
126.232916,33.273437,50
126.233071,33.272962,50
126.233236,33.272359,50
126.23323,33.272265,50
126.233171,33.272177,50
126.23317,33.272039,50
126.233167,33.271756,50
126.232368,33.271502,40
126.23229,33.271502,40
126.231714,33.271502,40
126.231407,33.271471,40
126.231111,33.271337,40
126.230886,33.27132,40
126.230596,33.271298,40
126.230419,33.271285,40
126.230373,33.271338,40
126.23046,33.271551,40
126.230464,33.271809,40
126.2304,33.272054,40
126.230319,33.272207,40
126.230128,33.272214,40
126.229755,33.272242,40
126.229424,33.272337,40
126.229382,33.272363,40
126.229187,33.272482,40
126.229069,33.272605,40
126.229016,33.27266,40
126.22892,33.272882,40
126.228915,33.272923,40
126.228896,33.273066,40
126.228895,33.273127,40
126.228894,33.273188,40
126.228892,33.273249,40
126.228891,33.27331,40
126.22889,33.273371,40
126.228886,33.273432,40
126.22887,33.273548,40
126.228845,33.273724,40
126.228843,33.273923,40
126.22884,33.274164,40
126.228853,33.274412,50
126.22882,33.274577,50
126.228798,33.274667,50
126.228737,33.274746,50
126.228656,33.274852,50
126.228623,33.274895,50
126.228609,33.274948,50
126.228583,33.275044,50
126.228556,33.27514,50
126.22853,33.275236,50
126.228518,33.275281,50
126.228401,33.275298,50
126.228217,33.275324,50
126.228,33.275355,50
126.227783,33.275385,50
126.227566,33.275416,50
126.227553,33.275418,50
126.227562,33.27547,50
126.227576,33.275549,50
126.227589,33.275623,50
126.227603,33.275697,50
126.227864,33.277166,50
126.22787,33.2772,50
126.22788,33.277255,50
126.22789,33.27731,50
126.2279,33.277365,50
126.227909,33.27742,50
126.227912,33.277435,50
126.227885,33.277438,50
126.227813,33.277448,50
126.227752,33.277456,50
126.227576,33.277479,50
126.227261,33.27752,50
126.225686,33.277725,50
126.225662,33.277728,50
126.225667,33.277748,50
126.225681,33.277811,50
126.225716,33.277959,50
126.225668,33.278092,50
126.22558,33.278259,50
126.225566,33.278314,50
126.225582,33.278385,50
126.225609,33.278509,50
126.225615,33.278539,50
126.225588,33.278637,50
126.225539,33.278746,50
126.225183,33.278768,50
126.225163,33.278767,50
126.225003,33.278764,50
126.224895,33.278761,50
126.224721,33.278758,50
126.224316,33.278739,50
126.224177,33.278817,50
126.224035,33.278936,50
126.223935,33.27902,50
126.223864,33.279029,50
126.223687,33.279052,50
126.223578,33.279064,50
126.223592,33.279219,50
126.223594,33.279243,50
126.223598,33.279276,50
126.223601,33.279309,50
126.223605,33.279342,50
126.223609,33.279375,50
126.223612,33.279408,50
126.223616,33.279441,50
126.223619,33.279474,50
126.22361,33.279503,50
126.223596,33.279534,50
126.223583,33.279565,50
126.223576,33.27958,50
126.223569,33.279596,50
126.223563,33.27961,50
126.223537,33.279602,50
126.223511,33.279595,50
126.223485,33.279587,50
126.223459,33.27958,50
126.223434,33.279573,50
126.223419,33.279568,50
126.223389,33.27956,50
126.223331,33.279544,50
126.223298,33.279538,50
126.223248,33.279534,50
126.223198,33.27953,50
126.223101,33.279522,50
126.223031,33.279532,50
126.222837,33.279553,50
126.222595,33.279569,50
126.222595,33.279582,50
126.222499,33.280722,50
126.22182,33.28092,50
126.221768,33.280935,50
126.221235,33.280921,50
126.220907,33.280921,50
126.220631,33.280962,50
126.220346,33.281064,50
126.220038,33.281129,50
126.219364,33.280967,50
126.219021,33.280921,50
126.218779,33.280921,50
126.218517,33.280921,50
126.218253,33.280962,50
126.218127,33.280982,50
126.21739,33.280918,50
126.217346,33.280914,50
126.217027,33.280997,50
126.216899,33.28103,50
126.21641,33.281031,50
126.21576,33.281047,50
126.214997,33.281118,50
126.214866,33.281291,50
126.214454,33.2813,40
126.214231,33.281318,40
126.21403,33.281248,40
126.213726,33.281209,40
126.213686,33.281221,40
126.213432,33.281295,40
126.213133,33.281443,40
126.21289,33.281426,40
126.211714,33.281389,40
126.21134,33.281451,40
126.210341,33.2814,40
126.210187,33.281377,40
126.209808,33.281431,40
126.20945,33.281439,40
126.209017,33.281507,40
126.208908,33.281468,40
126.208824,33.281378,40
126.208684,33.281315,40
126.208556,33.281288,40
126.208471,33.281303,40
126.208375,33.281371,40
126.208271,33.281396,40
126.208082,33.281389,40
126.207836,33.281347,40
126.207651,33.281388,40
126.20707,33.28166,40
126.206716,33.281725,40
126.206444,33.281707,40
126.205977,33.281494,30
126.205478,33.281464,30
126.20535,33.281334,30
126.20511,33.281231,30
126.203467,33.281307,30
126.203267,33.281456,30
126.203158,33.281928,30
126.203099,33.281999,30
126.202972,33.281876,30
126.202865,33.281732,30
126.202774,33.281575,30
126.202639,33.281405,30
126.202398,33.28119,30
126.201932,33.28106,30
126.201443,33.28084,30
126.20119,33.280669,30
126.200064,33.279791,40
126.199485,33.279157,40
126.198337,33.278549,50
126.198299,33.278586,50
126.197974,33.278699,50
126.197682,33.278727,50.57888
126.197398,33.278812,54.06023
126.197053,33.278959,60.00016
126.196736,33.278939,64.05373
126.196188,33.278864,67.1537
126.195754,33.278828,67.07616
126.195483,33.278844,66.72092
126.195291,33.278957,68.32274
126.195291,33.279168,72.92279
126.195497,33.279402,79.32325
126.195698,33.279543,77.95435
126.195772,33.279773,80
126.19573,33.280046,80
126.195628,33.280222,80
126.195455,33.280413,77.4774
126.195151,33.280449,79.64649
126.194838,33.280464,73.84721
126.194633,33.280339,69.30337
126.19454,33.280128,69.3625
126.194483,33.279832,67.52436
126.194521,33.27959,66.90678
126.194647,33.279316,66.51252
126.194497,33.279184,61.77795
126.194301,33.279086,56.9151
126.193676,33.27891,45.94932
126.193349,33.278856,41.93573
126.193255,33.278864,40.95036
126.193185,33.278848,40.06899
126.193105,33.278784,40
126.193092,33.278774,40
126.19305,33.278817,40
126.192973,33.27881,40
126.192782,33.278718,40
126.192781,33.278643,40
126.192662,33.278604,40
126.192293,33.278594,40
126.192357,33.278802,40
126.192006,33.27912,40
126.191824,33.279099,40
126.191621,33.27897,40
126.191561,33.27895,40
126.191271,33.278851,40
126.191102,33.278851,40
126.190972,33.278964,40
126.190816,33.278939,40
126.190669,33.279138,40
126.190504,33.278912,40
126.190544,33.278777,40
126.190585,33.278484,40
126.190723,33.277893,30
126.190812,33.277717,30
126.190924,33.277361,30
126.190999,33.276968,30
126.190928,33.276461,30
126.190877,33.276207,30
126.190763,33.275996,30
126.190487,33.275771,30
126.190263,33.275672,30
126.1897,33.275461,30
126.189188,33.275104,30
126.188372,33.274477,30
126.188124,33.274353,30
126.187657,33.274223,20
126.187375,33.274042,20
126.186587,33.273343,20
126.186366,33.273185,20
126.184693,33.273055,20
126.183964,33.272785,20
126.182708,33.272149,20
126.182513,33.27201,20
126.182241,33.272097,20
126.181872,33.272172,20
126.181581,33.272123,20
126.180948,33.271953,20
126.180668,33.271973,20
126.180394,33.271831,10
126.180065,33.272294,10
126.179944,33.272612,10
126.179835,33.272901,14
126.179724,33.272996,14
126.179564,33.273336,14
126.1789,33.2732,14
126.178575,33.273054,14
126.177794,33.272785,10
126.177111,33.272721,10
126.176563,33.272504,10
126.176458,33.272405,10
126.176271,33.271971,10
126.176128,33.27185,10
126.175928,33.27178,10
126.175688,33.271784,10
126.175706,33.271409,10
126.175734,33.271309,10
126.175702,33.271108,10
126.175702,33.270915,10
126.175768,33.270655,10
126.175295,33.271006,10
126.174904,33.271488,10
126.174756,33.271609,10
126.17468,33.271656,10
126.17449,33.271731,10
126.174086,33.271859,10
126.173816,33.272007,10
126.173659,33.272126,10
126.173482,33.27231,10
126.173355,33.272496,10
126.173127,33.2729,10
126.172771,33.273239,10
126.172116,33.2738,10
126.172058,33.273889,10
126.17204,33.273969,10
126.172069,33.274099,10
126.172258,33.274288,10
126.17238,33.27463,10
126.172394,33.274744,10
126.172383,33.274968,10
126.172364,33.275028,10
126.172251,33.275222,10
126.172169,33.275317,10
126.172008,33.27546,10
126.171746,33.275602,10
126.171432,33.275678,10
126.171301,33.275775,10
126.171204,33.275878,10
126.171103,33.276008,10
126.17081,33.276492,10
126.170933,33.276579,10
126.171022,33.276574,10
126.171246,33.276537,10
126.171598,33.27645,10
126.171742,33.276475,10
126.172233,33.27665,10
126.172178,33.276975,10
126.172114,33.277191,10
126.172194,33.277389,10
126.172178,33.277639,10
126.172093,33.277872,10
126.17184,33.278105,10
126.17161,33.278855,10
126.17138,33.279698,10
126.171613,33.27973,10
126.172234,33.279882,10
126.172868,33.279855,10
126.173135,33.2802,10
126.173237,33.280634,10
126.173271,33.280883,10
126.173575,33.28127,10
126.173703,33.281635,10
126.17374,33.282014,10
126.174011,33.281999,10
126.17423,33.282116,10
126.174139,33.282316,10
126.174095,33.282676,10
126.173934,33.283448,10
126.173903,33.283518,10
126.173778,33.283671,10
126.173635,33.283799,10
126.173063,33.284247,10
126.17296,33.284361,10
126.172605,33.284945,10
126.172453,33.285167,10
126.172362,33.28529,10
126.172017,33.285644,10
126.171882,33.286012,10
126.171795,33.286119,10
126.171719,33.286185,10
126.171577,33.286269,10
126.170935,33.286562,10
126.170648,33.286632,10
126.170453,33.286637,10
126.169316,33.287505,10
126.167275,33.289078,10
126.167344,33.289564,10
126.167192,33.289599,10
126.167077,33.2896,10
126.166706,33.289544,10
126.166273,33.289438,10
126.16612,33.289648,10
126.165893,33.290197,10
126.165716,33.290173,10
126.164668,33.290982,20
126.165034,33.291247,20
126.165629,33.291574,20
126.165526,33.291713,20
126.165265,33.292137,25.73178
126.165039,33.292278,30
126.164833,33.292368,30
126.164648,33.292505,32.49618
126.16438,33.292485,34.56285
126.164231,33.292515,36.07151
126.164045,33.29259,38.31194
126.163903,33.292702,40.62801
126.163278,33.293094,49.48751
126.163128,33.29322,47.75924
126.163279,33.293095,49.48126
126.163904,33.292703,40.62924
126.164045,33.292591,38.32125
126.16412,33.292561,37.42621
126.164045,33.292591,38.32125
126.163904,33.292703,40.62924
126.163279,33.293095,49.48126
126.16318,33.293185,47.9658
126.163021,33.293293,48.32582
126.163335,33.293591,46.47832
126.163486,33.293816,46.17974
126.163649,33.294019,50
126.163342,33.294219,46.89366
126.163732,33.294778,46.55341
126.163897,33.295124,46.69021
126.164003,33.295294,46.8889
126.164119,33.295423,47.11382
126.164348,33.295605,47.36827
126.166453,33.296899,34.13064
126.167211,33.297483,25.56889
126.167685,33.297924,16.05502
126.167808,33.298119,17.59444
126.167895,33.29832,19.98253
126.168003,33.2988,14.63188
126.168081,33.298983,14.17378
126.168233,33.299093,14.25858
126.168583,33.299198,10
126.16785,33.299205,10
126.167698,33.299372,10
126.167615,33.299483,10
126.167584,33.299559,10
126.167595,33.299712,10
126.167582,33.299827,10
126.167528,33.299942,10
126.167506,33.300067,10
126.167485,33.300184,10
126.167207,33.300677,10
126.167201,33.300866,10
126.167147,33.301003,10
126.167002,33.301218,10
126.166889,33.30135,10
126.16672,33.301477,10
126.166326,33.301895,10
126.166091,33.302206,10
126.16604,33.302297,10
126.166,33.302636,10
126.165937,33.302821,10
126.165759,33.303036,10
126.165725,33.303275,10
126.165582,33.303524,10
126.165375,33.303704,10
126.165206,33.303895,10
126.165096,33.304239,10
126.165072,33.304489,10
126.165102,33.304712,10
126.165067,33.304845,10
126.164872,33.305189,10
126.16466,33.305405,10
126.164403,33.305543,10
126.164311,33.305725,10
126.164277,33.306084,10
126.164019,33.306637,10
126.163971,33.306792,10
126.163986,33.307468,10
126.164043,33.307649,10
126.164045,33.307739,10
126.164103,33.307796,10
126.164174,33.30793,10
126.16418,33.308062,10
126.164201,33.308545,10
126.164234,33.308774,10
126.164289,33.30892,10
126.164381,33.309013,10
126.16451,33.309069,10
126.16471,33.309095,10
126.165029,33.309098,10
126.165211,33.309066,10
126.165548,33.30855,10
126.165895,33.308133,10
126.166253,33.307803,10
126.167592,33.306849,15.06013
126.168287,33.306416,20
126.168634,33.306685,22.05186
126.168783,33.306861,21.03622
126.16872,33.307302,27.40054
126.168788,33.307549,32.90373
126.168603,33.307879,36.78765
126.168584,33.308151,42.68583
126.168738,33.308496,53.94265
126.168669,33.30872,57.84055
126.168519,33.30894,59.99986
126.168381,33.30902,58.91405
126.168054,33.309208,55.28967
126.167758,33.309347,49.99549
126.167398,33.309775,43.65125
126.167174,33.310251,40.54519
126.166978,33.310735,39.12536
126.166824,33.311593,38.3488
126.166845,33.312936,31.46581
126.166912,33.313261,29.9158
126.167001,33.31345,29.99815
126.167128,33.313607,29.28102
126.167153,33.313761,28.58716
126.167238,33.314057,26.10184
126.16734,33.31432,24.38557
126.167264,33.314541,17.81576
126.167301,33.314712,18.61123
126.167296,33.314896,19.85164
126.167255,33.315028,19.12051
126.167183,33.315136,17.82853
126.167194,33.315304,18.32973
126.167184,33.315407,17.82698
126.167201,33.315512,17.00234
126.167329,33.315675,15.68377
126.167403,33.31568,16.03999
126.1675,33.31563,18.18367
126.167634,33.315613,19.68587
126.168015,33.315707,19.34797
126.168224,33.315852,17.7853
126.168229,33.315955,16.20756
126.168164,33.316052,14.43761
126.168146,33.316135,13.4325
126.168217,33.316211,12.56691
126.168442,33.316334,12.14191
126.1685,33.316382,12.04121
126.168525,33.316508,11.29366
126.168534,33.316685,10
126.168499,33.316872,10
126.168511,33.317,10
126.168474,33.317118,10
126.168281,33.317402,10
126.168203,33.317453,10
126.168016,33.317497,10
126.167884,33.31751,10
126.167745,33.317463,10
126.167634,33.317472,10
126.167548,33.317524,10
126.167556,33.317604,10
126.167599,33.317707,10
126.167825,33.318126,10
126.167918,33.318421,10
126.167922,33.318565,10
126.167889,33.318676,10
126.167694,33.318846,10
126.167622,33.319024,10
126.167543,33.319163,10
126.167531,33.319226,10
126.167568,33.319318,10
126.167597,33.319466,10
126.167602,33.319707,10
126.167454,33.319952,10
126.167431,33.320055,10
126.167312,33.320261,10
126.167246,33.320411,10
126.167249,33.320518,10
126.167174,33.320847,10
126.16693,33.321104,10
126.166693,33.321404,10
126.16662,33.321581,10
126.166588,33.321873,10
126.166498,33.322335,10
126.166522,33.322567,10
126.166547,33.322696,10
126.166774,33.322993,10
126.166864,33.323144,10
126.166888,33.323218,10
126.166694,33.32351,10
126.166654,33.323548,10
126.166721,33.323557,10
</coordinates>
    </LineString>
  </MultiGeometry>
</Placemark></Folder>
  </Document>
</kml>