<?xml version="1.0" encoding="utf-8"?>
<gpx version="1.1" creator="Movescount - http://www.movescount.com" xmlns:xsi="http://www.w3.org/2001/XMLSchema-instance" xsi:schemaLocation="http://www.topografix.com/GPX/1/1 http://www.topografix.com/GPX/1/1/gpx.xsd http://www.cluetrust.com/XML/GPXDATA/1/0 http://www.cluetrust.com/Schemas/gpxdata10.xsd http://www.garmin.com/xmlschemas/TrackPointExtension/v1 http://www.garmin.com/xmlschemas/TrackPointExtensionv1.xsd" xmlns:gpxdata="http://www.cluetrust.com/XML/GPXDATA/1/0" xmlns:gpxtpx="http://www.garmin.com/xmlschemas/TrackPointExtension/v1" xmlns="http://www.topografix.com/GPX/1/1">
   <rte>
      <name>ollegil 14</name>
      <rtept lat="33.332924" lon="126.256268" />
      <rtept lat="33.332919" lon="126.256354">
         <ele>120</ele>
      </rtept>
      <rtept lat="33.333166" lon="126.256375">
         <ele>120</ele>
      </rtept>
      <rtept lat="33.333562" lon="126.256325">
         <ele>120</ele>
      </rtept>
      <rtept lat="33.333848" lon="126.256256">
         <ele>120</ele>
      </rtept>
      <rtept lat="33.333844" lon="126.256009">
         <ele>120</ele>
      </rtept>
      <rtept lat="33.333826" lon="126.25573">
         <ele>125.5208</ele>
      </rtept>
      <rtept lat="33.33379" lon="126.255595">
         <ele>130</ele>
      </rtept>
      <rtept lat="33.33367" lon="126.255405">
         <ele>132.9025</ele>
      </rtept>
      <rtept lat="33.333583" lon="126.255358">
         <ele>132.643</ele>
      </rtept>
      <rtept lat="33.333691" lon="126.254784">
         <ele>136.4146</ele>
      </rtept>
      <rtept lat="33.33405" lon="126.2546">
         <ele>141.5313</ele>
      </rtept>
      <rtept lat="33.334227" lon="126.254487">
         <ele>140.4005</ele>
      </rtept>
      <rtept lat="33.334414" lon="126.254436">
         <ele>140.7795</ele>
      </rtept>
      <rtept lat="33.334926" lon="126.254545">
         <ele>133.841</ele>
      </rtept>
      <rtept lat="33.335422" lon="126.254636">
         <ele>130.0214</ele>
      </rtept>
      <rtept lat="33.336225" lon="126.253948">
         <ele>130.3466</ele>
      </rtept>
      <rtept lat="33.336537" lon="126.254122">
         <ele>130</ele>
      </rtept>
      <rtept lat="33.336663" lon="126.254063">
         <ele>130</ele>
      </rtept>
      <rtept lat="33.336782" lon="126.253681">
         <ele>130</ele>
      </rtept>
      <rtept lat="33.336798" lon="126.253263">
         <ele>130</ele>
      </rtept>
      <rtept lat="33.337087" lon="126.252783">
         <ele>130</ele>
      </rtept>
      <rtept lat="33.337095" lon="126.252062">
         <ele>130</ele>
      </rtept>
      <rtept lat="33.337161" lon="126.251684">
         <ele>130</ele>
      </rtept>
      <rtept lat="33.337265" lon="126.250848">
         <ele>130</ele>
      </rtept>
      <rtept lat="33.337299" lon="126.250589">
         <ele>130</ele>
      </rtept>
      <rtept lat="33.337512" lon="126.249932">
         <ele>123.027</ele>
      </rtept>
      <rtept lat="33.337629" lon="126.249886">
         <ele>120</ele>
      </rtept>
      <rtept lat="33.338218" lon="126.250117">
         <ele>120</ele>
      </rtept>
      <rtept lat="33.338597" lon="126.250344">
         <ele>120</ele>
      </rtept>
      <rtept lat="33.339155" lon="126.250647">
         <ele>120</ele>
      </rtept>
      <rtept lat="33.339749" lon="126.251077">
         <ele>110</ele>
      </rtept>
      <rtept lat="33.339952" lon="126.249833">
         <ele>110</ele>
      </rtept>
      <rtept lat="33.340136" lon="126.248884">
         <ele>110</ele>
      </rtept>
      <rtept lat="33.340316" lon="126.247957">
         <ele>110</ele>
      </rtept>
      <rtept lat="33.340507" lon="126.248022">
         <ele>110</ele>
      </rtept>
      <rtept lat="33.340626" lon="126.248113">
         <ele>110</ele>
      </rtept>
      <rtept lat="33.340904" lon="126.248395">
         <ele>110</ele>
      </rtept>
      <rtept lat="33.34105" lon="126.24843">
         <ele>110</ele>
      </rtept>
      <rtept lat="33.341194" lon="126.248374">
         <ele>110</ele>
      </rtept>
      <rtept lat="33.341512" lon="126.248068">
         <ele>110</ele>
      </rtept>
      <rtept lat="33.341635" lon="126.248014">
         <ele>110</ele>
      </rtept>
      <rtept lat="33.341847" lon="126.248099">
         <ele>110</ele>
      </rtept>
      <rtept lat="33.342434" lon="126.248186">
         <ele>110</ele>
      </rtept>
      <rtept lat="33.342793" lon="126.248298">
         <ele>110</ele>
      </rtept>
      <rtept lat="33.342968" lon="126.248395">
         <ele>110</ele>
      </rtept>
      <rtept lat="33.343273" lon="126.248611">
         <ele>110</ele>
      </rtept>
      <rtept lat="33.34351" lon="126.248603">
         <ele>100</ele>
      </rtept>
      <rtept lat="33.344049" lon="126.248626">
         <ele>100</ele>
      </rtept>
      <rtept lat="33.344274" lon="126.24861">
         <ele>100</ele>
      </rtept>
      <rtept lat="33.344566" lon="126.248447">
         <ele>100</ele>
      </rtept>
      <rtept lat="33.345043" lon="126.248093">
         <ele>100</ele>
      </rtept>
      <rtept lat="33.345307" lon="126.247851">
         <ele>100</ele>
      </rtept>
      <rtept lat="33.345568" lon="126.247769">
         <ele>100</ele>
      </rtept>
      <rtept lat="33.346151" lon="126.247941">
         <ele>100</ele>
      </rtept>
      <rtept lat="33.346474" lon="126.248209">
         <ele>100</ele>
      </rtept>
      <rtept lat="33.346626" lon="126.248703">
         <ele>100</ele>
      </rtept>
      <rtept lat="33.346644" lon="126.249046">
         <ele>100</ele>
      </rtept>
      <rtept lat="33.3465" lon="126.249293">
         <ele>100</ele>
      </rtept>
      <rtept lat="33.346554" lon="126.249475">
         <ele>100</ele>
      </rtept>
      <rtept lat="33.346707" lon="126.249411">
         <ele>100</ele>
      </rtept>
      <rtept lat="33.347038" lon="126.248907">
         <ele>100</ele>
      </rtept>
      <rtept lat="33.347298" lon="126.248274">
         <ele>100</ele>
      </rtept>
      <rtept lat="33.347316" lon="126.248091">
         <ele>100</ele>
      </rtept>
      <rtept lat="33.347388" lon="126.247952">
         <ele>100</ele>
      </rtept>
      <rtept lat="33.347639" lon="126.247898">
         <ele>100</ele>
      </rtept>
      <rtept lat="33.348015" lon="126.247683">
         <ele>100</ele>
      </rtept>
      <rtept lat="33.348163" lon="126.247565">
         <ele>100</ele>
      </rtept>
      <rtept lat="33.348184" lon="126.247572">
         <ele>100</ele>
      </rtept>
      <rtept lat="33.348314" lon="126.247612" />
      <rtept lat="33.34856" lon="126.247762" />
      <rtept lat="33.34858" lon="126.247762" />
      <rtept lat="33.348529" lon="126.247648" />
      <rtept lat="33.348487" lon="126.247421" />
      <rtept lat="33.348356" lon="126.247171" />
      <rtept lat="33.348374" lon="126.247011" />
      <rtept lat="33.348122" lon="126.246639" />
      <rtept lat="33.34727" lon="126.245717" />
      <rtept lat="33.347158" lon="126.245361" />
      <rtept lat="33.346823" lon="126.24479">
         <ele>90</ele>
      </rtept>
      <rtept lat="33.346885" lon="126.244612">
         <ele>90</ele>
      </rtept>
      <rtept lat="33.346843" lon="126.244428">
         <ele>90</ele>
      </rtept>
      <rtept lat="33.346531" lon="126.244164">
         <ele>90</ele>
      </rtept>
      <rtept lat="33.346431" lon="126.244">
         <ele>90</ele>
      </rtept>
      <rtept lat="33.346385" lon="126.243751">
         <ele>90</ele>
      </rtept>
      <rtept lat="33.346354" lon="126.243665">
         <ele>90</ele>
      </rtept>
      <rtept lat="33.346299" lon="126.243508">
         <ele>85.11539</ele>
      </rtept>
      <rtept lat="33.345469" lon="126.24278">
         <ele>80</ele>
      </rtept>
      <rtept lat="33.345212" lon="126.242385">
         <ele>80</ele>
      </rtept>
      <rtept lat="33.344747" lon="126.24205">
         <ele>74.75696</ele>
      </rtept>
      <rtept lat="33.344626" lon="126.241817">
         <ele>73.20084</ele>
      </rtept>
      <rtept lat="33.344572" lon="126.241109">
         <ele>70</ele>
      </rtept>
      <rtept lat="33.344451" lon="126.240932">
         <ele>70</ele>
      </rtept>
      <rtept lat="33.344089" lon="126.240405">
         <ele>64.34072</ele>
      </rtept>
      <rtept lat="33.344012" lon="126.240348">
         <ele>60</ele>
      </rtept>
      <rtept lat="33.343948" lon="126.240301">
         <ele>60</ele>
      </rtept>
      <rtept lat="33.343901" lon="126.240291">
         <ele>60</ele>
      </rtept>
      <rtept lat="33.343777" lon="126.240265">
         <ele>60</ele>
      </rtept>
      <rtept lat="33.343743" lon="126.240109">
         <ele>60</ele>
      </rtept>
      <rtept lat="33.343699" lon="126.239935">
         <ele>60</ele>
      </rtept>
      <rtept lat="33.343403" lon="126.239469">
         <ele>60</ele>
      </rtept>
      <rtept lat="33.343213" lon="126.239257">
         <ele>60</ele>
      </rtept>
      <rtept lat="33.342949" lon="126.238738">
         <ele>60</ele>
      </rtept>
      <rtept lat="33.342885" lon="126.238391">
         <ele>60</ele>
      </rtept>
      <rtept lat="33.342847" lon="126.237924">
         <ele>60</ele>
      </rtept>
      <rtept lat="33.34298" lon="126.23794">
         <ele>60</ele>
      </rtept>
      <rtept lat="33.343111" lon="126.237932">
         <ele>60</ele>
      </rtept>
      <rtept lat="33.343311" lon="126.23787">
         <ele>60</ele>
      </rtept>
      <rtept lat="33.343434" lon="126.23794">
         <ele>60</ele>
      </rtept>
      <rtept lat="33.343614" lon="126.23819">
         <ele>60</ele>
      </rtept>
      <rtept lat="33.343682" lon="126.238254">
         <ele>60</ele>
      </rtept>
      <rtept lat="33.343736" lon="126.238266">
         <ele>60</ele>
      </rtept>
      <rtept lat="33.34388" lon="126.238221">
         <ele>60</ele>
      </rtept>
      <rtept lat="33.34402" lon="126.238282">
         <ele>60</ele>
      </rtept>
      <rtept lat="33.344105" lon="126.23824">
         <ele>60</ele>
      </rtept>
      <rtept lat="33.344258" lon="126.238227">
         <ele>60</ele>
      </rtept>
      <rtept lat="33.344797" lon="126.237919">
         <ele>60</ele>
      </rtept>
      <rtept lat="33.344934" lon="126.237789">
         <ele>60</ele>
      </rtept>
      <rtept lat="33.345051" lon="126.237724">
         <ele>60</ele>
      </rtept>
      <rtept lat="33.345272" lon="126.237746">
         <ele>60</ele>
      </rtept>
      <rtept lat="33.345323" lon="126.237674">
         <ele>60</ele>
      </rtept>
      <rtept lat="33.345359" lon="126.237624" />
      <rtept lat="33.345703" lon="126.23748">
         <ele>60</ele>
      </rtept>
      <rtept lat="33.345927" lon="126.23748">
         <ele>60</ele>
      </rtept>
      <rtept lat="33.345999" lon="126.237716">
         <ele>60</ele>
      </rtept>
      <rtept lat="33.346124" lon="126.237942">
         <ele>60</ele>
      </rtept>
      <rtept lat="33.346258" lon="126.237824">
         <ele>60</ele>
      </rtept>
      <rtept lat="33.346568" lon="126.237438">
         <ele>60</ele>
      </rtept>
      <rtept lat="33.346586" lon="126.237305">
         <ele>60</ele>
      </rtept>
      <rtept lat="33.346485" lon="126.236963">
         <ele>60</ele>
      </rtept>
      <rtept lat="33.34694" lon="126.236758">
         <ele>60</ele>
      </rtept>
      <rtept lat="33.347535" lon="126.236963">
         <ele>60</ele>
      </rtept>
      <rtept lat="33.347598" lon="126.236918">
         <ele>60</ele>
      </rtept>
      <rtept lat="33.34784" lon="126.23663">
         <ele>60</ele>
      </rtept>
      <rtept lat="33.347973" lon="126.236558">
         <ele>60</ele>
      </rtept>
      <rtept lat="33.348164" lon="126.236454">
         <ele>70</ele>
      </rtept>
      <rtept lat="33.348509" lon="126.236125">
         <ele>70</ele>
      </rtept>
      <rtept lat="33.348638" lon="126.235821">
         <ele>70</ele>
      </rtept>
      <rtept lat="33.348951" lon="126.235697">
         <ele>70</ele>
      </rtept>
      <rtept lat="33.349124" lon="126.235646">
         <ele>70</ele>
      </rtept>
      <rtept lat="33.349259" lon="126.235635">
         <ele>70</ele>
      </rtept>
      <rtept lat="33.349446" lon="126.235499">
         <ele>70</ele>
      </rtept>
      <rtept lat="33.349767" lon="126.235346">
         <ele>70</ele>
      </rtept>
      <rtept lat="33.350139" lon="126.235428">
         <ele>70</ele>
      </rtept>
      <rtept lat="33.350305" lon="126.235714">
         <ele>70</ele>
      </rtept>
      <rtept lat="33.350394" lon="126.235907">
         <ele>70</ele>
      </rtept>
      <rtept lat="33.350434" lon="126.235965">
         <ele>70</ele>
      </rtept>
      <rtept lat="33.350673" lon="126.236206">
         <ele>70</ele>
      </rtept>
      <rtept lat="33.350745" lon="126.236349">
         <ele>70</ele>
      </rtept>
      <rtept lat="33.350854" lon="126.236666">
         <ele>70</ele>
      </rtept>
      <rtept lat="33.35104" lon="126.237075">
         <ele>70</ele>
      </rtept>
      <rtept lat="33.351091" lon="126.237391">
         <ele>70</ele>
      </rtept>
      <rtept lat="33.351134" lon="126.23762" />
      <rtept lat="33.351125" lon="126.237802" />
      <rtept lat="33.351169" lon="126.237931" />
      <rtept lat="33.351193" lon="126.238166" />
      <rtept lat="33.351519" lon="126.238467" />
      <rtept lat="33.35195" lon="126.238553" />
      <rtept lat="33.352299" lon="126.238725" />
      <rtept lat="33.352416" lon="126.23851" />
      <rtept lat="33.352469" lon="126.238113" />
      <rtept lat="33.352577" lon="126.237759" />
      <rtept lat="33.352864" lon="126.237341">
         <ele>70</ele>
      </rtept>
      <rtept lat="33.353383" lon="126.236901">
         <ele>70</ele>
      </rtept>
      <rtept lat="33.353957" lon="126.236558">
         <ele>70</ele>
      </rtept>
      <rtept lat="33.354141" lon="126.236321">
         <ele>70</ele>
      </rtept>
      <rtept lat="33.354253" lon="126.236317">
         <ele>70</ele>
      </rtept>
      <rtept lat="33.354299" lon="126.23629">
         <ele>70</ele>
      </rtept>
      <rtept lat="33.354363" lon="126.236093">
         <ele>70</ele>
      </rtept>
      <rtept lat="33.355086" lon="126.235699">
         <ele>70</ele>
      </rtept>
      <rtept lat="33.355364" lon="126.235699">
         <ele>70</ele>
      </rtept>
      <rtept lat="33.355964" lon="126.235324">
         <ele>70</ele>
      </rtept>
      <rtept lat="33.356296" lon="126.235195">
         <ele>70</ele>
      </rtept>
      <rtept lat="33.356654" lon="126.235324">
         <ele>70</ele>
      </rtept>
      <rtept lat="33.356719" lon="126.23538">
         <ele>70</ele>
      </rtept>
      <rtept lat="33.356804" lon="126.235759">
         <ele>70</ele>
      </rtept>
      <rtept lat="33.356945" lon="126.235823">
         <ele>70</ele>
      </rtept>
      <rtept lat="33.35696" lon="126.235902">
         <ele>70</ele>
      </rtept>
      <rtept lat="33.357094" lon="126.235976">
         <ele>60</ele>
      </rtept>
      <rtept lat="33.357399" lon="126.235824">
         <ele>60</ele>
      </rtept>
      <rtept lat="33.35773" lon="126.235978">
         <ele>60</ele>
      </rtept>
      <rtept lat="33.357882" lon="126.236107">
         <ele>60</ele>
      </rtept>
      <rtept lat="33.358034" lon="126.236418">
         <ele>60</ele>
      </rtept>
      <rtept lat="33.358536" lon="126.237083">
         <ele>60</ele>
      </rtept>
      <rtept lat="33.358742" lon="126.236944">
         <ele>60</ele>
      </rtept>
      <rtept lat="33.359137" lon="126.236483">
         <ele>60</ele>
      </rtept>
      <rtept lat="33.359321" lon="126.235979">
         <ele>60</ele>
      </rtept>
      <rtept lat="33.359771" lon="126.235403">
         <ele>60</ele>
      </rtept>
      <rtept lat="33.359839" lon="126.235296">
         <ele>60</ele>
      </rtept>
      <rtept lat="33.360114" lon="126.234538">
         <ele>60</ele>
      </rtept>
      <rtept lat="33.360188" lon="126.234453">
         <ele>60</ele>
      </rtept>
      <rtept lat="33.360331" lon="126.234382">
         <ele>60</ele>
      </rtept>
      <rtept lat="33.360328" lon="126.234326">
         <ele>60</ele>
      </rtept>
      <rtept lat="33.360361" lon="126.234147">
         <ele>60</ele>
      </rtept>
      <rtept lat="33.36046" lon="126.233844">
         <ele>60</ele>
      </rtept>
      <rtept lat="33.360499" lon="126.233638">
         <ele>60</ele>
      </rtept>
      <rtept lat="33.360496" lon="126.232996">
         <ele>60</ele>
      </rtept>
      <rtept lat="33.360537" lon="126.232618">
         <ele>50</ele>
      </rtept>
      <rtept lat="33.360659" lon="126.232573">
         <ele>50</ele>
      </rtept>
      <rtept lat="33.361198" lon="126.232148">
         <ele>50</ele>
      </rtept>
      <rtept lat="33.361333" lon="126.23209">
         <ele>50</ele>
      </rtept>
      <rtept lat="33.361959" lon="126.231805">
         <ele>50</ele>
      </rtept>
      <rtept lat="33.36221" lon="126.231547">
         <ele>50</ele>
      </rtept>
      <rtept lat="33.363484" lon="126.230999">
         <ele>50</ele>
      </rtept>
      <rtept lat="33.363808" lon="126.230757">
         <ele>50</ele>
      </rtept>
      <rtept lat="33.364308" lon="126.230289">
         <ele>40</ele>
      </rtept>
      <rtept lat="33.364397" lon="126.230417">
         <ele>40</ele>
      </rtept>
      <rtept lat="33.364592" lon="126.230238">
         <ele>40</ele>
      </rtept>
      <rtept lat="33.365182" lon="126.229949">
         <ele>40</ele>
      </rtept>
      <rtept lat="33.365382" lon="126.229816">
         <ele>40</ele>
      </rtept>
      <rtept lat="33.365542" lon="126.229641">
         <ele>40</ele>
      </rtept>
      <rtept lat="33.365992" lon="126.229056">
         <ele>40</ele>
      </rtept>
      <rtept lat="33.366704" lon="126.228198">
         <ele>40</ele>
      </rtept>
      <rtept lat="33.367656" lon="126.226997">
         <ele>40</ele>
      </rtept>
      <rtept lat="33.367949" lon="126.226732">
         <ele>40</ele>
      </rtept>
      <rtept lat="33.368254" lon="126.226558">
         <ele>40</ele>
      </rtept>
      <rtept lat="33.368401" lon="126.226501">
         <ele>40</ele>
      </rtept>
      <rtept lat="33.368519" lon="126.226494">
         <ele>40</ele>
      </rtept>
      <rtept lat="33.368653" lon="126.226441">
         <ele>40</ele>
      </rtept>
      <rtept lat="33.37014" lon="126.226338">
         <ele>40</ele>
      </rtept>
      <rtept lat="33.370286" lon="126.226292">
         <ele>40</ele>
      </rtept>
      <rtept lat="33.370371" lon="126.226235">
         <ele>40</ele>
      </rtept>
      <rtept lat="33.370527" lon="126.22606" />
      <rtept lat="33.371061" lon="126.225317">
         <ele>30</ele>
      </rtept>
      <rtept lat="33.370842" lon="126.225274">
         <ele>30</ele>
      </rtept>
      <rtept lat="33.370987" lon="126.225072">
         <ele>30</ele>
      </rtept>
      <rtept lat="33.37153" lon="126.224304">
         <ele>30</ele>
      </rtept>
      <rtept lat="33.371577" lon="126.224191">
         <ele>30</ele>
      </rtept>
      <rtept lat="33.371667" lon="126.223554">
         <ele>30</ele>
      </rtept>
      <rtept lat="33.371818" lon="126.222076">
         <ele>30</ele>
      </rtept>
      <rtept lat="33.371809" lon="126.221693">
         <ele>30</ele>
      </rtept>
      <rtept lat="33.371716" lon="126.220972">
         <ele>20</ele>
      </rtept>
      <rtept lat="33.371602" lon="126.220076">
         <ele>20</ele>
      </rtept>
      <rtept lat="33.371608" lon="126.219729">
         <ele>20</ele>
      </rtept>
      <rtept lat="33.371622" lon="126.219616">
         <ele>20</ele>
      </rtept>
      <rtept lat="33.371788" lon="126.219647">
         <ele>20</ele>
      </rtept>
      <rtept lat="33.37182" lon="126.219397">
         <ele>20</ele>
      </rtept>
      <rtept lat="33.371854" lon="126.219265">
         <ele>20</ele>
      </rtept>
      <rtept lat="33.371935" lon="126.219041" />
      <rtept lat="33.372089" lon="126.218858" />
      <rtept lat="33.372527" lon="126.218576" />
      <rtept lat="33.372615" lon="126.218396" />
      <rtept lat="33.372675" lon="126.217969" />
      <rtept lat="33.372734" lon="126.217769" />
      <rtept lat="33.372848" lon="126.217577" />
      <rtept lat="33.372995" lon="126.217474" />
      <rtept lat="33.373262" lon="126.217358" />
      <rtept lat="33.373466" lon="126.217236" />
      <rtept lat="33.373565" lon="126.217096">
         <ele>10</ele>
      </rtept>
      <rtept lat="33.373704" lon="126.216652">
         <ele>10</ele>
      </rtept>
      <rtept lat="33.373874" lon="126.216486">
         <ele>10</ele>
      </rtept>
      <rtept lat="33.374136" lon="126.216098">
         <ele>10</ele>
      </rtept>
      <rtept lat="33.374306" lon="126.215685">
         <ele>10</ele>
      </rtept>
      <rtept lat="33.37446" lon="126.21542">
         <ele>10</ele>
      </rtept>
      <rtept lat="33.374525" lon="126.215308">
         <ele>10</ele>
      </rtept>
      <rtept lat="33.3749" lon="126.216355">
         <ele>10</ele>
      </rtept>
      <rtept lat="33.375067" lon="126.216238">
         <ele>10</ele>
      </rtept>
      <rtept lat="33.37466" lon="126.215137">
         <ele>10</ele>
      </rtept>
      <rtept lat="33.374637" lon="126.215075" />
      <rtept lat="33.37478" lon="126.214724" />
      <rtept lat="33.374736" lon="126.214004" />
      <rtept lat="33.374752" lon="126.213845" />
      <rtept lat="33.374854" lon="126.213578" />
      <rtept lat="33.374983" lon="126.213576" />
      <rtept lat="33.375025" lon="126.2136" />
      <rtept lat="33.375062" lon="126.213622" />
      <rtept lat="33.375374" lon="126.213687" />
      <rtept lat="33.375545" lon="126.213758" />
      <rtept lat="33.375933" lon="126.213811" />
      <rtept lat="33.376149" lon="126.213883" />
      <rtept lat="33.37639" lon="126.21394" />
      <rtept lat="33.376571" lon="126.213934" />
      <rtept lat="33.376643" lon="126.213931" />
      <rtept lat="33.376989" lon="126.214038" />
      <rtept lat="33.377133" lon="126.214134" />
      <rtept lat="33.377233" lon="126.214281" />
      <rtept lat="33.377279" lon="126.214404" />
      <rtept lat="33.37732" lon="126.214452" />
      <rtept lat="33.377622" lon="126.214692" />
      <rtept lat="33.377755" lon="126.214837" />
      <rtept lat="33.377788" lon="126.214916" />
      <rtept lat="33.377788" lon="126.21508" />
      <rtept lat="33.37782" lon="126.215163" />
      <rtept lat="33.377933" lon="126.21537" />
      <rtept lat="33.377963" lon="126.215496" />
      <rtept lat="33.378004" lon="126.21571" />
      <rtept lat="33.377979" lon="126.215934" />
      <rtept lat="33.37809" lon="126.216132" />
      <rtept lat="33.379017" lon="126.216416" />
      <rtept lat="33.37906" lon="126.216387" />
      <rtept lat="33.379575" lon="126.216044" />
      <rtept lat="33.380198" lon="126.215581" />
      <rtept lat="33.380419" lon="126.215128" />
      <rtept lat="33.380432" lon="126.215103" />
      <rtept lat="33.380632" lon="126.2151" />
      <rtept lat="33.381008" lon="126.214971" />
      <rtept lat="33.381537" lon="126.214971" />
      <rtept lat="33.38194" lon="126.215164" />
      <rtept lat="33.382038" lon="126.215615" />
      <rtept lat="33.383257" lon="126.216387" />
      <rtept lat="33.383669" lon="126.216602" />
      <rtept lat="33.383794" lon="126.216752" />
      <rtept lat="33.38383" lon="126.217106" />
      <rtept lat="33.383767" lon="126.218394" />
      <rtept lat="33.383803" lon="126.218705" />
      <rtept lat="33.384251" lon="126.218694" />
      <rtept lat="33.384547" lon="126.218898" />
      <rtept lat="33.384735" lon="126.219359" />
      <rtept lat="33.384941" lon="126.219488" />
      <rtept lat="33.385183" lon="126.219595" />
      <rtept lat="33.386254" lon="126.221009" />
      <rtept lat="33.386626" lon="126.221506" />
      <rtept lat="33.387475" lon="126.221913" />
      <rtept lat="33.387844" lon="126.222191" />
      <rtept lat="33.387922" lon="126.222252" />
      <rtept lat="33.388144" lon="126.222366" />
      <rtept lat="33.388449" lon="126.222378" />
      <rtept lat="33.388656" lon="126.222421" />
      <rtept lat="33.388788" lon="126.222424" />
      <rtept lat="33.389541" lon="126.222266" />
      <rtept lat="33.390086" lon="126.222295" />
      <rtept lat="33.389769" lon="126.223794" />
      <rtept lat="33.389694" lon="126.224375" />
      <rtept lat="33.389621" lon="126.22465" />
      <rtept lat="33.389448" lon="126.225644" />
      <rtept lat="33.389395" lon="126.22567" />
      <rtept lat="33.389168" lon="126.225678" />
      <rtept lat="33.389097" lon="126.22571" />
      <rtept lat="33.389052" lon="126.225845" />
      <rtept lat="33.389131" lon="126.225908" />
      <rtept lat="33.389169" lon="126.226048" />
      <rtept lat="33.389205" lon="126.226357" />
      <rtept lat="33.389171" lon="126.22642" />
      <rtept lat="33.389168" lon="126.226588" />
      <rtept lat="33.389213" lon="126.226641" />
      <rtept lat="33.3893" lon="126.22693" />
      <rtept lat="33.389304" lon="126.227126" />
      <rtept lat="33.389356" lon="126.227382" />
      <rtept lat="33.389518" lon="126.22754" />
      <rtept lat="33.389508" lon="126.227644" />
      <rtept lat="33.389338" lon="126.228298" />
      <rtept lat="33.389518" lon="126.228546" />
      <rtept lat="33.38968" lon="126.22877" />
      <rtept lat="33.389863" lon="126.228814" />
      <rtept lat="33.390197" lon="126.229073" />
      <rtept lat="33.389933" lon="126.229319" />
      <rtept lat="33.389679" lon="126.229504" />
      <rtept lat="33.389208" lon="126.22967" />
      <rtept lat="33.388879" lon="126.229904" />
      <rtept lat="33.388756" lon="126.230018" />
      <rtept lat="33.388442" lon="126.23018" />
      <rtept lat="33.388675" lon="126.230527" />
      <rtept lat="33.388996" lon="126.231156" />
      <rtept lat="33.389085" lon="126.231956" />
      <rtept lat="33.389064" lon="126.232985" />
      <rtept lat="33.389077" lon="126.23355" />
      <rtept lat="33.389348" lon="126.234487" />
      <rtept lat="33.389622" lon="126.234964" />
      <rtept lat="33.389808" lon="126.23521" />
      <rtept lat="33.390118" lon="126.235619" />
      <rtept lat="33.390491" lon="126.235883" />
      <rtept lat="33.391438" lon="126.235883" />
      <rtept lat="33.392135" lon="126.236629" />
      <rtept lat="33.392735" lon="126.23718" />
      <rtept lat="33.393451" lon="126.237963" />
      <rtept lat="33.393756" lon="126.238028" />
      <rtept lat="33.393926" lon="126.238424" />
      <rtept lat="33.394087" lon="126.239379" />
      <rtept lat="33.394392" lon="126.240135" />
      <rtept lat="33.394481" lon="126.240356" />
      <rtept lat="33.394923" lon="126.241268" />
      <rtept lat="33.395455" lon="126.241973" />
      <rtept lat="33.396224" lon="126.242292" />
      <rtept lat="33.396623" lon="126.242597" />
      <rtept lat="33.39667" lon="126.242788" />
      <rtept lat="33.396813" lon="126.242954" />
      <rtept lat="33.397051" lon="126.242998" />
      <rtept lat="33.397521" lon="126.243207" />
      <rtept lat="33.397895" lon="126.243314" />
      <rtept lat="33.398111" lon="126.243376" />
      <rtept lat="33.398212" lon="126.243322" />
      <rtept lat="33.398245" lon="126.243239" />
      <rtept lat="33.398366" lon="126.243198" />
      <rtept lat="33.398486" lon="126.243199" />
      <rtept lat="33.398557" lon="126.243314" />
      <rtept lat="33.398524" lon="126.244094" />
      <rtept lat="33.398589" lon="126.244267" />
      <rtept lat="33.398663" lon="126.244356" />
      <rtept lat="33.398646" lon="126.244472" />
      <rtept lat="33.398736" lon="126.244588" />
      <rtept lat="33.398976" lon="126.244701" />
      <rtept lat="33.398938" lon="126.244921" />
      <rtept lat="33.39891" lon="126.245401" />
      <rtept lat="33.398916" lon="126.245583" />
      <rtept lat="33.398989" lon="126.245801" />
      <rtept lat="33.399004" lon="126.245919" />
      <rtept lat="33.39895" lon="126.246087" />
      <rtept lat="33.398888" lon="126.246477" />
      <rtept lat="33.3992" lon="126.246898" />
      <rtept lat="33.398886" lon="126.246478" />
      <rtept lat="33.398949" lon="126.246086" />
      <rtept lat="33.399003" lon="126.245919" />
      <rtept lat="33.398992" lon="126.245832" />
      <rtept lat="33.399003" lon="126.245919" />
      <rtept lat="33.398949" lon="126.246086" />
      <rtept lat="33.398886" lon="126.246478" />
      <rtept lat="33.399157" lon="126.246825" />
      <rtept lat="33.399955" lon="126.248165" />
      <rtept lat="33.400357" lon="126.249228" />
      <rtept lat="33.400794" lon="126.250087" />
      <rtept lat="33.40129" lon="126.250665" />
      <rtept lat="33.401767" lon="126.251106" />
      <rtept lat="33.401824" lon="126.251158" />
      <rtept lat="33.402054" lon="126.251296" />
      <rtept lat="33.402239" lon="126.250961" />
      <rtept lat="33.402673" lon="126.250827" />
      <rtept lat="33.402799" lon="126.250727" />
      <rtept lat="33.403159" lon="126.250812" />
      <rtept lat="33.403555" lon="126.250894" />
      <rtept lat="33.403963" lon="126.251374" />
      <rtept lat="33.404268" lon="126.251465" />
      <rtept lat="33.404612" lon="126.251062" />
      <rtept lat="33.404702" lon="126.251347" />
      <rtept lat="33.404662" lon="126.251491" />
      <rtept lat="33.405319" lon="126.251689" />
      <rtept lat="33.405308" lon="126.251746" />
      <rtept lat="33.405489" lon="126.251868" />
      <rtept lat="33.405527" lon="126.251964" />
      <rtept lat="33.405611" lon="126.252252" />
      <rtept lat="33.405742" lon="126.252262" />
      <rtept lat="33.405834" lon="126.252292" />
      <rtept lat="33.406072" lon="126.252371" />
      <rtept lat="33.406109" lon="126.252421" />
      <rtept lat="33.406196" lon="126.252795" />
      <rtept lat="33.405941" lon="126.253235" />
      <rtept lat="33.405614" lon="126.253596" />
      <rtept lat="33.405438" lon="126.25379" />
      <rtept lat="33.405763" lon="126.254356" />
      <rtept lat="33.406146" lon="126.254101" />
      <rtept lat="33.406973" lon="126.253433" />
      <rtept lat="33.406974" lon="126.253449" />
      <rtept lat="33.407005" lon="126.254399" />
      <rtept lat="33.407187" lon="126.254286" />
      <rtept lat="33.407808" lon="126.253901" />
      <rtept lat="33.407899" lon="126.253876" />
      <rtept lat="33.407985" lon="126.253927" />
      <rtept lat="33.408507" lon="126.254473" />
      <rtept lat="33.411197" lon="126.257287" />
      <rtept lat="33.412566" lon="126.258683" />
      <rtept lat="33.41345" lon="126.259522" />
      <rtept lat="33.414245" lon="126.26033" />
      <rtept lat="33.415186" lon="126.26136" />
      <rtept lat="33.415406" lon="126.261619" />
      <rtept lat="33.41549" lon="126.261741" />
      <rtept lat="33.415538" lon="126.261854" />
      <rtept lat="33.415572" lon="126.261933" />
      <rtept lat="33.415663" lon="126.262384" />
      <rtept lat="33.415729" lon="126.262548" />
      <rtept lat="33.415819" lon="126.262681" />
      <rtept lat="33.416326" lon="126.262995" />
      <rtept lat="33.41642" lon="126.263053" />
      <rtept lat="33.416502" lon="126.263066" />
      <rtept lat="33.4166" lon="126.263082" />
      <rtept lat="33.417541" lon="126.2628" />
      <rtept lat="33.418523" lon="126.26246" />
      <rtept lat="33.418572" lon="126.262443" />
      <rtept lat="33.418603" lon="126.262432" />
      <rtept lat="33.418653" lon="126.262412" />
   </rte>
</gpx>