<?xml version="1.0" encoding="utf-8"?>
<gpx version="1.1" creator="Movescount - http://www.movescount.com" xmlns:xsi="http://www.w3.org/2001/XMLSchema-instance" xsi:schemaLocation="http://www.topografix.com/GPX/1/1 http://www.topografix.com/GPX/1/1/gpx.xsd http://www.cluetrust.com/XML/GPXDATA/1/0 http://www.cluetrust.com/Schemas/gpxdata10.xsd http://www.garmin.com/xmlschemas/TrackPointExtension/v1 http://www.garmin.com/xmlschemas/TrackPointExtensionv1.xsd" xmlns:gpxdata="http://www.cluetrust.com/XML/GPXDATA/1/0" xmlns:gpxtpx="http://www.garmin.com/xmlschemas/TrackPointExtension/v1" xmlns="http://www.topografix.com/GPX/1/1">
   <rte>
      <name>ollegil 17</name>
      <rtept lat="33.460913" lon="126.438967" />
      <rtept lat="33.460941" lon="126.438971" />
      <rtept lat="33.460978" lon="126.440592">
         <ele>160</ele>
      </rtept>
      <rtept lat="33.460945" lon="126.440977">
         <ele>160</ele>
      </rtept>
      <rtept lat="33.460933" lon="126.44139">
         <ele>156.2632</ele>
      </rtept>
      <rtept lat="33.460958" lon="126.443026">
         <ele>150</ele>
      </rtept>
      <rtept lat="33.460942" lon="126.44356">
         <ele>150</ele>
      </rtept>
      <rtept lat="33.460901" lon="126.443903">
         <ele>150</ele>
      </rtept>
      <rtept lat="33.460809" lon="126.444439">
         <ele>150</ele>
      </rtept>
      <rtept lat="33.461041" lon="126.444531">
         <ele>150</ele>
      </rtept>
      <rtept lat="33.46108" lon="126.444597">
         <ele>150</ele>
      </rtept>
      <rtept lat="33.461028" lon="126.444666">
         <ele>150</ele>
      </rtept>
      <rtept lat="33.460916" lon="126.444989">
         <ele>150</ele>
      </rtept>
      <rtept lat="33.460496" lon="126.446012">
         <ele>150</ele>
      </rtept>
      <rtept lat="33.460429" lon="126.446247">
         <ele>150</ele>
      </rtept>
      <rtept lat="33.46033" lon="126.446477" />
      <rtept lat="33.460253" lon="126.44671" />
      <rtept lat="33.460262" lon="126.446824" />
      <rtept lat="33.460316" lon="126.446995" />
      <rtept lat="33.460493" lon="126.447392">
         <ele>150</ele>
      </rtept>
      <rtept lat="33.46095" lon="126.44809">
         <ele>150</ele>
      </rtept>
      <rtept lat="33.461017" lon="126.44816">
         <ele>150</ele>
      </rtept>
      <rtept lat="33.461123" lon="126.44821">
         <ele>150</ele>
      </rtept>
      <rtept lat="33.461407" lon="126.448267">
         <ele>150</ele>
      </rtept>
      <rtept lat="33.461702" lon="126.448363">
         <ele>150</ele>
      </rtept>
      <rtept lat="33.461823" lon="126.448223">
         <ele>150</ele>
      </rtept>
      <rtept lat="33.462248" lon="126.448046">
         <ele>140</ele>
      </rtept>
      <rtept lat="33.462473" lon="126.447869">
         <ele>140</ele>
      </rtept>
      <rtept lat="33.462729" lon="126.447603">
         <ele>140</ele>
      </rtept>
      <rtept lat="33.462912" lon="126.447445">
         <ele>140</ele>
      </rtept>
      <rtept lat="33.463005" lon="126.447241">
         <ele>140</ele>
      </rtept>
      <rtept lat="33.463055" lon="126.447131">
         <ele>140</ele>
      </rtept>
      <rtept lat="33.463289" lon="126.446953">
         <ele>140</ele>
      </rtept>
      <rtept lat="33.464089" lon="126.446684">
         <ele>140</ele>
      </rtept>
      <rtept lat="33.464306" lon="126.446664">
         <ele>130</ele>
      </rtept>
      <rtept lat="33.464564" lon="126.446664">
         <ele>130</ele>
      </rtept>
      <rtept lat="33.464737" lon="126.446485">
         <ele>130</ele>
      </rtept>
      <rtept lat="33.464862" lon="126.446152">
         <ele>130</ele>
      </rtept>
      <rtept lat="33.465032" lon="126.445843">
         <ele>126.6742</ele>
      </rtept>
      <rtept lat="33.465215" lon="126.445725">
         <ele>124.1164</ele>
      </rtept>
      <rtept lat="33.465429" lon="126.445745">
         <ele>121.6813</ele>
      </rtept>
      <rtept lat="33.465988" lon="126.445562">
         <ele>113.3732</ele>
      </rtept>
      <rtept lat="33.466341" lon="126.445497">
         <ele>110</ele>
      </rtept>
      <rtept lat="33.466799" lon="126.445542">
         <ele>104.512</ele>
      </rtept>
      <rtept lat="33.467212" lon="126.445537">
         <ele>100</ele>
      </rtept>
      <rtept lat="33.467742" lon="126.445677">
         <ele>100</ele>
      </rtept>
      <rtept lat="33.468163" lon="126.445733">
         <ele>100</ele>
      </rtept>
      <rtept lat="33.468432" lon="126.445728">
         <ele>100</ele>
      </rtept>
      <rtept lat="33.46872" lon="126.445677">
         <ele>100</ele>
      </rtept>
      <rtept lat="33.469035" lon="126.445541">
         <ele>100</ele>
      </rtept>
      <rtept lat="33.469285" lon="126.445527">
         <ele>100</ele>
      </rtept>
      <rtept lat="33.469822" lon="126.445621">
         <ele>90</ele>
      </rtept>
      <rtept lat="33.470321" lon="126.445656">
         <ele>90</ele>
      </rtept>
      <rtept lat="33.4705" lon="126.445642">
         <ele>90</ele>
      </rtept>
      <rtept lat="33.470808" lon="126.445599">
         <ele>90</ele>
      </rtept>
      <rtept lat="33.471643" lon="126.445157">
         <ele>90</ele>
      </rtept>
      <rtept lat="33.472319" lon="126.444945">
         <ele>80</ele>
      </rtept>
      <rtept lat="33.472601" lon="126.444726">
         <ele>80</ele>
      </rtept>
      <rtept lat="33.472912" lon="126.444456">
         <ele>80</ele>
      </rtept>
      <rtept lat="33.473479" lon="126.44417">
         <ele>70</ele>
      </rtept>
      <rtept lat="33.473759" lon="126.444088">
         <ele>70</ele>
      </rtept>
      <rtept lat="33.474316" lon="126.444004">
         <ele>70</ele>
      </rtept>
      <rtept lat="33.474866" lon="126.443948">
         <ele>60</ele>
      </rtept>
      <rtept lat="33.475055" lon="126.443951">
         <ele>60</ele>
      </rtept>
      <rtept lat="33.475587" lon="126.443894">
         <ele>60</ele>
      </rtept>
      <rtept lat="33.475779" lon="126.443823">
         <ele>60</ele>
      </rtept>
      <rtept lat="33.475941" lon="126.443618">
         <ele>60</ele>
      </rtept>
      <rtept lat="33.476148" lon="126.443466">
         <ele>60</ele>
      </rtept>
      <rtept lat="33.476384" lon="126.443466">
         <ele>60</ele>
      </rtept>
      <rtept lat="33.47667" lon="126.443413">
         <ele>60</ele>
      </rtept>
      <rtept lat="33.477314" lon="126.443423">
         <ele>50</ele>
      </rtept>
      <rtept lat="33.477506" lon="126.443394">
         <ele>50</ele>
      </rtept>
      <rtept lat="33.477668" lon="126.44337">
         <ele>50</ele>
      </rtept>
      <rtept lat="33.47781" lon="126.443372">
         <ele>50</ele>
      </rtept>
      <rtept lat="33.477915" lon="126.443333">
         <ele>50</ele>
      </rtept>
      <rtept lat="33.477656" lon="126.442255">
         <ele>50</ele>
      </rtept>
      <rtept lat="33.477635" lon="126.441924">
         <ele>50</ele>
      </rtept>
      <rtept lat="33.477885" lon="126.441722">
         <ele>50</ele>
      </rtept>
      <rtept lat="33.478097" lon="126.441599">
         <ele>50</ele>
      </rtept>
      <rtept lat="33.4783" lon="126.44152">
         <ele>50</ele>
      </rtept>
      <rtept lat="33.47832" lon="126.4414">
         <ele>50</ele>
      </rtept>
      <rtept lat="33.478293" lon="126.441052">
         <ele>50</ele>
      </rtept>
      <rtept lat="33.47832" lon="126.441013">
         <ele>50</ele>
      </rtept>
      <rtept lat="33.478413" lon="126.440973">
         <ele>50</ele>
      </rtept>
      <rtept lat="33.478524" lon="126.440956">
         <ele>50</ele>
      </rtept>
      <rtept lat="33.478631" lon="126.440969">
         <ele>50</ele>
      </rtept>
      <rtept lat="33.478779" lon="126.440929">
         <ele>50</ele>
      </rtept>
      <rtept lat="33.478916" lon="126.440625">
         <ele>50</ele>
      </rtept>
      <rtept lat="33.478985" lon="126.440454">
         <ele>50</ele>
      </rtept>
      <rtept lat="33.47922" lon="126.440563">
         <ele>50</ele>
      </rtept>
      <rtept lat="33.47945" lon="126.44074">
         <ele>50</ele>
      </rtept>
      <rtept lat="33.479624" lon="126.440836">
         <ele>50</ele>
      </rtept>
      <rtept lat="33.479844" lon="126.441059">
         <ele>50</ele>
      </rtept>
      <rtept lat="33.480357" lon="126.441188">
         <ele>50</ele>
      </rtept>
      <rtept lat="33.480729" lon="126.44123">
         <ele>40</ele>
      </rtept>
      <rtept lat="33.480796" lon="126.441065">
         <ele>40</ele>
      </rtept>
      <rtept lat="33.480861" lon="126.440949">
         <ele>40</ele>
      </rtept>
      <rtept lat="33.480921" lon="126.440881">
         <ele>40</ele>
      </rtept>
      <rtept lat="33.481224" lon="126.440784">
         <ele>40</ele>
      </rtept>
      <rtept lat="33.481435" lon="126.44055">
         <ele>40</ele>
      </rtept>
      <rtept lat="33.48156" lon="126.44043">
         <ele>40</ele>
      </rtept>
      <rtept lat="33.481761" lon="126.440279">
         <ele>40</ele>
      </rtept>
      <rtept lat="33.48193" lon="126.440198">
         <ele>40</ele>
      </rtept>
      <rtept lat="33.48223" lon="126.439973">
         <ele>40</ele>
      </rtept>
      <rtept lat="33.482341" lon="126.439967">
         <ele>40</ele>
      </rtept>
      <rtept lat="33.482616" lon="126.440051">
         <ele>40</ele>
      </rtept>
      <rtept lat="33.482962" lon="126.439997">
         <ele>40</ele>
      </rtept>
      <rtept lat="33.483128" lon="126.439934">
         <ele>40</ele>
      </rtept>
      <rtept lat="33.483379" lon="126.439994">
         <ele>40</ele>
      </rtept>
      <rtept lat="33.483591" lon="126.440084">
         <ele>30</ele>
      </rtept>
      <rtept lat="33.48369" lon="126.440095">
         <ele>30</ele>
      </rtept>
      <rtept lat="33.484186" lon="126.439908">
         <ele>30</ele>
      </rtept>
      <rtept lat="33.484605" lon="126.439534">
         <ele>30</ele>
      </rtept>
      <rtept lat="33.484883" lon="126.439435">
         <ele>30</ele>
      </rtept>
      <rtept lat="33.485063" lon="126.43937">
         <ele>30</ele>
      </rtept>
      <rtept lat="33.485634" lon="126.439296">
         <ele>30</ele>
      </rtept>
      <rtept lat="33.485855" lon="126.439306">
         <ele>30</ele>
      </rtept>
      <rtept lat="33.486048" lon="126.439357">
         <ele>30</ele>
      </rtept>
      <rtept lat="33.486341" lon="126.438934">
         <ele>30</ele>
      </rtept>
      <rtept lat="33.486367" lon="126.438823">
         <ele>30</ele>
      </rtept>
      <rtept lat="33.486368" lon="126.438553">
         <ele>20</ele>
      </rtept>
      <rtept lat="33.486395" lon="126.438408">
         <ele>20</ele>
      </rtept>
      <rtept lat="33.48644" lon="126.438277">
         <ele>20</ele>
      </rtept>
      <rtept lat="33.48663" lon="126.437925">
         <ele>20</ele>
      </rtept>
      <rtept lat="33.486691" lon="126.437769">
         <ele>20</ele>
      </rtept>
      <rtept lat="33.486777" lon="126.437433">
         <ele>20</ele>
      </rtept>
      <rtept lat="33.486797" lon="126.437203">
         <ele>20</ele>
      </rtept>
      <rtept lat="33.486965" lon="126.437087">
         <ele>20</ele>
      </rtept>
      <rtept lat="33.487033" lon="126.437011">
         <ele>20</ele>
      </rtept>
      <rtept lat="33.487069" lon="126.436934">
         <ele>20</ele>
      </rtept>
      <rtept lat="33.487133" lon="126.436948">
         <ele>20</ele>
      </rtept>
      <rtept lat="33.487552" lon="126.436818">
         <ele>20</ele>
      </rtept>
      <rtept lat="33.488043" lon="126.436642">
         <ele>10</ele>
      </rtept>
      <rtept lat="33.488429" lon="126.436754">
         <ele>10</ele>
      </rtept>
      <rtept lat="33.488586" lon="126.436708">
         <ele>10</ele>
      </rtept>
      <rtept lat="33.488891" lon="126.436526">
         <ele>10</ele>
      </rtept>
      <rtept lat="33.489301" lon="126.436022">
         <ele>10</ele>
      </rtept>
      <rtept lat="33.489538" lon="126.435737">
         <ele>10</ele>
      </rtept>
      <rtept lat="33.490189" lon="126.435164">
         <ele>10</ele>
      </rtept>
      <rtept lat="33.490351" lon="126.435146">
         <ele>10</ele>
      </rtept>
      <rtept lat="33.491205" lon="126.434909">
         <ele>10</ele>
      </rtept>
      <rtept lat="33.492145" lon="126.434788">
         <ele>10</ele>
      </rtept>
      <rtept lat="33.492211" lon="126.434888">
         <ele>10</ele>
      </rtept>
      <rtept lat="33.492196" lon="126.435087">
         <ele>10</ele>
      </rtept>
      <rtept lat="33.492393" lon="126.435574">
         <ele>10</ele>
      </rtept>
      <rtept lat="33.492674" lon="126.436306" />
      <rtept lat="33.492902" lon="126.436583" />
      <rtept lat="33.493345" lon="126.436397" />
      <rtept lat="33.493409" lon="126.436293" />
      <rtept lat="33.493462" lon="126.436165" />
      <rtept lat="33.493729" lon="126.435938" />
      <rtept lat="33.493922" lon="126.435969" />
      <rtept lat="33.494082" lon="126.435965" />
      <rtept lat="33.494123" lon="126.435949" />
      <rtept lat="33.494253" lon="126.436705" />
      <rtept lat="33.494262" lon="126.436993" />
      <rtept lat="33.494367" lon="126.436996" />
      <rtept lat="33.494571" lon="126.436785" />
      <rtept lat="33.494696" lon="126.43647" />
      <rtept lat="33.494833" lon="126.436357" />
      <rtept lat="33.49499" lon="126.436317" />
      <rtept lat="33.495234" lon="126.436515" />
      <rtept lat="33.495688" lon="126.43699" />
      <rtept lat="33.495805" lon="126.437315" />
      <rtept lat="33.495775" lon="126.437583" />
      <rtept lat="33.495554" lon="126.43818" />
      <rtept lat="33.495518" lon="126.438333" />
      <rtept lat="33.495507" lon="126.438379" />
      <rtept lat="33.495527" lon="126.438642" />
      <rtept lat="33.495697" lon="126.439112" />
      <rtept lat="33.495918" lon="126.439797" />
      <rtept lat="33.495984" lon="126.440365" />
      <rtept lat="33.496124" lon="126.440902" />
      <rtept lat="33.496392" lon="126.441206" />
      <rtept lat="33.496491" lon="126.441278" />
      <rtept lat="33.496478" lon="126.441343" />
      <rtept lat="33.496369" lon="126.441389" />
      <rtept lat="33.496178" lon="126.441415" />
      <rtept lat="33.496104" lon="126.441481" />
      <rtept lat="33.496773" lon="126.442653">
         <ele>10</ele>
      </rtept>
      <rtept lat="33.49719" lon="126.443489">
         <ele>10</ele>
      </rtept>
      <rtept lat="33.497431" lon="126.444401">
         <ele>10</ele>
      </rtept>
      <rtept lat="33.497696" lon="126.445308">
         <ele>10</ele>
      </rtept>
      <rtept lat="33.497764" lon="126.445648">
         <ele>10</ele>
      </rtept>
      <rtept lat="33.497786" lon="126.446057">
         <ele>10</ele>
      </rtept>
      <rtept lat="33.497854" lon="126.446492">
         <ele>10</ele>
      </rtept>
      <rtept lat="33.497843" lon="126.446809">
         <ele>10</ele>
      </rtept>
      <rtept lat="33.49774" lon="126.447132">
         <ele>10</ele>
      </rtept>
      <rtept lat="33.497967" lon="126.447253">
         <ele>10</ele>
      </rtept>
      <rtept lat="33.49808" lon="126.447373">
         <ele>10</ele>
      </rtept>
      <rtept lat="33.497992" lon="126.447982">
         <ele>10</ele>
      </rtept>
      <rtept lat="33.497958" lon="126.448218" />
      <rtept lat="33.497863" lon="126.448491" />
      <rtept lat="33.497741" lon="126.448752" />
      <rtept lat="33.497411" lon="126.449361">
         <ele>10</ele>
      </rtept>
      <rtept lat="33.497267" lon="126.449582">
         <ele>10</ele>
      </rtept>
      <rtept lat="33.49719" lon="126.449673">
         <ele>10</ele>
      </rtept>
      <rtept lat="33.496942" lon="126.450106">
         <ele>10</ele>
      </rtept>
      <rtept lat="33.49686" lon="126.45047">
         <ele>10</ele>
      </rtept>
      <rtept lat="33.496844" lon="126.450767">
         <ele>10</ele>
      </rtept>
      <rtept lat="33.49686" lon="126.451008">
         <ele>10</ele>
      </rtept>
      <rtept lat="33.497092" lon="126.451973">
         <ele>10</ele>
      </rtept>
      <rtept lat="33.4972" lon="126.452531">
         <ele>10</ele>
      </rtept>
      <rtept lat="33.497232" lon="126.452544">
         <ele>10</ele>
      </rtept>
      <rtept lat="33.497593" lon="126.453057">
         <ele>10</ele>
      </rtept>
      <rtept lat="33.497794" lon="126.453167">
         <ele>10</ele>
      </rtept>
      <rtept lat="33.497917" lon="126.453207">
         <ele>10</ele>
      </rtept>
      <rtept lat="33.498077" lon="126.453326">
         <ele>10</ele>
      </rtept>
      <rtept lat="33.49821" lon="126.453469">
         <ele>10</ele>
      </rtept>
      <rtept lat="33.498398" lon="126.453628">
         <ele>10</ele>
      </rtept>
      <rtept lat="33.498373" lon="126.453788">
         <ele>10</ele>
      </rtept>
      <rtept lat="33.498466" lon="126.454008">
         <ele>10</ele>
      </rtept>
      <rtept lat="33.498749" lon="126.454174">
         <ele>10</ele>
      </rtept>
      <rtept lat="33.49897" lon="126.454326">
         <ele>10</ele>
      </rtept>
      <rtept lat="33.499106" lon="126.45439" />
      <rtept lat="33.499236" lon="126.454365" />
      <rtept lat="33.499333" lon="126.454517" />
      <rtept lat="33.499366" lon="126.454609" />
      <rtept lat="33.49954" lon="126.454617" />
      <rtept lat="33.499611" lon="126.454914" />
      <rtept lat="33.499702" lon="126.455105" />
      <rtept lat="33.500053" lon="126.455247" />
      <rtept lat="33.500156" lon="126.455286" />
      <rtept lat="33.500208" lon="126.455281" />
      <rtept lat="33.500181" lon="126.455236" />
      <rtept lat="33.500001" lon="126.454697" />
      <rtept lat="33.500209" lon="126.454648" />
      <rtept lat="33.500296" lon="126.45461" />
      <rtept lat="33.500396" lon="126.454626" />
      <rtept lat="33.500518" lon="126.454667" />
      <rtept lat="33.500579" lon="126.454705" />
      <rtept lat="33.500692" lon="126.454775" />
      <rtept lat="33.502012" lon="126.456009" />
      <rtept lat="33.503185" lon="126.457059" />
      <rtept lat="33.503333" lon="126.457377" />
      <rtept lat="33.503384" lon="126.457526" />
      <rtept lat="33.503413" lon="126.457695" />
      <rtept lat="33.503604" lon="126.459619" />
      <rtept lat="33.503606" lon="126.459775" />
      <rtept lat="33.503582" lon="126.459922" />
      <rtept lat="33.503231" lon="126.461003" />
      <rtept lat="33.502831" lon="126.462219" />
      <rtept lat="33.502748" lon="126.462613" />
      <rtept lat="33.502732" lon="126.462766" />
      <rtept lat="33.502728" lon="126.463165" />
      <rtept lat="33.503419" lon="126.46331" />
      <rtept lat="33.504465" lon="126.463464" />
      <rtept lat="33.505579" lon="126.463592" />
      <rtept lat="33.506264" lon="126.463693" />
      <rtept lat="33.506301" lon="126.464311" />
      <rtept lat="33.506302" lon="126.4652" />
      <rtept lat="33.506324" lon="126.465845" />
      <rtept lat="33.506327" lon="126.46592" />
      <rtept lat="33.5064" lon="126.465931" />
      <rtept lat="33.506623" lon="126.465923" />
      <rtept lat="33.506628" lon="126.466201" />
      <rtept lat="33.506587" lon="126.466458" />
      <rtept lat="33.506576" lon="126.466601" />
      <rtept lat="33.506626" lon="126.466731" />
      <rtept lat="33.50664" lon="126.466759" />
      <rtept lat="33.506703" lon="126.466804" />
      <rtept lat="33.506916" lon="126.466823">
         <ele>10</ele>
      </rtept>
      <rtept lat="33.50705" lon="126.466805">
         <ele>10</ele>
      </rtept>
      <rtept lat="33.507299" lon="126.466965">
         <ele>10</ele>
      </rtept>
      <rtept lat="33.507476" lon="126.466961">
         <ele>10</ele>
      </rtept>
      <rtept lat="33.507749" lon="126.466905">
         <ele>12.29361</ele>
      </rtept>
      <rtept lat="33.507983" lon="126.466886">
         <ele>11.41546</ele>
      </rtept>
      <rtept lat="33.508162" lon="126.467143">
         <ele>13.17848</ele>
      </rtept>
      <rtept lat="33.508181" lon="126.467493">
         <ele>18.35421</ele>
      </rtept>
      <rtept lat="33.50817" lon="126.467979">
         <ele>27.09864</ele>
      </rtept>
      <rtept lat="33.508145" lon="126.468015">
         <ele>27.57968</ele>
      </rtept>
      <rtept lat="33.508026" lon="126.468189">
         <ele>29.60068</ele>
      </rtept>
      <rtept lat="33.507566" lon="126.468525">
         <ele>27.35141</ele>
      </rtept>
      <rtept lat="33.507196" lon="126.468544">
         <ele>21.10744</ele>
      </rtept>
      <rtept lat="33.506725" lon="126.46846">
         <ele>13.66777</ele>
      </rtept>
      <rtept lat="33.506663" lon="126.468726">
         <ele>15.02834</ele>
      </rtept>
      <rtept lat="33.5066" lon="126.468824">
         <ele>14.91479</ele>
      </rtept>
      <rtept lat="33.506472" lon="126.468861">
         <ele>13.7632</ele>
      </rtept>
      <rtept lat="33.506424" lon="126.469381">
         <ele>15.23003</ele>
      </rtept>
      <rtept lat="33.508371" lon="126.470377">
         <ele>17.81935</ele>
      </rtept>
      <rtept lat="33.508634" lon="126.470557">
         <ele>14.14696</ele>
      </rtept>
      <rtept lat="33.508763" lon="126.470679">
         <ele>11.8673</ele>
      </rtept>
      <rtept lat="33.508938" lon="126.470994">
         <ele>10</ele>
      </rtept>
      <rtept lat="33.509111" lon="126.471663">
         <ele>10</ele>
      </rtept>
      <rtept lat="33.509228" lon="126.472115">
         <ele>10</ele>
      </rtept>
      <rtept lat="33.509508" lon="126.473452">
         <ele>10</ele>
      </rtept>
      <rtept lat="33.509532" lon="126.473696">
         <ele>10</ele>
      </rtept>
      <rtept lat="33.509534" lon="126.473935">
         <ele>10</ele>
      </rtept>
      <rtept lat="33.509426" lon="126.47482">
         <ele>10</ele>
      </rtept>
      <rtept lat="33.509378" lon="126.474963">
         <ele>10</ele>
      </rtept>
      <rtept lat="33.509184" lon="126.475385">
         <ele>10</ele>
      </rtept>
      <rtept lat="33.508805" lon="126.476144">
         <ele>10</ele>
      </rtept>
      <rtept lat="33.508752" lon="126.476332">
         <ele>10</ele>
      </rtept>
      <rtept lat="33.508775" lon="126.477268">
         <ele>10</ele>
      </rtept>
      <rtept lat="33.50886" lon="126.477626">
         <ele>10</ele>
      </rtept>
      <rtept lat="33.509066" lon="126.478019">
         <ele>10</ele>
      </rtept>
      <rtept lat="33.50913" lon="126.47819">
         <ele>10</ele>
      </rtept>
      <rtept lat="33.509214" lon="126.478521">
         <ele>10</ele>
      </rtept>
      <rtept lat="33.509466" lon="126.479824">
         <ele>10</ele>
      </rtept>
      <rtept lat="33.509528" lon="126.48">
         <ele>10</ele>
      </rtept>
      <rtept lat="33.509803" lon="126.480499">
         <ele>10</ele>
      </rtept>
      <rtept lat="33.510066" lon="126.480909">
         <ele>10</ele>
      </rtept>
      <rtept lat="33.510182" lon="126.481123">
         <ele>10</ele>
      </rtept>
      <rtept lat="33.510253" lon="126.481321">
         <ele>10</ele>
      </rtept>
      <rtept lat="33.510378" lon="126.48178">
         <ele>10</ele>
      </rtept>
      <rtept lat="33.510568" lon="126.482654">
         <ele>10</ele>
      </rtept>
      <rtept lat="33.51073" lon="126.483228">
         <ele>10</ele>
      </rtept>
      <rtept lat="33.510799" lon="126.483405">
         <ele>10</ele>
      </rtept>
      <rtept lat="33.510848" lon="126.483476">
         <ele>10</ele>
      </rtept>
      <rtept lat="33.51104" lon="126.483635">
         <ele>10</ele>
      </rtept>
      <rtept lat="33.511355" lon="126.483783">
         <ele>10</ele>
      </rtept>
      <rtept lat="33.512269" lon="126.483991">
         <ele>10</ele>
      </rtept>
      <rtept lat="33.512913" lon="126.484202">
         <ele>10</ele>
      </rtept>
      <rtept lat="33.513695" lon="126.484425" />
      <rtept lat="33.514475" lon="126.484761" />
      <rtept lat="33.515152" lon="126.485134">
         <ele>10</ele>
      </rtept>
      <rtept lat="33.515489" lon="126.485298">
         <ele>10</ele>
      </rtept>
      <rtept lat="33.516037" lon="126.48549">
         <ele>10</ele>
      </rtept>
      <rtept lat="33.516161" lon="126.485559">
         <ele>10</ele>
      </rtept>
      <rtept lat="33.516938" lon="126.486254">
         <ele>10</ele>
      </rtept>
      <rtept lat="33.517969" lon="126.487479">
         <ele>10</ele>
      </rtept>
      <rtept lat="33.518171" lon="126.487681">
         <ele>10</ele>
      </rtept>
      <rtept lat="33.518665" lon="126.488716">
         <ele>10</ele>
      </rtept>
      <rtept lat="33.518877" lon="126.489232">
         <ele>10</ele>
      </rtept>
      <rtept lat="33.519005" lon="126.489695">
         <ele>10</ele>
      </rtept>
      <rtept lat="33.519063" lon="126.490007">
         <ele>10</ele>
      </rtept>
      <rtept lat="33.519147" lon="126.490924">
         <ele>10</ele>
      </rtept>
      <rtept lat="33.519224" lon="126.491307" />
      <rtept lat="33.519474" lon="126.492075" />
      <rtept lat="33.519552" lon="126.492734" />
      <rtept lat="33.51992" lon="126.493905" />
      <rtept lat="33.520269" lon="126.495165" />
      <rtept lat="33.520334" lon="126.496334" />
      <rtept lat="33.520271" lon="126.496723" />
      <rtept lat="33.519775" lon="126.498781" />
      <rtept lat="33.5197" lon="126.498948" />
      <rtept lat="33.519562" lon="126.499157" />
      <rtept lat="33.519342" lon="126.499333" />
      <rtept lat="33.518777" lon="126.499704" />
      <rtept lat="33.518559" lon="126.499814" />
      <rtept lat="33.51837" lon="126.499888" />
      <rtept lat="33.517933" lon="126.500025" />
      <rtept lat="33.517748" lon="126.500123">
         <ele>10</ele>
      </rtept>
      <rtept lat="33.517682" lon="126.500191">
         <ele>10</ele>
      </rtept>
      <rtept lat="33.517468" lon="126.500529">
         <ele>10</ele>
      </rtept>
      <rtept lat="33.517415" lon="126.500678">
         <ele>10</ele>
      </rtept>
      <rtept lat="33.517258" lon="126.501844">
         <ele>10</ele>
      </rtept>
      <rtept lat="33.517267" lon="126.502117">
         <ele>10</ele>
      </rtept>
      <rtept lat="33.517221" lon="126.502847" />
      <rtept lat="33.51717" lon="126.50303" />
      <rtept lat="33.516822" lon="126.504013">
         <ele>10</ele>
      </rtept>
      <rtept lat="33.516749" lon="126.504313">
         <ele>10</ele>
      </rtept>
      <rtept lat="33.516742" lon="126.504457">
         <ele>10</ele>
      </rtept>
      <rtept lat="33.516825" lon="126.505072">
         <ele>10</ele>
      </rtept>
      <rtept lat="33.516806" lon="126.505412">
         <ele>10</ele>
      </rtept>
      <rtept lat="33.51675" lon="126.505608">
         <ele>10</ele>
      </rtept>
      <rtept lat="33.51666" lon="126.505825">
         <ele>10</ele>
      </rtept>
      <rtept lat="33.516357" lon="126.506412">
         <ele>10</ele>
      </rtept>
      <rtept lat="33.516322" lon="126.506612">
         <ele>10</ele>
      </rtept>
      <rtept lat="33.516369" lon="126.50728">
         <ele>10</ele>
      </rtept>
      <rtept lat="33.516342" lon="126.50787">
         <ele>10</ele>
      </rtept>
      <rtept lat="33.51631" lon="126.508037">
         <ele>10</ele>
      </rtept>
      <rtept lat="33.516264" lon="126.508184">
         <ele>10</ele>
      </rtept>
      <rtept lat="33.516133" lon="126.508385">
         <ele>10</ele>
      </rtept>
      <rtept lat="33.515998" lon="126.508713">
         <ele>10</ele>
      </rtept>
      <rtept lat="33.51594" lon="126.508959">
         <ele>10</ele>
      </rtept>
      <rtept lat="33.515756" lon="126.510073">
         <ele>10</ele>
      </rtept>
      <rtept lat="33.51565" lon="126.51047">
         <ele>10</ele>
      </rtept>
      <rtept lat="33.515674" lon="126.510672">
         <ele>10</ele>
      </rtept>
      <rtept lat="33.51557" lon="126.511079">
         <ele>10</ele>
      </rtept>
      <rtept lat="33.515549" lon="126.511288">
         <ele>10</ele>
      </rtept>
      <rtept lat="33.515659" lon="126.511571">
         <ele>10</ele>
      </rtept>
      <rtept lat="33.515782" lon="126.511981">
         <ele>10</ele>
      </rtept>
      <rtept lat="33.515748" lon="126.512143">
         <ele>10</ele>
      </rtept>
      <rtept lat="33.515712" lon="126.512187">
         <ele>10</ele>
      </rtept>
      <rtept lat="33.515712" lon="126.512588">
         <ele>10</ele>
      </rtept>
      <rtept lat="33.515661" lon="126.512745">
         <ele>10</ele>
      </rtept>
      <rtept lat="33.515626" lon="126.512806">
         <ele>10</ele>
      </rtept>
      <rtept lat="33.515538" lon="126.512887">
         <ele>10</ele>
      </rtept>
      <rtept lat="33.515313" lon="126.513049">
         <ele>10</ele>
      </rtept>
      <rtept lat="33.515237" lon="126.513126">
         <ele>10</ele>
      </rtept>
      <rtept lat="33.515118" lon="126.513804">
         <ele>10</ele>
      </rtept>
      <rtept lat="33.514971" lon="126.513905">
         <ele>10</ele>
      </rtept>
      <rtept lat="33.514884" lon="126.514147">
         <ele>10</ele>
      </rtept>
      <rtept lat="33.514842" lon="126.514665">
         <ele>10</ele>
      </rtept>
      <rtept lat="33.515321" lon="126.514742">
         <ele>10</ele>
      </rtept>
      <rtept lat="33.515481" lon="126.514794">
         <ele>10</ele>
      </rtept>
      <rtept lat="33.515629" lon="126.514815">
         <ele>10</ele>
      </rtept>
      <rtept lat="33.515794" lon="126.514862">
         <ele>10</ele>
      </rtept>
      <rtept lat="33.515998" lon="126.514956">
         <ele>10</ele>
      </rtept>
      <rtept lat="33.516032" lon="126.514809">
         <ele>10</ele>
      </rtept>
      <rtept lat="33.516446" lon="126.514988">
         <ele>10</ele>
      </rtept>
      <rtept lat="33.516847" lon="126.515171" />
      <rtept lat="33.51705" lon="126.515394" />
      <rtept lat="33.517105" lon="126.515522" />
      <rtept lat="33.51712" lon="126.515644" />
      <rtept lat="33.517096" lon="126.515728" />
      <rtept lat="33.517029" lon="126.515783" />
      <rtept lat="33.516545" lon="126.515889" />
      <rtept lat="33.516309" lon="126.515973" />
      <rtept lat="33.516399" lon="126.516569" />
      <rtept lat="33.516733" lon="126.516488" />
      <rtept lat="33.51676" lon="126.516807" />
      <rtept lat="33.516439" lon="126.516863" />
      <rtept lat="33.516537" lon="126.517563" />
      <rtept lat="33.516585" lon="126.517901" />
      <rtept lat="33.516514" lon="126.517912" />
      <rtept lat="33.515431" lon="126.518076" />
      <rtept lat="33.515377" lon="126.518109" />
      <rtept lat="33.514573" lon="126.518597" />
      <rtept lat="33.514738" lon="126.519001" />
      <rtept lat="33.514812" lon="126.519183" />
      <rtept lat="33.514926" lon="126.519574" />
      <rtept lat="33.514944" lon="126.519636" />
      <rtept lat="33.514518" lon="126.519891">
         <ele>10</ele>
      </rtept>
      <rtept lat="33.514302" lon="126.520073">
         <ele>10</ele>
      </rtept>
      <rtept lat="33.514141" lon="126.520253">
         <ele>10</ele>
      </rtept>
      <rtept lat="33.514079" lon="126.520336">
         <ele>10</ele>
      </rtept>
      <rtept lat="33.514116" lon="126.521212">
         <ele>10</ele>
      </rtept>
      <rtept lat="33.514105" lon="126.521338">
         <ele>10</ele>
      </rtept>
      <rtept lat="33.513724" lon="126.521209">
         <ele>10</ele>
      </rtept>
      <rtept lat="33.512851" lon="126.521116">
         <ele>10</ele>
      </rtept>
      <rtept lat="33.512853" lon="126.521136" />
      <rtept lat="33.512698" lon="126.521159" />
      <rtept lat="33.512636" lon="126.521147" />
      <rtept lat="33.512221" lon="126.521322" />
      <rtept lat="33.512118" lon="126.521434" />
      <rtept lat="33.511988" lon="126.521528" />
      <rtept lat="33.511881" lon="126.521658" />
      <rtept lat="33.511808" lon="126.521795" />
      <rtept lat="33.511739" lon="126.521885" />
      <rtept lat="33.511696" lon="126.521926" />
      <rtept lat="33.511211" lon="126.521992" />
      <rtept lat="33.511379" lon="126.522566" />
      <rtept lat="33.511378" lon="126.523154">
         <ele>20</ele>
      </rtept>
      <rtept lat="33.511378" lon="126.523216">
         <ele>20</ele>
      </rtept>
      <rtept lat="33.51205" lon="126.52345">
         <ele>20</ele>
      </rtept>
      <rtept lat="33.512189" lon="126.52347">
         <ele>20</ele>
      </rtept>
      <rtept lat="33.512505" lon="126.523462">
         <ele>20</ele>
      </rtept>
      <rtept lat="33.512453" lon="126.524527" />
   </rte>
</gpx>