<?xml version="1.0" encoding="utf-8"?>
<gpx version="1.1" creator="Movescount - http://www.movescount.com" xmlns:xsi="http://www.w3.org/2001/XMLSchema-instance" xsi:schemaLocation="http://www.topografix.com/GPX/1/1 http://www.topografix.com/GPX/1/1/gpx.xsd http://www.cluetrust.com/XML/GPXDATA/1/0 http://www.cluetrust.com/Schemas/gpxdata10.xsd http://www.garmin.com/xmlschemas/TrackPointExtension/v1 http://www.garmin.com/xmlschemas/TrackPointExtensionv1.xsd" xmlns:gpxdata="http://www.cluetrust.com/XML/GPXDATA/1/0" xmlns:gpxtpx="http://www.garmin.com/xmlschemas/TrackPointExtension/v1" xmlns="http://www.topografix.com/GPX/1/1">
   <rte>
      <name>jeju ollegil 5</name>
      <rtept lat="33.278086" lon="126.718622" />
      <rtept lat="33.278002" lon="126.718607" />
      <rtept lat="33.277398" lon="126.718272" />
      <rtept lat="33.277098" lon="126.718093" />
      <rtept lat="33.276731" lon="126.717825" />
      <rtept lat="33.276482" lon="126.717552" />
      <rtept lat="33.276169" lon="126.71699" />
      <rtept lat="33.276147" lon="126.716838" />
      <rtept lat="33.276165" lon="126.716563" />
      <rtept lat="33.276561" lon="126.715282" />
      <rtept lat="33.276555" lon="126.714799" />
      <rtept lat="33.276517" lon="126.714522" />
      <rtept lat="33.276331" lon="126.714044" />
      <rtept lat="33.276311" lon="126.713942" />
      <rtept lat="33.276303" lon="126.713527" />
      <rtept lat="33.276276" lon="126.713352" />
      <rtept lat="33.2762" lon="126.713145" />
      <rtept lat="33.276061" lon="126.712931" />
      <rtept lat="33.275916" lon="126.712793" />
      <rtept lat="33.275747" lon="126.712686" />
      <rtept lat="33.275426" lon="126.712558" />
      <rtept lat="33.275198" lon="126.712322" />
      <rtept lat="33.275185" lon="126.712148" />
      <rtept lat="33.274806" lon="126.711006" />
      <rtept lat="33.274648" lon="126.710167">
         <ele>10</ele>
      </rtept>
      <rtept lat="33.2746" lon="126.709566">
         <ele>10</ele>
      </rtept>
      <rtept lat="33.274497" lon="126.70916">
         <ele>10</ele>
      </rtept>
      <rtept lat="33.274533" lon="126.708885">
         <ele>10</ele>
      </rtept>
      <rtept lat="33.274325" lon="126.708722">
         <ele>10</ele>
      </rtept>
      <rtept lat="33.274225" lon="126.708516">
         <ele>10</ele>
      </rtept>
      <rtept lat="33.274289" lon="126.708001">
         <ele>10</ele>
      </rtept>
      <rtept lat="33.274117" lon="126.706971">
         <ele>10</ele>
      </rtept>
      <rtept lat="33.274146" lon="126.706276">
         <ele>11.07209</ele>
      </rtept>
      <rtept lat="33.273995" lon="126.70564">
         <ele>13.07923</ele>
      </rtept>
      <rtept lat="33.273808" lon="126.705289">
         <ele>12.92711</ele>
      </rtept>
      <rtept lat="33.273521" lon="126.704988">
         <ele>11.69543</ele>
      </rtept>
      <rtept lat="33.273328" lon="126.704422">
         <ele>10</ele>
      </rtept>
      <rtept lat="33.27322" lon="126.704018">
         <ele>10</ele>
      </rtept>
      <rtept lat="33.27289" lon="126.703615">
         <ele>10</ele>
      </rtept>
      <rtept lat="33.272875" lon="126.70322">
         <ele>10</ele>
      </rtept>
      <rtept lat="33.272789" lon="126.702654">
         <ele>10</ele>
      </rtept>
      <rtept lat="33.272703" lon="126.702319">
         <ele>10</ele>
      </rtept>
      <rtept lat="33.272388" lon="126.701933">
         <ele>10</ele>
      </rtept>
      <rtept lat="33.27228" lon="126.701409">
         <ele>10</ele>
      </rtept>
      <rtept lat="33.272036" lon="126.700954">
         <ele>10</ele>
      </rtept>
      <rtept lat="33.271949" lon="126.700623">
         <ele>10</ele>
      </rtept>
      <rtept lat="33.271917" lon="126.700483">
         <ele>10</ele>
      </rtept>
      <rtept lat="33.272356" lon="126.700396">
         <ele>13.88825</ele>
      </rtept>
      <rtept lat="33.272396" lon="126.700355">
         <ele>14.429</ele>
      </rtept>
      <rtept lat="33.272346" lon="126.699867">
         <ele>15.54219</ele>
      </rtept>
      <rtept lat="33.272342" lon="126.69965">
         <ele>15.91412</ele>
      </rtept>
      <rtept lat="33.272376" lon="126.699161">
         <ele>20</ele>
      </rtept>
      <rtept lat="33.273495" lon="126.697765">
         <ele>20</ele>
      </rtept>
      <rtept lat="33.27384" lon="126.696302">
         <ele>20</ele>
      </rtept>
      <rtept lat="33.273865" lon="126.696239">
         <ele>20</ele>
      </rtept>
      <rtept lat="33.274111" lon="126.695838">
         <ele>20</ele>
      </rtept>
      <rtept lat="33.273858" lon="126.695861">
         <ele>20</ele>
      </rtept>
      <rtept lat="33.273743" lon="126.695918">
         <ele>20</ele>
      </rtept>
      <rtept lat="33.273166" lon="126.695884">
         <ele>20</ele>
      </rtept>
      <rtept lat="33.272844" lon="126.695789">
         <ele>20</ele>
      </rtept>
      <rtept lat="33.272816" lon="126.695749">
         <ele>20</ele>
      </rtept>
      <rtept lat="33.272767" lon="126.69528">
         <ele>20</ele>
      </rtept>
      <rtept lat="33.272693" lon="126.69498">
         <ele>20</ele>
      </rtept>
      <rtept lat="33.272581" lon="126.694662">
         <ele>20</ele>
      </rtept>
      <rtept lat="33.271735" lon="126.694611">
         <ele>20</ele>
      </rtept>
      <rtept lat="33.27116" lon="126.694628">
         <ele>14.80828</ele>
      </rtept>
      <rtept lat="33.270916" lon="126.694474">
         <ele>10</ele>
      </rtept>
      <rtept lat="33.270787" lon="126.6945">
         <ele>10</ele>
      </rtept>
      <rtept lat="33.270762" lon="126.693971">
         <ele>10</ele>
      </rtept>
      <rtept lat="33.270744" lon="126.693598">
         <ele>10</ele>
      </rtept>
      <rtept lat="33.270443" lon="126.6928">
         <ele>10</ele>
      </rtept>
      <rtept lat="33.270331" lon="126.6921">
         <ele>10</ele>
      </rtept>
      <rtept lat="33.270288" lon="126.691963">
         <ele>10</ele>
      </rtept>
      <rtept lat="33.270272" lon="126.691792">
         <ele>10</ele>
      </rtept>
      <rtept lat="33.27031" lon="126.691464">
         <ele>10</ele>
      </rtept>
      <rtept lat="33.270592" lon="126.690398">
         <ele>10</ele>
      </rtept>
      <rtept lat="33.27038" lon="126.690393">
         <ele>10</ele>
      </rtept>
      <rtept lat="33.270338" lon="126.690308">
         <ele>10</ele>
      </rtept>
      <rtept lat="33.270269" lon="126.690043">
         <ele>10</ele>
      </rtept>
      <rtept lat="33.270194" lon="126.689889">
         <ele>10</ele>
      </rtept>
      <rtept lat="33.270036" lon="126.689659">
         <ele>10</ele>
      </rtept>
      <rtept lat="33.27" lon="126.689553">
         <ele>10</ele>
      </rtept>
      <rtept lat="33.269949" lon="126.689052">
         <ele>10</ele>
      </rtept>
      <rtept lat="33.269959" lon="126.688622">
         <ele>10</ele>
      </rtept>
      <rtept lat="33.269982" lon="126.688446">
         <ele>10</ele>
      </rtept>
      <rtept lat="33.269986" lon="126.68812">
         <ele>10</ele>
      </rtept>
      <rtept lat="33.269957" lon="126.687941">
         <ele>10</ele>
      </rtept>
      <rtept lat="33.269974" lon="126.687461">
         <ele>10</ele>
      </rtept>
      <rtept lat="33.269902" lon="126.686594">
         <ele>10</ele>
      </rtept>
      <rtept lat="33.269873" lon="126.686427">
         <ele>10</ele>
      </rtept>
      <rtept lat="33.269718" lon="126.686014">
         <ele>10</ele>
      </rtept>
      <rtept lat="33.269757" lon="126.685865">
         <ele>10</ele>
      </rtept>
      <rtept lat="33.270151" lon="126.684917">
         <ele>10</ele>
      </rtept>
      <rtept lat="33.27028" lon="126.683795">
         <ele>10</ele>
      </rtept>
      <rtept lat="33.27032" lon="126.683592">
         <ele>10</ele>
      </rtept>
      <rtept lat="33.270312" lon="126.683392">
         <ele>10</ele>
      </rtept>
      <rtept lat="33.270273" lon="126.683128">
         <ele>10</ele>
      </rtept>
      <rtept lat="33.270314" lon="126.682971">
         <ele>10</ele>
      </rtept>
      <rtept lat="33.270391" lon="126.682815">
         <ele>10</ele>
      </rtept>
      <rtept lat="33.270489" lon="126.682716">
         <ele>10</ele>
      </rtept>
      <rtept lat="33.270549" lon="126.682693">
         <ele>10</ele>
      </rtept>
      <rtept lat="33.270615" lon="126.682691">
         <ele>10</ele>
      </rtept>
      <rtept lat="33.270671" lon="126.682647">
         <ele>10</ele>
      </rtept>
      <rtept lat="33.270711" lon="126.682588">
         <ele>10</ele>
      </rtept>
      <rtept lat="33.270735" lon="126.682507">
         <ele>10</ele>
      </rtept>
      <rtept lat="33.270678" lon="126.682438">
         <ele>10</ele>
      </rtept>
      <rtept lat="33.27065" lon="126.68205">
         <ele>10</ele>
      </rtept>
      <rtept lat="33.270698" lon="126.681826">
         <ele>10</ele>
      </rtept>
      <rtept lat="33.270735" lon="126.681746">
         <ele>10</ele>
      </rtept>
      <rtept lat="33.270905" lon="126.6817">
         <ele>10</ele>
      </rtept>
      <rtept lat="33.271003" lon="126.681599">
         <ele>10</ele>
      </rtept>
      <rtept lat="33.271075" lon="126.681432">
         <ele>10</ele>
      </rtept>
      <rtept lat="33.271102" lon="126.681195">
         <ele>10</ele>
      </rtept>
      <rtept lat="33.271614" lon="126.680988">
         <ele>10</ele>
      </rtept>
      <rtept lat="33.271839" lon="126.680805">
         <ele>10</ele>
      </rtept>
      <rtept lat="33.272255" lon="126.680682">
         <ele>10</ele>
      </rtept>
      <rtept lat="33.272383" lon="126.68054">
         <ele>10</ele>
      </rtept>
      <rtept lat="33.272804" lon="126.679841">
         <ele>10</ele>
      </rtept>
      <rtept lat="33.272786" lon="126.679811">
         <ele>10</ele>
      </rtept>
      <rtept lat="33.272715" lon="126.679453">
         <ele>10</ele>
      </rtept>
      <rtept lat="33.272623" lon="126.679172">
         <ele>10</ele>
      </rtept>
      <rtept lat="33.272557" lon="126.67898">
         <ele>10</ele>
      </rtept>
      <rtept lat="33.272546" lon="126.678808">
         <ele>10</ele>
      </rtept>
      <rtept lat="33.272631" lon="126.678545">
         <ele>10</ele>
      </rtept>
      <rtept lat="33.272681" lon="126.678449">
         <ele>10</ele>
      </rtept>
      <rtept lat="33.272782" lon="126.678341">
         <ele>10</ele>
      </rtept>
      <rtept lat="33.272782" lon="126.678183">
         <ele>10</ele>
      </rtept>
      <rtept lat="33.272646" lon="126.677728">
         <ele>10</ele>
      </rtept>
      <rtept lat="33.272466" lon="126.677557">
         <ele>10</ele>
      </rtept>
      <rtept lat="33.272466" lon="126.67675">
         <ele>10</ele>
      </rtept>
      <rtept lat="33.272444" lon="126.676612">
         <ele>10</ele>
      </rtept>
      <rtept lat="33.272412" lon="126.676072">
         <ele>10</ele>
      </rtept>
      <rtept lat="33.272568" lon="126.674923">
         <ele>10</ele>
      </rtept>
      <rtept lat="33.272604" lon="126.67483">
         <ele>10</ele>
      </rtept>
      <rtept lat="33.272757" lon="126.674632">
         <ele>10</ele>
      </rtept>
      <rtept lat="33.272955" lon="126.674451">
         <ele>10</ele>
      </rtept>
      <rtept lat="33.27307" lon="126.674392">
         <ele>10</ele>
      </rtept>
      <rtept lat="33.27312" lon="126.673923">
         <ele>10</ele>
      </rtept>
      <rtept lat="33.273159" lon="126.673707">
         <ele>10</ele>
      </rtept>
      <rtept lat="33.27295" lon="126.673623">
         <ele>10</ele>
      </rtept>
      <rtept lat="33.272476" lon="126.673497">
         <ele>10</ele>
      </rtept>
      <rtept lat="33.272311" lon="126.673462">
         <ele>10</ele>
      </rtept>
      <rtept lat="33.272109" lon="126.67346">
         <ele>10</ele>
      </rtept>
      <rtept lat="33.271836" lon="126.673501">
         <ele>10</ele>
      </rtept>
      <rtept lat="33.271356" lon="126.673605">
         <ele>10</ele>
      </rtept>
      <rtept lat="33.271219" lon="126.673679">
         <ele>10</ele>
      </rtept>
      <rtept lat="33.270978" lon="126.673862">
         <ele>10</ele>
      </rtept>
      <rtept lat="33.270752" lon="126.673996">
         <ele>10</ele>
      </rtept>
      <rtept lat="33.270457" lon="126.674086">
         <ele>10</ele>
      </rtept>
      <rtept lat="33.269987" lon="126.674145">
         <ele>10</ele>
      </rtept>
      <rtept lat="33.269983" lon="126.674018">
         <ele>10</ele>
      </rtept>
      <rtept lat="33.269914" lon="126.673772">
         <ele>10</ele>
      </rtept>
      <rtept lat="33.269911" lon="126.673603">
         <ele>10</ele>
      </rtept>
      <rtept lat="33.26998" lon="126.673339">
         <ele>10</ele>
      </rtept>
      <rtept lat="33.270142" lon="126.672423">
         <ele>10</ele>
      </rtept>
      <rtept lat="33.270208" lon="126.672163">
         <ele>10</ele>
      </rtept>
      <rtept lat="33.270318" lon="126.672016">
         <ele>10</ele>
      </rtept>
      <rtept lat="33.27055" lon="126.671887">
         <ele>10</ele>
      </rtept>
      <rtept lat="33.271242" lon="126.671069">
         <ele>10</ele>
      </rtept>
      <rtept lat="33.271196" lon="126.670622">
         <ele>10</ele>
      </rtept>
      <rtept lat="33.271239" lon="126.670132">
         <ele>10</ele>
      </rtept>
      <rtept lat="33.271215" lon="126.670066">
         <ele>10</ele>
      </rtept>
      <rtept lat="33.271132" lon="126.66984" />
      <rtept lat="33.271103" lon="126.66954" />
      <rtept lat="33.271225" lon="126.669008">
         <ele>10</ele>
      </rtept>
      <rtept lat="33.271225" lon="126.668733">
         <ele>10</ele>
      </rtept>
      <rtept lat="33.270838" lon="126.66821">
         <ele>10</ele>
      </rtept>
      <rtept lat="33.270571" lon="126.667997">
         <ele>10</ele>
      </rtept>
      <rtept lat="33.270816" lon="126.666665">
         <ele>10</ele>
      </rtept>
      <rtept lat="33.270737" lon="126.665987">
         <ele>10</ele>
      </rtept>
      <rtept lat="33.270723" lon="126.665523">
         <ele>10</ele>
      </rtept>
      <rtept lat="33.270952" lon="126.665077">
         <ele>10</ele>
      </rtept>
      <rtept lat="33.271426" lon="126.664785">
         <ele>10</ele>
      </rtept>
      <rtept lat="33.271656" lon="126.664407">
         <ele>10</ele>
      </rtept>
      <rtept lat="33.271687" lon="126.664227">
         <ele>10</ele>
      </rtept>
      <rtept lat="33.271704" lon="126.664132" />
      <rtept lat="33.271626" lon="126.663951" />
      <rtept lat="33.271655" lon="126.663678" />
      <rtept lat="33.271915" lon="126.663219" />
      <rtept lat="33.27198" lon="126.663139" />
      <rtept lat="33.272191" lon="126.66298" />
      <rtept lat="33.272346" lon="126.662887" />
      <rtept lat="33.271956" lon="126.66269" />
      <rtept lat="33.271861" lon="126.66262" />
      <rtept lat="33.271315" lon="126.662088" />
      <rtept lat="33.271472" lon="126.661821" />
      <rtept lat="33.271695" lon="126.661848" />
      <rtept lat="33.272111" lon="126.662228" />
      <rtept lat="33.272142" lon="126.662406" />
      <rtept lat="33.272482" lon="126.66256" />
      <rtept lat="33.272748" lon="126.663041" />
      <rtept lat="33.274061" lon="126.662876" />
      <rtept lat="33.274227" lon="126.66239" />
      <rtept lat="33.27435" lon="126.662223" />
      <rtept lat="33.274566" lon="126.66234" />
      <rtept lat="33.274744" lon="126.662402">
         <ele>10</ele>
      </rtept>
      <rtept lat="33.274714" lon="126.662393">
         <ele>10</ele>
      </rtept>
      <rtept lat="33.274744" lon="126.662402">
         <ele>10</ele>
      </rtept>
      <rtept lat="33.274999" lon="126.662373">
         <ele>10</ele>
      </rtept>
      <rtept lat="33.274862" lon="126.661056">
         <ele>10</ele>
      </rtept>
      <rtept lat="33.274824" lon="126.660645">
         <ele>10</ele>
      </rtept>
      <rtept lat="33.274747" lon="126.659552">
         <ele>10</ele>
      </rtept>
      <rtept lat="33.274648" lon="126.659534">
         <ele>10</ele>
      </rtept>
      <rtept lat="33.27424" lon="126.659513">
         <ele>10</ele>
      </rtept>
      <rtept lat="33.274191" lon="126.658933">
         <ele>10</ele>
      </rtept>
      <rtept lat="33.273963" lon="126.658128">
         <ele>10</ele>
      </rtept>
      <rtept lat="33.273994" lon="126.658018">
         <ele>10</ele>
      </rtept>
      <rtept lat="33.274271" lon="126.657604">
         <ele>10</ele>
      </rtept>
      <rtept lat="33.274372" lon="126.657501">
         <ele>10</ele>
      </rtept>
      <rtept lat="33.274438" lon="126.657465">
         <ele>10</ele>
      </rtept>
      <rtept lat="33.274416" lon="126.657383">
         <ele>10</ele>
      </rtept>
      <rtept lat="33.274367" lon="126.657332">
         <ele>10</ele>
      </rtept>
      <rtept lat="33.274237" lon="126.657278">
         <ele>10</ele>
      </rtept>
      <rtept lat="33.274186" lon="126.657317">
         <ele>10</ele>
      </rtept>
      <rtept lat="33.273756" lon="126.657858">
         <ele>10</ele>
      </rtept>
      <rtept lat="33.273673" lon="126.657914">
         <ele>10</ele>
      </rtept>
      <rtept lat="33.273355" lon="126.657807">
         <ele>10</ele>
      </rtept>
      <rtept lat="33.273295" lon="126.657801">
         <ele>10</ele>
      </rtept>
      <rtept lat="33.273161" lon="126.657848">
         <ele>10</ele>
      </rtept>
      <rtept lat="33.273097" lon="126.657916">
         <ele>10</ele>
      </rtept>
      <rtept lat="33.273066" lon="126.65799">
         <ele>10</ele>
      </rtept>
      <rtept lat="33.27304" lon="126.658133">
         <ele>10</ele>
      </rtept>
      <rtept lat="33.272952" lon="126.658277">
         <ele>10</ele>
      </rtept>
      <rtept lat="33.27281" lon="126.658411">
         <ele>10</ele>
      </rtept>
      <rtept lat="33.272633" lon="126.658513">
         <ele>10</ele>
      </rtept>
      <rtept lat="33.271569" lon="126.658898">
         <ele>10</ele>
      </rtept>
      <rtept lat="33.270927" lon="126.659128" />
      <rtept lat="33.27081" lon="126.658619" />
      <rtept lat="33.270113" lon="126.658254" />
      <rtept lat="33.26987" lon="126.658054" />
      <rtept lat="33.269501" lon="126.657962" />
      <rtept lat="33.269204" lon="126.657568" />
      <rtept lat="33.26905" lon="126.657364" />
      <rtept lat="33.269084" lon="126.657011" />
      <rtept lat="33.269194" lon="126.656497" />
      <rtept lat="33.269328" lon="126.656083" />
      <rtept lat="33.26925" lon="126.655556" />
      <rtept lat="33.26903" lon="126.65494" />
      <rtept lat="33.268793" lon="126.65461" />
      <rtept lat="33.2688" lon="126.654388" />
      <rtept lat="33.269097" lon="126.653757" />
      <rtept lat="33.269177" lon="126.653545" />
      <rtept lat="33.26945" lon="126.653371" />
      <rtept lat="33.269631" lon="126.653297" />
      <rtept lat="33.270021" lon="126.653312">
         <ele>10</ele>
      </rtept>
      <rtept lat="33.270436" lon="126.653377">
         <ele>10</ele>
      </rtept>
      <rtept lat="33.270985" lon="126.653409">
         <ele>10</ele>
      </rtept>
      <rtept lat="33.271045" lon="126.65338">
         <ele>10</ele>
      </rtept>
      <rtept lat="33.270859" lon="126.652989">
         <ele>10</ele>
      </rtept>
      <rtept lat="33.27085" lon="126.652635">
         <ele>10</ele>
      </rtept>
      <rtept lat="33.270777" lon="126.652293">
         <ele>10</ele>
      </rtept>
      <rtept lat="33.27069" lon="126.651988">
         <ele>10</ele>
      </rtept>
      <rtept lat="33.269812" lon="126.65216">
         <ele>10</ele>
      </rtept>
      <rtept lat="33.269625" lon="126.652237">
         <ele>10</ele>
      </rtept>
      <rtept lat="33.269533" lon="126.652073">
         <ele>10</ele>
      </rtept>
      <rtept lat="33.269338" lon="126.651722">
         <ele>10</ele>
      </rtept>
      <rtept lat="33.268728" lon="126.651481">
         <ele>10</ele>
      </rtept>
      <rtept lat="33.268333" lon="126.651215">
         <ele>10</ele>
      </rtept>
      <rtept lat="33.268197" lon="126.650863">
         <ele>10</ele>
      </rtept>
      <rtept lat="33.268127" lon="126.650616">
         <ele>10</ele>
      </rtept>
      <rtept lat="33.26813" lon="126.650559">
         <ele>10</ele>
      </rtept>
      <rtept lat="33.268061" lon="126.650421">
         <ele>10</ele>
      </rtept>
      <rtept lat="33.268074" lon="126.65032">
         <ele>10</ele>
      </rtept>
      <rtept lat="33.268145" lon="126.650127">
         <ele>10</ele>
      </rtept>
      <rtept lat="33.268459" lon="126.649791">
         <ele>10</ele>
      </rtept>
      <rtept lat="33.268707" lon="126.649348">
         <ele>10</ele>
      </rtept>
      <rtept lat="33.268819" lon="126.648979">
         <ele>10</ele>
      </rtept>
      <rtept lat="33.268679" lon="126.648773">
         <ele>10</ele>
      </rtept>
      <rtept lat="33.268633" lon="126.647946">
         <ele>10</ele>
      </rtept>
      <rtept lat="33.268604" lon="126.647827">
         <ele>10</ele>
      </rtept>
      <rtept lat="33.268302" lon="126.647335">
         <ele>10</ele>
      </rtept>
      <rtept lat="33.268061" lon="126.647112">
         <ele>10</ele>
      </rtept>
      <rtept lat="33.267936" lon="126.646889">
         <ele>10</ele>
      </rtept>
      <rtept lat="33.26777" lon="126.646272">
         <ele>10</ele>
      </rtept>
      <rtept lat="33.267727" lon="126.646006">
         <ele>10</ele>
      </rtept>
      <rtept lat="33.267681" lon="126.645857">
         <ele>10</ele>
      </rtept>
      <rtept lat="33.267433" lon="126.645309">
         <ele>10</ele>
      </rtept>
      <rtept lat="33.267319" lon="126.644782">
         <ele>10</ele>
      </rtept>
      <rtept lat="33.267101" lon="126.644308">
         <ele>10</ele>
      </rtept>
      <rtept lat="33.267027" lon="126.643934">
         <ele>10</ele>
      </rtept>
      <rtept lat="33.26691" lon="126.643784">
         <ele>10</ele>
      </rtept>
      <rtept lat="33.266623" lon="126.643554">
         <ele>10</ele>
      </rtept>
      <rtept lat="33.26654" lon="126.643254">
         <ele>10</ele>
      </rtept>
      <rtept lat="33.266339" lon="126.642964">
         <ele>10</ele>
      </rtept>
      <rtept lat="33.266209" lon="126.64272">
         <ele>10</ele>
      </rtept>
      <rtept lat="33.266138" lon="126.642395">
         <ele>10</ele>
      </rtept>
      <rtept lat="33.265968" lon="126.641975">
         <ele>10</ele>
      </rtept>
      <rtept lat="33.265782" lon="126.641783">
         <ele>10</ele>
      </rtept>
      <rtept lat="33.265334" lon="126.641414">
         <ele>10</ele>
      </rtept>
      <rtept lat="33.265039" lon="126.641121">
         <ele>10</ele>
      </rtept>
      <rtept lat="33.264818" lon="126.640999">
         <ele>10</ele>
      </rtept>
      <rtept lat="33.264821" lon="126.64082">
         <ele>10</ele>
      </rtept>
      <rtept lat="33.264722" lon="126.640779">
         <ele>10</ele>
      </rtept>
      <rtept lat="33.264611" lon="126.640547">
         <ele>10</ele>
      </rtept>
      <rtept lat="33.264415" lon="126.640374">
         <ele>10</ele>
      </rtept>
      <rtept lat="33.264331" lon="126.64026">
         <ele>10</ele>
      </rtept>
      <rtept lat="33.26415" lon="126.639927">
         <ele>10</ele>
      </rtept>
      <rtept lat="33.263789" lon="126.639375">
         <ele>10</ele>
      </rtept>
      <rtept lat="33.263424" lon="126.638768">
         <ele>10</ele>
      </rtept>
      <rtept lat="33.263294" lon="126.638676">
         <ele>10</ele>
      </rtept>
      <rtept lat="33.263096" lon="126.638837">
         <ele>10</ele>
      </rtept>
      <rtept lat="33.262754" lon="126.639114">
         <ele>10</ele>
      </rtept>
      <rtept lat="33.262391" lon="126.63956">
         <ele>10</ele>
      </rtept>
      <rtept lat="33.261952" lon="126.640318">
         <ele>10</ele>
      </rtept>
      <rtept lat="33.261551" lon="126.640564">
         <ele>10</ele>
      </rtept>
      <rtept lat="33.26134" lon="126.640474">
         <ele>10</ele>
      </rtept>
      <rtept lat="33.261383" lon="126.64013">
         <ele>10</ele>
      </rtept>
      <rtept lat="33.261243" lon="126.639819">
         <ele>10</ele>
      </rtept>
      <rtept lat="33.261031" lon="126.639683">
         <ele>10</ele>
      </rtept>
      <rtept lat="33.260896" lon="126.639625">
         <ele>10</ele>
      </rtept>
      <rtept lat="33.260804" lon="126.63967">
         <ele>10</ele>
      </rtept>
      <rtept lat="33.26062" lon="126.639632">
         <ele>10</ele>
      </rtept>
      <rtept lat="33.260474" lon="126.639476">
         <ele>10</ele>
      </rtept>
      <rtept lat="33.26032" lon="126.639221">
         <ele>10</ele>
      </rtept>
      <rtept lat="33.2601" lon="126.638867">
         <ele>10</ele>
      </rtept>
      <rtept lat="33.260089" lon="126.638881">
         <ele>10</ele>
      </rtept>
      <rtept lat="33.259765" lon="126.639319">
         <ele>10</ele>
      </rtept>
      <rtept lat="33.258876" lon="126.639314">
         <ele>10</ele>
      </rtept>
      <rtept lat="33.258059" lon="126.639501">
         <ele>10</ele>
      </rtept>
      <rtept lat="33.257779" lon="126.639076">
         <ele>10</ele>
      </rtept>
      <rtept lat="33.257655" lon="126.638732">
         <ele>10</ele>
      </rtept>
      <rtept lat="33.257366" lon="126.637545">
         <ele>10</ele>
      </rtept>
      <rtept lat="33.257397" lon="126.637341">
         <ele>10</ele>
      </rtept>
      <rtept lat="33.257427" lon="126.637074">
         <ele>10</ele>
      </rtept>
      <rtept lat="33.257427" lon="126.636914">
         <ele>10</ele>
      </rtept>
      <rtept lat="33.257462" lon="126.636688">
         <ele>10</ele>
      </rtept>
      <rtept lat="33.257448" lon="126.636448">
         <ele>10</ele>
      </rtept>
      <rtept lat="33.257319" lon="126.635983">
         <ele>10</ele>
      </rtept>
      <rtept lat="33.257217" lon="126.635791">
         <ele>10</ele>
      </rtept>
      <rtept lat="33.25708" lon="126.635499">
         <ele>10</ele>
      </rtept>
      <rtept lat="33.256997" lon="126.635304">
         <ele>10</ele>
      </rtept>
      <rtept lat="33.256907" lon="126.635151">
         <ele>10</ele>
      </rtept>
      <rtept lat="33.256821" lon="126.634946">
         <ele>10</ele>
      </rtept>
      <rtept lat="33.256741" lon="126.63464">
         <ele>10.24386</ele>
      </rtept>
      <rtept lat="33.257022" lon="126.634523">
         <ele>13.03746</ele>
      </rtept>
      <rtept lat="33.25716" lon="126.633735">
         <ele>23.41209</ele>
      </rtept>
      <rtept lat="33.257338" lon="126.633412">
         <ele>28.19991</ele>
      </rtept>
      <rtept lat="33.257466" lon="126.633217">
         <ele>30.84771</ele>
      </rtept>
      <rtept lat="33.257893" lon="126.632791">
         <ele>35.70507</ele>
      </rtept>
      <rtept lat="33.258055" lon="126.632578">
         <ele>37.59283</ele>
      </rtept>
      <rtept lat="33.258168" lon="126.632395">
         <ele>38.95759</ele>
      </rtept>
      <rtept lat="33.258222" lon="126.63223">
         <ele>40.30358</ele>
      </rtept>
      <rtept lat="33.258275" lon="126.632041">
         <ele>41.72147</ele>
      </rtept>
      <rtept lat="33.258331" lon="126.631865">
         <ele>42.79071</ele>
      </rtept>
      <rtept lat="33.258499" lon="126.631271">
         <ele>45.0335</ele>
      </rtept>
      <rtept lat="33.258587" lon="126.630779">
         <ele>45.95761</ele>
      </rtept>
      <rtept lat="33.258888" lon="126.629929">
         <ele>40.69399</ele>
      </rtept>
      <rtept lat="33.258896" lon="126.629431">
         <ele>37.78783</ele>
      </rtept>
      <rtept lat="33.258743" lon="126.629138">
         <ele>36.99766</ele>
      </rtept>
      <rtept lat="33.258768" lon="126.629012">
         <ele>35.92289</ele>
      </rtept>
      <rtept lat="33.258941" lon="126.628667">
         <ele>32.1619</ele>
      </rtept>
      <rtept lat="33.259189" lon="126.628173">
         <ele>30</ele>
      </rtept>
      <rtept lat="33.258444" lon="126.625985">
         <ele>30</ele>
      </rtept>
      <rtept lat="33.258403" lon="126.62475">
         <ele>20</ele>
      </rtept>
      <rtept lat="33.258363" lon="126.623523">
         <ele>20</ele>
      </rtept>
      <rtept lat="33.257301" lon="126.623369">
         <ele>20</ele>
      </rtept>
      <rtept lat="33.256597" lon="126.623015">
         <ele>20</ele>
      </rtept>
      <rtept lat="33.256099" lon="126.622787">
         <ele>20</ele>
      </rtept>
      <rtept lat="33.255232" lon="126.622643">
         <ele>20</ele>
      </rtept>
      <rtept lat="33.253829" lon="126.62258">
         <ele>10</ele>
      </rtept>
      <rtept lat="33.253098" lon="126.622686">
         <ele>10</ele>
      </rtept>
      <rtept lat="33.252387" lon="126.623031">
         <ele>10</ele>
      </rtept>
      <rtept lat="33.252331" lon="126.623282">
         <ele>10</ele>
      </rtept>
      <rtept lat="33.252123" lon="126.623505" />
      <rtept lat="33.251904" lon="126.623274" />
      <rtept lat="33.251705" lon="126.622998" />
   </rte>
</gpx>