<?xml version="1.0" encoding="utf-8"?>
<gpx version="1.1" creator="Movescount - http://www.movescount.com" xmlns:xsi="http://www.w3.org/2001/XMLSchema-instance" xsi:schemaLocation="http://www.topografix.com/GPX/1/1 http://www.topografix.com/GPX/1/1/gpx.xsd http://www.cluetrust.com/XML/GPXDATA/1/0 http://www.cluetrust.com/Schemas/gpxdata10.xsd http://www.garmin.com/xmlschemas/TrackPointExtension/v1 http://www.garmin.com/xmlschemas/TrackPointExtensionv1.xsd" xmlns:gpxdata="http://www.cluetrust.com/XML/GPXDATA/1/0" xmlns:gpxtpx="http://www.garmin.com/xmlschemas/TrackPointExtension/v1" xmlns="http://www.topografix.com/GPX/1/1">
   <rte>
      <name>ollegil 13</name>
      <rtept lat="33.323556" lon="126.16673" />
      <rtept lat="33.323622" lon="126.167024" />
      <rtept lat="33.323672" lon="126.167024" />
      <rtept lat="33.323879" lon="126.166849" />
      <rtept lat="33.323981" lon="126.166802" />
      <rtept lat="33.324085" lon="126.166784" />
      <rtept lat="33.324174" lon="126.166907" />
      <rtept lat="33.324223" lon="126.166971" />
      <rtept lat="33.324157" lon="126.167013" />
      <rtept lat="33.323989" lon="126.167018" />
      <rtept lat="33.323852" lon="126.167111" />
      <rtept lat="33.323964" lon="126.167618" />
      <rtept lat="33.323989" lon="126.167904" />
      <rtept lat="33.323995" lon="126.16801" />
      <rtept lat="33.324001" lon="126.168116" />
      <rtept lat="33.324005" lon="126.168181" />
      <rtept lat="33.323956" lon="126.168186" />
      <rtept lat="33.32349" lon="126.168249" />
      <rtept lat="33.323375" lon="126.168281" />
      <rtept lat="33.323117" lon="126.16847" />
      <rtept lat="33.322979" lon="126.168541" />
      <rtept lat="33.322749" lon="126.168624" />
      <rtept lat="33.322366" lon="126.16873" />
      <rtept lat="33.322165" lon="126.168781" />
      <rtept lat="33.322164" lon="126.168897" />
      <rtept lat="33.322245" lon="126.169108" />
      <rtept lat="33.322475" lon="126.169723" />
      <rtept lat="33.322652" lon="126.170275">
         <ele>10</ele>
      </rtept>
      <rtept lat="33.322619" lon="126.170303">
         <ele>10</ele>
      </rtept>
      <rtept lat="33.32285" lon="126.170661">
         <ele>10</ele>
      </rtept>
      <rtept lat="33.323181" lon="126.171017">
         <ele>10</ele>
      </rtept>
      <rtept lat="33.323265" lon="126.171137">
         <ele>10</ele>
      </rtept>
      <rtept lat="33.323371" lon="126.171426">
         <ele>10</ele>
      </rtept>
      <rtept lat="33.323525" lon="126.171948">
         <ele>10</ele>
      </rtept>
      <rtept lat="33.324044" lon="126.172114">
         <ele>10</ele>
      </rtept>
      <rtept lat="33.324063" lon="126.172147">
         <ele>10</ele>
      </rtept>
      <rtept lat="33.324127" lon="126.173032">
         <ele>10</ele>
      </rtept>
      <rtept lat="33.324159" lon="126.173471">
         <ele>10</ele>
      </rtept>
      <rtept lat="33.324252" lon="126.173959">
         <ele>10</ele>
      </rtept>
      <rtept lat="33.324427" lon="126.174869">
         <ele>10</ele>
      </rtept>
      <rtept lat="33.324447" lon="126.175048">
         <ele>10</ele>
      </rtept>
      <rtept lat="33.324331" lon="126.175233">
         <ele>10</ele>
      </rtept>
      <rtept lat="33.324223" lon="126.175452">
         <ele>10</ele>
      </rtept>
      <rtept lat="33.324214" lon="126.175471">
         <ele>10</ele>
      </rtept>
      <rtept lat="33.324232" lon="126.175567">
         <ele>10</ele>
      </rtept>
      <rtept lat="33.324446" lon="126.175868">
         <ele>10</ele>
      </rtept>
      <rtept lat="33.324491" lon="126.175974">
         <ele>10</ele>
      </rtept>
      <rtept lat="33.324472" lon="126.176016">
         <ele>10</ele>
      </rtept>
      <rtept lat="33.324438" lon="126.176054">
         <ele>10</ele>
      </rtept>
      <rtept lat="33.32429" lon="126.176143">
         <ele>10</ele>
      </rtept>
      <rtept lat="33.32388" lon="126.176346">
         <ele>10</ele>
      </rtept>
      <rtept lat="33.323795" lon="126.176331">
         <ele>10</ele>
      </rtept>
      <rtept lat="33.323709" lon="126.176377">
         <ele>10</ele>
      </rtept>
      <rtept lat="33.323642" lon="126.176446">
         <ele>10</ele>
      </rtept>
      <rtept lat="33.323546" lon="126.176641">
         <ele>10</ele>
      </rtept>
      <rtept lat="33.323508" lon="126.176694" />
      <rtept lat="33.323391" lon="126.17666" />
      <rtept lat="33.323317" lon="126.176682" />
      <rtept lat="33.323245" lon="126.176808" />
      <rtept lat="33.323182" lon="126.176828" />
      <rtept lat="33.322882" lon="126.176813" />
      <rtept lat="33.322609" lon="126.176888" />
      <rtept lat="33.322507" lon="126.176867" />
      <rtept lat="33.322291" lon="126.176732" />
      <rtept lat="33.322218" lon="126.176715" />
      <rtept lat="33.322107" lon="126.176743" />
      <rtept lat="33.321951" lon="126.176729" />
      <rtept lat="33.321818" lon="126.176778" />
      <rtept lat="33.321709" lon="126.176781" />
      <rtept lat="33.321524" lon="126.176698" />
      <rtept lat="33.321437" lon="126.177006" />
      <rtept lat="33.321356" lon="126.177105" />
      <rtept lat="33.321022" lon="126.17742" />
      <rtept lat="33.320415" lon="126.178133" />
      <rtept lat="33.320391" lon="126.178543" />
      <rtept lat="33.320333" lon="126.17865" />
      <rtept lat="33.320236" lon="126.178912" />
      <rtept lat="33.320161" lon="126.179117" />
      <rtept lat="33.320028" lon="126.179603" />
      <rtept lat="33.319918" lon="126.180058" />
      <rtept lat="33.319748" lon="126.180882" />
      <rtept lat="33.319499" lon="126.18133" />
      <rtept lat="33.319412" lon="126.181449" />
      <rtept lat="33.319025" lon="126.181622" />
      <rtept lat="33.31874" lon="126.181789" />
      <rtept lat="33.318444" lon="126.182065" />
      <rtept lat="33.318162" lon="126.182439" />
      <rtept lat="33.317843" lon="126.183432">
         <ele>20</ele>
      </rtept>
      <rtept lat="33.317639" lon="126.184012">
         <ele>20</ele>
      </rtept>
      <rtept lat="33.317612" lon="126.184251">
         <ele>20</ele>
      </rtept>
      <rtept lat="33.317667" lon="126.184495">
         <ele>20</ele>
      </rtept>
      <rtept lat="33.317656" lon="126.184723">
         <ele>20</ele>
      </rtept>
      <rtept lat="33.317514" lon="126.185565">
         <ele>20</ele>
      </rtept>
      <rtept lat="33.317507" lon="126.185878">
         <ele>20</ele>
      </rtept>
      <rtept lat="33.317471" lon="126.18592">
         <ele>20</ele>
      </rtept>
      <rtept lat="33.317463" lon="126.186313">
         <ele>20</ele>
      </rtept>
      <rtept lat="33.318723" lon="126.186364">
         <ele>20</ele>
      </rtept>
      <rtept lat="33.319031" lon="126.186275">
         <ele>20</ele>
      </rtept>
      <rtept lat="33.319266" lon="126.18606">
         <ele>20</ele>
      </rtept>
      <rtept lat="33.319543" lon="126.185976">
         <ele>20</ele>
      </rtept>
      <rtept lat="33.319781" lon="126.186">
         <ele>20</ele>
      </rtept>
      <rtept lat="33.319809" lon="126.186215">
         <ele>20</ele>
      </rtept>
      <rtept lat="33.319828" lon="126.186364" />
      <rtept lat="33.319988" lon="126.186607" />
      <rtept lat="33.320015" lon="126.186836" />
      <rtept lat="33.320045" lon="126.18796" />
      <rtept lat="33.319975" lon="126.187954" />
      <rtept lat="33.31971" lon="126.188078" />
      <rtept lat="33.31963" lon="126.188182" />
      <rtept lat="33.319485" lon="126.18825" />
      <rtept lat="33.319356" lon="126.188408" />
      <rtept lat="33.319266" lon="126.188627" />
      <rtept lat="33.319091" lon="126.188889" />
      <rtept lat="33.318957" lon="126.189126" />
      <rtept lat="33.318976" lon="126.189272" />
      <rtept lat="33.319055" lon="126.189472" />
      <rtept lat="33.319133" lon="126.18961" />
      <rtept lat="33.319247" lon="126.189993" />
      <rtept lat="33.319469" lon="126.190055" />
      <rtept lat="33.319685" lon="126.19017" />
      <rtept lat="33.319805" lon="126.190214" />
      <rtept lat="33.320053" lon="126.190405" />
      <rtept lat="33.320294" lon="126.190515">
         <ele>30</ele>
      </rtept>
      <rtept lat="33.320408" lon="126.190673">
         <ele>30</ele>
      </rtept>
      <rtept lat="33.320637" lon="126.19089">
         <ele>30</ele>
      </rtept>
      <rtept lat="33.320842" lon="126.191041">
         <ele>30</ele>
      </rtept>
      <rtept lat="33.321084" lon="126.191047">
         <ele>30</ele>
      </rtept>
      <rtept lat="33.321253" lon="126.191157">
         <ele>30</ele>
      </rtept>
      <rtept lat="33.321316" lon="126.191182">
         <ele>30</ele>
      </rtept>
      <rtept lat="33.321583" lon="126.191133">
         <ele>30</ele>
      </rtept>
      <rtept lat="33.321691" lon="126.191523">
         <ele>30</ele>
      </rtept>
      <rtept lat="33.321641" lon="126.191799">
         <ele>30</ele>
      </rtept>
      <rtept lat="33.321857" lon="126.191927">
         <ele>30</ele>
      </rtept>
      <rtept lat="33.321961" lon="126.192057">
         <ele>30</ele>
      </rtept>
      <rtept lat="33.322114" lon="126.192203">
         <ele>30</ele>
      </rtept>
      <rtept lat="33.322304" lon="126.192259">
         <ele>30</ele>
      </rtept>
      <rtept lat="33.322381" lon="126.192539">
         <ele>30</ele>
      </rtept>
      <rtept lat="33.322609" lon="126.192502">
         <ele>30</ele>
      </rtept>
      <rtept lat="33.322575" lon="126.192683">
         <ele>30</ele>
      </rtept>
      <rtept lat="33.322638" lon="126.19292">
         <ele>30</ele>
      </rtept>
      <rtept lat="33.322813" lon="126.193165">
         <ele>30</ele>
      </rtept>
      <rtept lat="33.322933" lon="126.19326">
         <ele>30</ele>
      </rtept>
      <rtept lat="33.322913" lon="126.193415">
         <ele>30</ele>
      </rtept>
      <rtept lat="33.322913" lon="126.193617">
         <ele>30</ele>
      </rtept>
      <rtept lat="33.322852" lon="126.193825">
         <ele>30</ele>
      </rtept>
      <rtept lat="33.323073" lon="126.193805">
         <ele>30</ele>
      </rtept>
      <rtept lat="33.323311" lon="126.193977">
         <ele>30</ele>
      </rtept>
      <rtept lat="33.323598" lon="126.194014">
         <ele>30</ele>
      </rtept>
      <rtept lat="33.324153" lon="126.194459">
         <ele>30</ele>
      </rtept>
      <rtept lat="33.324389" lon="126.194625">
         <ele>30</ele>
      </rtept>
      <rtept lat="33.324616" lon="126.194536">
         <ele>30</ele>
      </rtept>
      <rtept lat="33.3249" lon="126.194524">
         <ele>30</ele>
      </rtept>
      <rtept lat="33.325013" lon="126.194871">
         <ele>30</ele>
      </rtept>
      <rtept lat="33.325022" lon="126.195032">
         <ele>30</ele>
      </rtept>
      <rtept lat="33.325008" lon="126.195284">
         <ele>30</ele>
      </rtept>
      <rtept lat="33.325062" lon="126.195547">
         <ele>30</ele>
      </rtept>
      <rtept lat="33.325278" lon="126.195757">
         <ele>30</ele>
      </rtept>
      <rtept lat="33.32541" lon="126.195954">
         <ele>30</ele>
      </rtept>
      <rtept lat="33.325665" lon="126.196185">
         <ele>30</ele>
      </rtept>
      <rtept lat="33.325718" lon="126.196368">
         <ele>30</ele>
      </rtept>
      <rtept lat="33.32576" lon="126.196755" />
      <rtept lat="33.325891" lon="126.196909" />
      <rtept lat="33.326236" lon="126.197229" />
      <rtept lat="33.326285" lon="126.1973" />
      <rtept lat="33.326278" lon="126.197402" />
      <rtept lat="33.326206" lon="126.197691">
         <ele>40</ele>
      </rtept>
      <rtept lat="33.326161" lon="126.198048">
         <ele>40</ele>
      </rtept>
      <rtept lat="33.326177" lon="126.198244">
         <ele>40</ele>
      </rtept>
      <rtept lat="33.326173" lon="126.19849">
         <ele>40</ele>
      </rtept>
      <rtept lat="33.326105" lon="126.19863">
         <ele>40</ele>
      </rtept>
      <rtept lat="33.325986" lon="126.198676">
         <ele>40</ele>
      </rtept>
      <rtept lat="33.325871" lon="126.198695">
         <ele>40</ele>
      </rtept>
      <rtept lat="33.325824" lon="126.198763">
         <ele>40</ele>
      </rtept>
      <rtept lat="33.32581" lon="126.198894">
         <ele>40</ele>
      </rtept>
      <rtept lat="33.325853" lon="126.19902">
         <ele>40</ele>
      </rtept>
      <rtept lat="33.32591" lon="126.199388">
         <ele>40</ele>
      </rtept>
      <rtept lat="33.325946" lon="126.199463">
         <ele>40</ele>
      </rtept>
      <rtept lat="33.326085" lon="126.199442">
         <ele>40</ele>
      </rtept>
      <rtept lat="33.326174" lon="126.199448">
         <ele>40</ele>
      </rtept>
      <rtept lat="33.326228" lon="126.199506">
         <ele>40</ele>
      </rtept>
      <rtept lat="33.326286" lon="126.199786">
         <ele>40</ele>
      </rtept>
      <rtept lat="33.326371" lon="126.199956">
         <ele>40</ele>
      </rtept>
      <rtept lat="33.326075" lon="126.200229">
         <ele>40</ele>
      </rtept>
      <rtept lat="33.325759" lon="126.200687">
         <ele>40</ele>
      </rtept>
      <rtept lat="33.325901" lon="126.201148">
         <ele>40</ele>
      </rtept>
      <rtept lat="33.325864" lon="126.201462">
         <ele>40</ele>
      </rtept>
      <rtept lat="33.326041" lon="126.202447">
         <ele>40</ele>
      </rtept>
      <rtept lat="33.326187" lon="126.202901">
         <ele>40</ele>
      </rtept>
      <rtept lat="33.326201" lon="126.203243">
         <ele>40</ele>
      </rtept>
      <rtept lat="33.326255" lon="126.203713">
         <ele>40</ele>
      </rtept>
      <rtept lat="33.326011" lon="126.203872">
         <ele>40</ele>
      </rtept>
      <rtept lat="33.325983" lon="126.203991">
         <ele>40</ele>
      </rtept>
      <rtept lat="33.326017" lon="126.20413">
         <ele>40</ele>
      </rtept>
      <rtept lat="33.326106" lon="126.204247">
         <ele>40</ele>
      </rtept>
      <rtept lat="33.326173" lon="126.204442">
         <ele>40</ele>
      </rtept>
      <rtept lat="33.326214" lon="126.204812">
         <ele>40</ele>
      </rtept>
      <rtept lat="33.326506" lon="126.20482">
         <ele>40</ele>
      </rtept>
      <rtept lat="33.32663" lon="126.204786">
         <ele>40</ele>
      </rtept>
      <rtept lat="33.326688" lon="126.204749">
         <ele>40</ele>
      </rtept>
      <rtept lat="33.326824" lon="126.204674" />
      <rtept lat="33.326867" lon="126.204855" />
      <rtept lat="33.32696" lon="126.204788" />
      <rtept lat="33.327147" lon="126.205193" />
      <rtept lat="33.327432" lon="126.205501" />
      <rtept lat="33.327471" lon="126.205646" />
      <rtept lat="33.327604" lon="126.205717" />
      <rtept lat="33.327737" lon="126.205712" />
      <rtept lat="33.328236" lon="126.205955" />
      <rtept lat="33.328425" lon="126.206011" />
      <rtept lat="33.328599" lon="126.206179" />
      <rtept lat="33.328755" lon="126.206198" />
      <rtept lat="33.328868" lon="126.206282" />
      <rtept lat="33.328965" lon="126.206505" />
      <rtept lat="33.328934" lon="126.206738" />
      <rtept lat="33.328969" lon="126.206875" />
      <rtept lat="33.329063" lon="126.206931" />
      <rtept lat="33.32916" lon="126.207075" />
      <rtept lat="33.329301" lon="126.207537" />
      <rtept lat="33.329285" lon="126.20807" />
      <rtept lat="33.329364" lon="126.208163" />
      <rtept lat="33.329387" lon="126.208378" />
      <rtept lat="33.329275" lon="126.208557" />
      <rtept lat="33.329106" lon="126.208695" />
      <rtept lat="33.328995" lon="126.208711" />
      <rtept lat="33.328945" lon="126.209026" />
      <rtept lat="33.329052" lon="126.209042" />
      <rtept lat="33.329042" lon="126.209214" />
      <rtept lat="33.329055" lon="126.209463" />
      <rtept lat="33.329018" lon="126.209633" />
      <rtept lat="33.328994" lon="126.210229" />
      <rtept lat="33.328856" lon="126.210501" />
      <rtept lat="33.328655" lon="126.210762" />
      <rtept lat="33.328444" lon="126.210912" />
      <rtept lat="33.328347" lon="126.211309">
         <ele>50</ele>
      </rtept>
      <rtept lat="33.328378" lon="126.211473">
         <ele>50</ele>
      </rtept>
      <rtept lat="33.32844" lon="126.211632">
         <ele>50</ele>
      </rtept>
      <rtept lat="33.328518" lon="126.211734">
         <ele>50</ele>
      </rtept>
      <rtept lat="33.328585" lon="126.212">
         <ele>50</ele>
      </rtept>
      <rtept lat="33.328674" lon="126.212267">
         <ele>50</ele>
      </rtept>
      <rtept lat="33.328768" lon="126.212332">
         <ele>50</ele>
      </rtept>
      <rtept lat="33.328979" lon="126.212566">
         <ele>50</ele>
      </rtept>
      <rtept lat="33.329002" lon="126.212743">
         <ele>50</ele>
      </rtept>
      <rtept lat="33.328971" lon="126.212916">
         <ele>50</ele>
      </rtept>
      <rtept lat="33.328987" lon="126.213051">
         <ele>50</ele>
      </rtept>
      <rtept lat="33.329049" lon="126.213173">
         <ele>50</ele>
      </rtept>
      <rtept lat="33.32917" lon="126.213266">
         <ele>50</ele>
      </rtept>
      <rtept lat="33.32928" lon="126.213319">
         <ele>50</ele>
      </rtept>
      <rtept lat="33.329389" lon="126.213321">
         <ele>50</ele>
      </rtept>
      <rtept lat="33.329674" lon="126.213286">
         <ele>50</ele>
      </rtept>
      <rtept lat="33.32974" lon="126.213386">
         <ele>50</ele>
      </rtept>
      <rtept lat="33.329762" lon="126.213473">
         <ele>50</ele>
      </rtept>
      <rtept lat="33.329744" lon="126.213783">
         <ele>50</ele>
      </rtept>
      <rtept lat="33.329764" lon="126.213902">
         <ele>50</ele>
      </rtept>
      <rtept lat="33.329848" lon="126.214019">
         <ele>50</ele>
      </rtept>
      <rtept lat="33.329695" lon="126.214366">
         <ele>50</ele>
      </rtept>
      <rtept lat="33.329172" lon="126.215747">
         <ele>50</ele>
      </rtept>
      <rtept lat="33.328882" lon="126.216535">
         <ele>50</ele>
      </rtept>
      <rtept lat="33.328784" lon="126.216881">
         <ele>50</ele>
      </rtept>
      <rtept lat="33.328897" lon="126.217045">
         <ele>50</ele>
      </rtept>
      <rtept lat="33.329036" lon="126.217362">
         <ele>50</ele>
      </rtept>
      <rtept lat="33.329189" lon="126.217575">
         <ele>50</ele>
      </rtept>
      <rtept lat="33.329287" lon="126.217805">
         <ele>50</ele>
      </rtept>
      <rtept lat="33.329316" lon="126.218077">
         <ele>50</ele>
      </rtept>
      <rtept lat="33.329314" lon="126.218413">
         <ele>50</ele>
      </rtept>
      <rtept lat="33.329298" lon="126.218526">
         <ele>50</ele>
      </rtept>
      <rtept lat="33.329282" lon="126.218643" />
      <rtept lat="33.329202" lon="126.218797" />
      <rtept lat="33.329002" lon="126.219041" />
      <rtept lat="33.328715" lon="126.218702" />
      <rtept lat="33.328629" lon="126.218761" />
      <rtept lat="33.328553" lon="126.218781" />
      <rtept lat="33.328511" lon="126.218903" />
      <rtept lat="33.328505" lon="126.219037" />
      <rtept lat="33.328391" lon="126.219334" />
      <rtept lat="33.328348" lon="126.21941" />
      <rtept lat="33.32823" lon="126.219545" />
      <rtept lat="33.328212" lon="126.219643" />
      <rtept lat="33.32813" lon="126.219695" />
      <rtept lat="33.32798" lon="126.219724" />
      <rtept lat="33.327767" lon="126.219712" />
      <rtept lat="33.327372" lon="126.220532" />
      <rtept lat="33.327508" lon="126.220689" />
      <rtept lat="33.32763" lon="126.220797" />
      <rtept lat="33.327641" lon="126.220988" />
      <rtept lat="33.327697" lon="126.221165" />
      <rtept lat="33.327798" lon="126.221339" />
      <rtept lat="33.32767" lon="126.221368" />
      <rtept lat="33.327584" lon="126.221409" />
      <rtept lat="33.327738" lon="126.22168" />
      <rtept lat="33.327827" lon="126.221714" />
      <rtept lat="33.327917" lon="126.222222" />
      <rtept lat="33.32802" lon="126.222561">
         <ele>60</ele>
      </rtept>
      <rtept lat="33.328098" lon="126.222974">
         <ele>60</ele>
      </rtept>
      <rtept lat="33.328015" lon="126.223202">
         <ele>60</ele>
      </rtept>
      <rtept lat="33.327845" lon="126.223362">
         <ele>60</ele>
      </rtept>
      <rtept lat="33.327306" lon="126.223735">
         <ele>60</ele>
      </rtept>
      <rtept lat="33.327382" lon="126.223827">
         <ele>60</ele>
      </rtept>
      <rtept lat="33.327399" lon="126.223883">
         <ele>60</ele>
      </rtept>
      <rtept lat="33.327249" lon="126.224078">
         <ele>60</ele>
      </rtept>
      <rtept lat="33.327464" lon="126.224156">
         <ele>60</ele>
      </rtept>
      <rtept lat="33.327551" lon="126.224082">
         <ele>60</ele>
      </rtept>
      <rtept lat="33.327639" lon="126.2241">
         <ele>60</ele>
      </rtept>
      <rtept lat="33.32777" lon="126.224265">
         <ele>60</ele>
      </rtept>
      <rtept lat="33.327758" lon="126.224328">
         <ele>60</ele>
      </rtept>
      <rtept lat="33.327724" lon="126.224372">
         <ele>60</ele>
      </rtept>
      <rtept lat="33.327671" lon="126.224442" />
      <rtept lat="33.32764" lon="126.224516" />
      <rtept lat="33.327653" lon="126.224613" />
      <rtept lat="33.327571" lon="126.224851" />
      <rtept lat="33.327782" lon="126.224878" />
      <rtept lat="33.328007" lon="126.224956" />
      <rtept lat="33.328101" lon="126.224989" />
      <rtept lat="33.328322" lon="126.225125" />
      <rtept lat="33.328508" lon="126.225289" />
      <rtept lat="33.32858" lon="126.225353" />
      <rtept lat="33.327717" lon="126.225704" />
      <rtept lat="33.327728" lon="126.22583" />
      <rtept lat="33.327753" lon="126.226133" />
      <rtept lat="33.327711" lon="126.226836" />
      <rtept lat="33.327824" lon="126.226867" />
      <rtept lat="33.327922" lon="126.227079" />
      <rtept lat="33.327926" lon="126.227215" />
      <rtept lat="33.3279" lon="126.227399" />
      <rtept lat="33.327852" lon="126.227485" />
      <rtept lat="33.32775" lon="126.227546" />
      <rtept lat="33.327621" lon="126.227556" />
      <rtept lat="33.327403" lon="126.22743" />
      <rtept lat="33.327352" lon="126.227427" />
      <rtept lat="33.327284" lon="126.227537" />
      <rtept lat="33.327413" lon="126.227705" />
      <rtept lat="33.327489" lon="126.227736" />
      <rtept lat="33.327575" lon="126.227801" />
      <rtept lat="33.327643" lon="126.227939" />
      <rtept lat="33.327694" lon="126.22809" />
      <rtept lat="33.327635" lon="126.22821" />
      <rtept lat="33.32754" lon="126.228298" />
      <rtept lat="33.32753" lon="126.22849" />
      <rtept lat="33.327415" lon="126.228599" />
      <rtept lat="33.327422" lon="126.228658" />
      <rtept lat="33.327619" lon="126.228754" />
      <rtept lat="33.327633" lon="126.228791" />
      <rtept lat="33.327619" lon="126.228859">
         <ele>70</ele>
      </rtept>
      <rtept lat="33.32754" lon="126.22894">
         <ele>70</ele>
      </rtept>
      <rtept lat="33.327485" lon="126.22908">
         <ele>70</ele>
      </rtept>
      <rtept lat="33.327417" lon="126.229169">
         <ele>70</ele>
      </rtept>
      <rtept lat="33.327385" lon="126.229431">
         <ele>70</ele>
      </rtept>
      <rtept lat="33.327257" lon="126.229452">
         <ele>70</ele>
      </rtept>
      <rtept lat="33.327065" lon="126.229454">
         <ele>70</ele>
      </rtept>
      <rtept lat="33.327019" lon="126.229473">
         <ele>70</ele>
      </rtept>
      <rtept lat="33.326886" lon="126.229414">
         <ele>70</ele>
      </rtept>
      <rtept lat="33.326825" lon="126.229358">
         <ele>70</ele>
      </rtept>
      <rtept lat="33.326792" lon="126.229167">
         <ele>70</ele>
      </rtept>
      <rtept lat="33.326767" lon="126.229125">
         <ele>70</ele>
      </rtept>
      <rtept lat="33.326638" lon="126.229144">
         <ele>70</ele>
      </rtept>
      <rtept lat="33.326515" lon="126.229139">
         <ele>70</ele>
      </rtept>
      <rtept lat="33.32639" lon="126.229113">
         <ele>70</ele>
      </rtept>
      <rtept lat="33.326326" lon="126.229017">
         <ele>70</ele>
      </rtept>
      <rtept lat="33.326326" lon="126.228887">
         <ele>70</ele>
      </rtept>
      <rtept lat="33.326236" lon="126.228852">
         <ele>70</ele>
      </rtept>
      <rtept lat="33.32609" lon="126.228954">
         <ele>70</ele>
      </rtept>
      <rtept lat="33.325784" lon="126.229041">
         <ele>70</ele>
      </rtept>
      <rtept lat="33.325609" lon="126.229068">
         <ele>70</ele>
      </rtept>
      <rtept lat="33.3253" lon="126.228885">
         <ele>70</ele>
      </rtept>
      <rtept lat="33.325185" lon="126.228836">
         <ele>70</ele>
      </rtept>
      <rtept lat="33.32509" lon="126.229">
         <ele>70</ele>
      </rtept>
      <rtept lat="33.325049" lon="126.22923">
         <ele>70</ele>
      </rtept>
      <rtept lat="33.325031" lon="126.229506">
         <ele>70</ele>
      </rtept>
      <rtept lat="33.324888" lon="126.230133">
         <ele>70</ele>
      </rtept>
      <rtept lat="33.324851" lon="126.230362">
         <ele>70</ele>
      </rtept>
      <rtept lat="33.32491" lon="126.23101">
         <ele>70</ele>
      </rtept>
      <rtept lat="33.32491" lon="126.231311">
         <ele>70</ele>
      </rtept>
      <rtept lat="33.324874" lon="126.231714">
         <ele>70</ele>
      </rtept>
      <rtept lat="33.324874" lon="126.231923">
         <ele>70</ele>
      </rtept>
      <rtept lat="33.32478" lon="126.232048">
         <ele>70</ele>
      </rtept>
      <rtept lat="33.324733" lon="126.232235">
         <ele>70</ele>
      </rtept>
      <rtept lat="33.32466" lon="126.232413">
         <ele>70</ele>
      </rtept>
      <rtept lat="33.324733" lon="126.232666">
         <ele>70</ele>
      </rtept>
      <rtept lat="33.324774" lon="126.233052">
         <ele>70</ele>
      </rtept>
      <rtept lat="33.324818" lon="126.233227">
         <ele>70</ele>
      </rtept>
      <rtept lat="33.324934" lon="126.233559">
         <ele>70</ele>
      </rtept>
      <rtept lat="33.325091" lon="126.234284">
         <ele>80</ele>
      </rtept>
      <rtept lat="33.325117" lon="126.234497">
         <ele>80</ele>
      </rtept>
      <rtept lat="33.325184" lon="126.234701">
         <ele>80</ele>
      </rtept>
      <rtept lat="33.325276" lon="126.234851">
         <ele>80</ele>
      </rtept>
      <rtept lat="33.325467" lon="126.235015">
         <ele>80</ele>
      </rtept>
      <rtept lat="33.325733" lon="126.235448">
         <ele>80</ele>
      </rtept>
      <rtept lat="33.325837" lon="126.235571">
         <ele>80</ele>
      </rtept>
      <rtept lat="33.325931" lon="126.235721">
         <ele>80</ele>
      </rtept>
      <rtept lat="33.326027" lon="126.235779">
         <ele>80</ele>
      </rtept>
      <rtept lat="33.326144" lon="126.235938">
         <ele>90</ele>
      </rtept>
      <rtept lat="33.326161" lon="126.235994">
         <ele>90</ele>
      </rtept>
      <rtept lat="33.326306" lon="126.236422">
         <ele>90</ele>
      </rtept>
      <rtept lat="33.326707" lon="126.237027">
         <ele>90</ele>
      </rtept>
      <rtept lat="33.32688" lon="126.237191">
         <ele>90</ele>
      </rtept>
      <rtept lat="33.326968" lon="126.237183">
         <ele>90</ele>
      </rtept>
      <rtept lat="33.327277" lon="126.23723">
         <ele>90</ele>
      </rtept>
      <rtept lat="33.327433" lon="126.237225">
         <ele>90</ele>
      </rtept>
      <rtept lat="33.327683" lon="126.237267">
         <ele>90</ele>
      </rtept>
      <rtept lat="33.327878" lon="126.237239">
         <ele>90</ele>
      </rtept>
      <rtept lat="33.328213" lon="126.237398">
         <ele>90</ele>
      </rtept>
      <rtept lat="33.328471" lon="126.237377">
         <ele>90</ele>
      </rtept>
      <rtept lat="33.328866" lon="126.237384">
         <ele>90</ele>
      </rtept>
      <rtept lat="33.329174" lon="126.237532">
         <ele>90</ele>
      </rtept>
      <rtept lat="33.329357" lon="126.237586">
         <ele>90</ele>
      </rtept>
      <rtept lat="33.329682" lon="126.237897">
         <ele>90</ele>
      </rtept>
      <rtept lat="33.329786" lon="126.237936">
         <ele>90</ele>
      </rtept>
      <rtept lat="33.329959" lon="126.238001" />
      <rtept lat="33.330123" lon="126.23783" />
      <rtept lat="33.330451" lon="126.237829" />
      <rtept lat="33.330974" lon="126.238103" />
      <rtept lat="33.331008" lon="126.238117" />
      <rtept lat="33.331276" lon="126.238434">
         <ele>100</ele>
      </rtept>
      <rtept lat="33.331429" lon="126.238467">
         <ele>100</ele>
      </rtept>
      <rtept lat="33.331578" lon="126.238452">
         <ele>100</ele>
      </rtept>
      <rtept lat="33.331714" lon="126.238438">
         <ele>100</ele>
      </rtept>
      <rtept lat="33.331837" lon="126.238516">
         <ele>100</ele>
      </rtept>
      <rtept lat="33.331962" lon="126.23891">
         <ele>100</ele>
      </rtept>
      <rtept lat="33.332093" lon="126.238923">
         <ele>100</ele>
      </rtept>
      <rtept lat="33.332326" lon="126.239004">
         <ele>100</ele>
      </rtept>
      <rtept lat="33.332482" lon="126.239032">
         <ele>100</ele>
      </rtept>
      <rtept lat="33.332661" lon="126.238976">
         <ele>100</ele>
      </rtept>
      <rtept lat="33.33271" lon="126.238943">
         <ele>100</ele>
      </rtept>
      <rtept lat="33.332754" lon="126.238764">
         <ele>100</ele>
      </rtept>
      <rtept lat="33.332835" lon="126.238646">
         <ele>100</ele>
      </rtept>
      <rtept lat="33.333015" lon="126.238467">
         <ele>100</ele>
      </rtept>
      <rtept lat="33.333093" lon="126.238422">
         <ele>100</ele>
      </rtept>
      <rtept lat="33.333047" lon="126.238291">
         <ele>100</ele>
      </rtept>
      <rtept lat="33.332937" lon="126.237975">
         <ele>90</ele>
      </rtept>
      <rtept lat="33.332965" lon="126.237886">
         <ele>90</ele>
      </rtept>
      <rtept lat="33.333046" lon="126.237849">
         <ele>90</ele>
      </rtept>
      <rtept lat="33.333321" lon="126.237621">
         <ele>90</ele>
      </rtept>
      <rtept lat="33.333353" lon="126.237502">
         <ele>90</ele>
      </rtept>
      <rtept lat="33.333481" lon="126.237591">
         <ele>90</ele>
      </rtept>
      <rtept lat="33.333816" lon="126.237733">
         <ele>90</ele>
      </rtept>
      <rtept lat="33.333943" lon="126.23785">
         <ele>90</ele>
      </rtept>
      <rtept lat="33.333996" lon="126.237931">
         <ele>90</ele>
      </rtept>
      <rtept lat="33.33419" lon="126.238107">
         <ele>90</ele>
      </rtept>
      <rtept lat="33.33436" lon="126.238327">
         <ele>90</ele>
      </rtept>
      <rtept lat="33.33467" lon="126.238968">
         <ele>90</ele>
      </rtept>
      <rtept lat="33.334741" lon="126.239042">
         <ele>90</ele>
      </rtept>
      <rtept lat="33.335002" lon="126.239223">
         <ele>90</ele>
      </rtept>
      <rtept lat="33.335432" lon="126.239373">
         <ele>90</ele>
      </rtept>
      <rtept lat="33.335519" lon="126.239443">
         <ele>90</ele>
      </rtept>
      <rtept lat="33.335615" lon="126.239628">
         <ele>90</ele>
      </rtept>
      <rtept lat="33.335721" lon="126.23975">
         <ele>90</ele>
      </rtept>
      <rtept lat="33.335802" lon="126.239799">
         <ele>90</ele>
      </rtept>
      <rtept lat="33.335945" lon="126.23984">
         <ele>90</ele>
      </rtept>
      <rtept lat="33.336121" lon="126.239944">
         <ele>90</ele>
      </rtept>
      <rtept lat="33.336286" lon="126.240009">
         <ele>90.31414</ele>
      </rtept>
      <rtept lat="33.336507" lon="126.240043">
         <ele>90</ele>
      </rtept>
      <rtept lat="33.336515" lon="126.240106">
         <ele>91.50573</ele>
      </rtept>
      <rtept lat="33.33659" lon="126.24048">
         <ele>91.03161</ele>
      </rtept>
      <rtept lat="33.336726" lon="126.240767">
         <ele>93.06815</ele>
      </rtept>
      <rtept lat="33.336752" lon="126.24089">
         <ele>94.37746</ele>
      </rtept>
      <rtept lat="33.336714" lon="126.241449">
         <ele>101.7432</ele>
      </rtept>
      <rtept lat="33.3366" lon="126.241591">
         <ele>104.5342</ele>
      </rtept>
      <rtept lat="33.336501" lon="126.241643">
         <ele>106.2086</ele>
      </rtept>
      <rtept lat="33.336014" lon="126.241766">
         <ele>112.1717</ele>
      </rtept>
      <rtept lat="33.335904" lon="126.241893">
         <ele>114.3163</ele>
      </rtept>
      <rtept lat="33.335814" lon="126.242145">
         <ele>117.6697</ele>
      </rtept>
      <rtept lat="33.335767" lon="126.242501">
         <ele>120</ele>
      </rtept>
      <rtept lat="33.335708" lon="126.242721">
         <ele>120</ele>
      </rtept>
      <rtept lat="33.335678" lon="126.242972">
         <ele>120</ele>
      </rtept>
      <rtept lat="33.335755" lon="126.243136">
         <ele>120</ele>
      </rtept>
      <rtept lat="33.335748" lon="126.243308">
         <ele>120</ele>
      </rtept>
      <rtept lat="33.335689" lon="126.243454">
         <ele>120</ele>
      </rtept>
      <rtept lat="33.335638" lon="126.243673">
         <ele>125.1845</ele>
      </rtept>
      <rtept lat="33.335619" lon="126.243934">
         <ele>130</ele>
      </rtept>
      <rtept lat="33.335619" lon="126.244543">
         <ele>130</ele>
      </rtept>
      <rtept lat="33.335619" lon="126.244616">
         <ele>130</ele>
      </rtept>
      <rtept lat="33.335428" lon="126.244998">
         <ele>130</ele>
      </rtept>
      <rtept lat="33.33524" lon="126.245433">
         <ele>140</ele>
      </rtept>
      <rtept lat="33.335106" lon="126.245642">
         <ele>140</ele>
      </rtept>
      <rtept lat="33.335082" lon="126.245869">
         <ele>140</ele>
      </rtept>
      <rtept lat="33.335014" lon="126.246038">
         <ele>140</ele>
      </rtept>
      <rtept lat="33.334837" lon="126.2463">
         <ele>140</ele>
      </rtept>
      <rtept lat="33.334795" lon="126.246476">
         <ele>140</ele>
      </rtept>
      <rtept lat="33.335036" lon="126.246478">
         <ele>140</ele>
      </rtept>
      <rtept lat="33.335209" lon="126.246503">
         <ele>140</ele>
      </rtept>
      <rtept lat="33.335335" lon="126.246496">
         <ele>140</ele>
      </rtept>
      <rtept lat="33.336101" lon="126.246894">
         <ele>140</ele>
      </rtept>
      <rtept lat="33.336238" lon="126.247056">
         <ele>139.5051</ele>
      </rtept>
      <rtept lat="33.336323" lon="126.24721">
         <ele>139.7338</ele>
      </rtept>
      <rtept lat="33.336366" lon="126.247445">
         <ele>139.2744</ele>
      </rtept>
      <rtept lat="33.336095" lon="126.247414">
         <ele>142.484</ele>
      </rtept>
      <rtept lat="33.335869" lon="126.247692">
         <ele>145.4526</ele>
      </rtept>
      <rtept lat="33.335648" lon="126.247864">
         <ele>148.466</ele>
      </rtept>
      <rtept lat="33.335591" lon="126.247882">
         <ele>149.2036</ele>
      </rtept>
      <rtept lat="33.335421" lon="126.247938">
         <ele>150</ele>
      </rtept>
      <rtept lat="33.335158" lon="126.247981">
         <ele>153.9126</ele>
      </rtept>
      <rtept lat="33.334978" lon="126.248098">
         <ele>155.5394</ele>
      </rtept>
      <rtept lat="33.334924" lon="126.248511">
         <ele>161.1809</ele>
      </rtept>
      <rtept lat="33.334316" lon="126.249078">
         <ele>175.128</ele>
      </rtept>
      <rtept lat="33.333809" lon="126.249723">
         <ele>195.5512</ele>
      </rtept>
      <rtept lat="33.33374" lon="126.249807">
         <ele>197.8848</ele>
      </rtept>
      <rtept lat="33.333951" lon="126.250311">
         <ele>203.0163</ele>
      </rtept>
      <rtept lat="33.33406" lon="126.250872">
         <ele>207.7027</ele>
      </rtept>
      <rtept lat="33.33408" lon="126.25118">
         <ele>210</ele>
      </rtept>
      <rtept lat="33.333846" lon="126.251918">
         <ele>210</ele>
      </rtept>
      <rtept lat="33.333502" lon="126.252188">
         <ele>205.8885</ele>
      </rtept>
      <rtept lat="33.333233" lon="126.252315">
         <ele>200</ele>
      </rtept>
      <rtept lat="33.332816" lon="126.252282">
         <ele>196.4035</ele>
      </rtept>
      <rtept lat="33.332457" lon="126.252109">
         <ele>196.6925</ele>
      </rtept>
      <rtept lat="33.332191" lon="126.251763">
         <ele>196.9045</ele>
      </rtept>
      <rtept lat="33.332012" lon="126.251203">
         <ele>197.8752</ele>
      </rtept>
      <rtept lat="33.332008" lon="126.250568">
         <ele>196.8116</ele>
      </rtept>
      <rtept lat="33.332176" lon="126.250241">
         <ele>195.2485</ele>
      </rtept>
      <rtept lat="33.332458" lon="126.249866">
         <ele>192.8719</ele>
      </rtept>
      <rtept lat="33.332851" lon="126.249597">
         <ele>191.7624</ele>
      </rtept>
      <rtept lat="33.33319" lon="126.249597">
         <ele>193.7516</ele>
      </rtept>
      <rtept lat="33.333498" lon="126.249709">
         <ele>196.4896</ele>
      </rtept>
      <rtept lat="33.333747" lon="126.249801">
         <ele>197.7054</ele>
      </rtept>
      <rtept lat="33.334316" lon="126.249078">
         <ele>175.128</ele>
      </rtept>
      <rtept lat="33.33419" lon="126.249014">
         <ele>174.3515</ele>
      </rtept>
      <rtept lat="33.333539" lon="126.248683">
         <ele>165.4853</ele>
      </rtept>
      <rtept lat="33.332499" lon="126.248659">
         <ele>158.5701</ele>
      </rtept>
      <rtept lat="33.332128" lon="126.24885">
         <ele>158.8925</ele>
      </rtept>
      <rtept lat="33.331915" lon="126.249203">
         <ele>164.1277</ele>
      </rtept>
      <rtept lat="33.331493" lon="126.249804">
         <ele>166.7551</ele>
      </rtept>
      <rtept lat="33.331355" lon="126.250469">
         <ele>173.2377</ele>
      </rtept>
      <rtept lat="33.331386" lon="126.250941">
         <ele>179.4809</ele>
      </rtept>
      <rtept lat="33.331592" lon="126.251757">
         <ele>187.8498</ele>
      </rtept>
      <rtept lat="33.331727" lon="126.252121">
         <ele>189.3333</ele>
      </rtept>
      <rtept lat="33.331345" lon="126.252379">
         <ele>170.3257</ele>
      </rtept>
      <rtept lat="33.331561" lon="126.253141">
         <ele>162.8584</ele>
      </rtept>
      <rtept lat="33.331543" lon="126.253296">
         <ele>158.3387</ele>
      </rtept>
      <rtept lat="33.331543" lon="126.25372">
         <ele>147.7138</ele>
      </rtept>
      <rtept lat="33.331435" lon="126.253916">
         <ele>141.29</ele>
      </rtept>
      <rtept lat="33.33125" lon="126.254099">
         <ele>136.5713</ele>
      </rtept>
      <rtept lat="33.33097" lon="126.254217">
         <ele>132.334</ele>
      </rtept>
      <rtept lat="33.330895" lon="126.254317">
         <ele>130.4104</ele>
      </rtept>
      <rtept lat="33.330872" lon="126.254348">
         <ele>130.1765</ele>
      </rtept>
      <rtept lat="33.330867" lon="126.254578">
         <ele>131.8523</ele>
      </rtept>
      <rtept lat="33.331026" lon="126.254872">
         <ele>130</ele>
      </rtept>
      <rtept lat="33.331095" lon="126.254921">
         <ele>130</ele>
      </rtept>
      <rtept lat="33.331469" lon="126.255045">
         <ele>130</ele>
      </rtept>
      <rtept lat="33.331437" lon="126.255223">
         <ele>130</ele>
      </rtept>
      <rtept lat="33.331259" lon="126.255861">
         <ele>130</ele>
      </rtept>
      <rtept lat="33.331921" lon="126.25624">
         <ele>130</ele>
      </rtept>
      <rtept lat="33.33218" lon="126.256286">
         <ele>130</ele>
      </rtept>
      <rtept lat="33.332926" lon="126.256354">
         <ele>120</ele>
      </rtept>
   </rte>
</gpx>