<?xml version="1.0" encoding="utf-8"?>
<kml xmlns:gx="http://www.google.com/kml/ext/2.2" xmlns="http://www.opengis.net/kml/2.2">
  <Document>
    <Style id="base_track_style">
      <LineStyle>
        <color>7f00ffff</color>
        <width>4</width>
      </LineStyle>
    </Style>
    <Folder><Placemark>
  <styleUrl>#base_track_style</styleUrl>
  <name>route</name>
  <MultiGeometry>
    <LineString>
      <coordinates>126.338093,33.466905,0
126.338098,33.466945,0
126.338312,33.466999,0
126.338708,33.467201,0
126.339073,33.467323,10
126.339254,33.467454,10
126.339404,33.467615,10
126.339572,33.467879,10
126.339917,33.468518,10
126.340002,33.468776,10
126.340142,33.469469,10
126.340347,33.469804,10
126.3406,33.470116,10
126.340974,33.470421,10
126.341744,33.47085,10
126.342105,33.47103,10
126.342815,33.471205,14.08771
126.343555,33.47154,11.66172
126.344378,33.471725,10
126.344958,33.471893,10
126.345242,33.471994,10
126.345506,33.472026,10
126.346018,33.472033,10
126.346222,33.472111,10
126.346381,33.472235,10
126.346493,33.472468,10
126.346632,33.472664,10
126.34712,33.473022,10
126.34741,33.473093,10
126.347756,33.473085,10
126.348045,33.473038,10
126.348251,33.472983,10
126.348633,33.472983,10
126.349063,33.473006,10
126.34952,33.472983,10
126.350109,33.473006,10
126.350577,33.472843,10
126.351051,33.472612,10
126.351297,33.472703,10
126.352043,33.473345,10
126.352124,33.47377,10
126.352188,33.473936,10
126.352392,33.474168,10
126.352446,33.474504,10
126.352365,33.47492,10
126.352488,33.475104,10
126.352644,33.475256,10
126.3528,33.475153,10
126.352891,33.475802,10
126.352998,33.476137,10
126.353105,33.47663,10
126.353588,33.477345,10
126.353856,33.477592,11.00759
126.355069,33.478124,16.46756
126.355514,33.478384,16.24284
126.356394,33.478634,16.15102
126.356866,33.478867,19.62398
126.357853,33.479099,16.05872
126.358255,33.479314,16.01671
126.358759,33.479305,15.75487
126.358832,33.479329,15.9821
126.359103,33.479417,15.66788
126.359565,33.47938,15.2892
126.359843,33.479454,15.65905
126.360316,33.479434,17.21672
126.360882,33.479302,11.30934
126.362561,33.478757,10
126.363199,33.478663,12.528
126.364211,33.478313,16.30004
126.36441,33.478278,16.57987
126.364764,33.478266,16.31067
126.36512,33.478291,14.72372
126.365794,33.478423,10.95475
126.366361,33.478383,10.61579
126.366723,33.478327,10.96486
126.366945,33.478355,10.30903
126.367119,33.478317,10.63456
126.367424,33.478195,11.66963
126.36755,33.478165,12.02927
126.368144,33.478161,12.04599
126.36835,33.47811,12.65863
126.368779,33.478172,12.11
126.369293,33.478281,10
126.369414,33.478358,10
126.36947,33.478506,10
126.369554,33.478624,10
126.370133,33.478958,10
126.370655,33.479285,10
126.370939,33.479491,10
126.37147,33.479737,10
126.371765,33.47997,10
126.372161,33.480365,10
126.372205,33.480413,10
126.372473,33.480525,10
126.373464,33.480753,10
126.373834,33.481213,10
126.374397,33.48171,10
126.374612,33.481836,10
126.375539,33.482319,10
126.375883,33.482637,10
126.376328,33.483121,10
126.376589,33.483363,10
126.376827,33.483611,10
126.377144,33.48384,10
126.377225,33.483876,10
126.377298,33.483781,10
126.377504,33.483723,10
126.377625,33.483656,10
126.377699,33.483555,10
126.377776,33.483376,10
126.377859,33.48318,10
126.377908,33.483008,10
126.377955,33.482621,10
126.37792,33.482557,10
126.377886,33.482529,10
126.377699,33.482411,10
126.377711,33.482326,10
126.377882,33.481927,10
126.37796,33.481705,10
126.378082,33.481501,10
126.378334,33.481574,10
126.378558,33.481618,10
126.378791,33.481628,10
126.378905,33.481582,10
126.379032,33.481467,10
126.379217,33.481418,10
126.379706,33.481475,10
126.37996,33.481504,0
126.38036,33.481659,0
126.380603,33.481688,0
126.381041,33.480044,0
126.381334,33.478595,20
126.381451,33.477842,20
126.381323,33.477758,20
126.381294,33.47747,20
126.381313,33.477168,20
126.381362,33.476901,20
126.381448,33.476796,20
126.381359,33.476721,20
126.381409,33.476104,30
126.381291,33.475975,30
126.381176,33.475921,30
126.381209,33.475824,30
126.381269,33.475835,30
126.381284,33.475754,30
126.381254,33.475574,30
126.381431,33.474715,35.14216
126.38147,33.474687,35.57133
126.381682,33.474703,36.93913
126.38182,33.47461,41.85439
126.382135,33.474762,40.8973
126.382209,33.474775,42.03286
126.382296,33.474856,42.46027
126.382454,33.475005,42.92093
126.382495,33.474625,50.64906
126.382576,33.474279,55.45878
126.382788,33.474252,61.24549
126.383202,33.474327,72.47935
126.383625,33.474334,84.55245
126.383584,33.474096,85.62965
126.383686,33.473857,89.14877
126.383789,33.473706,91.03361
126.383952,33.473641,94.0459
126.384054,33.473237,89.16691
126.383892,33.473095,84.68334
126.383945,33.473071,85.25597
126.384476,33.473063,93.12408
126.384548,33.473015,92.73191
126.384572,33.472921,89.14393
126.384037,33.472578,74.28644
126.384364,33.472555,77.70462
126.384737,33.472559,81.02776
126.384952,33.472485,79.57563
126.385102,33.472259,72.92754
126.385113,33.472047,67.307
126.385169,33.471923,64.58769
126.385173,33.471758,60.85919
126.385113,33.471572,62.0527
126.385162,33.471397,60
126.385444,33.471081,60
126.385388,33.470938,60
126.385436,33.47074,60
126.385592,33.470555,60
126.386139,33.470228,60
126.386124,33.470051,60
126.386475,33.469686,60
126.386842,33.469489,60
126.387108,33.469353,0
126.387211,33.469262,0
126.387069,33.468976,0
126.386988,33.468739,0
126.386933,33.468461,0
126.387246,33.468543,0
126.387202,33.468166,0
126.387243,33.468026,60
126.387308,33.467946,60
126.387462,33.46781,60
126.387607,33.46772,60
126.387727,33.467614,60
126.387831,33.467593,60
126.38817,33.467602,60
126.388295,33.467586,60
126.388388,33.467555,60
126.388705,33.467664,60
126.388935,33.467724,60
126.389257,33.467731,60
126.389355,33.467698,60
126.389399,33.467316,60
126.389435,33.467223,60
126.38948,33.467186,60
126.389682,33.467211,60
126.389764,33.467198,60
126.38991,33.467145,70
126.38998,33.466707,70
126.38988,33.466571,70
126.389666,33.466372,70
126.389488,33.466061,70
126.389381,33.465694,70
126.38922,33.46539,70
126.389454,33.465178,70
126.389636,33.465043,70
126.38977,33.464887,70
126.389819,33.46477,70
126.389828,33.464704,70
126.390032,33.464668,70
126.390135,33.464612,70
126.390205,33.464504,70
126.390295,33.464451,70
126.390595,33.464418,70
126.390673,33.464462,70
126.390756,33.464547,70
126.39094,33.464587,70
126.391096,33.464632,70
126.391279,33.464644,70
126.391445,33.464697,70
126.391606,33.464802,70
126.391738,33.464841,70
126.39213,33.464883,70
126.392422,33.464888,80
126.392638,33.46492,80
126.392686,33.464718,80
126.392831,33.46432,80
126.392926,33.464136,80
126.393077,33.464177,80
126.393254,33.464185,80
126.393423,33.46432,80
126.393617,33.46419,85.07397
126.393776,33.463995,90
126.393864,33.463922,90
126.394006,33.463864,90
126.39404,33.463793,90
126.394064,33.463662,90
126.394117,33.463523,90
126.394223,33.463435,92.52342
126.394351,33.463369,93.99195
126.394492,33.463355,95.1998
126.39446,33.463014,97.41454
126.394509,33.462871,100
126.394378,33.462716,100
126.394275,33.462166,100
126.39445,33.461656,100
126.394469,33.461321,110
126.394453,33.461097,110
126.394357,33.460994,110
126.394286,33.460647,110
126.394328,33.460529,110
126.394314,33.46031,110
126.394428,33.460215,110
126.394442,33.459973,110
126.394774,33.459672,120
126.394859,33.459554,120
126.395086,33.459123,120
126.395243,33.458941,120
126.395419,33.458727,120
126.395591,33.458693,120
126.395818,33.458833,120
126.395853,33.458938,120
126.39599,33.459168,120
126.396119,33.459503,120
126.396255,33.45957,110
126.397006,33.459447,110
126.397163,33.45949,110
126.397328,33.460004,110
126.39742,33.460561,110
126.397461,33.460639,110
126.397662,33.460769,110
126.397769,33.460945,110
126.397961,33.460594,110
126.397978,33.460398,110
126.39804,33.460277,110
126.398388,33.460168,110
126.398556,33.460035,110
126.398748,33.459627,110
126.398945,33.459433,110
126.399144,33.459302,120
126.399264,33.459197,120
126.399359,33.458996,120
126.399392,33.458885,120
126.399468,33.458751,120
126.399682,33.458571,120
126.399802,33.458446,120
126.399853,33.458289,120
126.399948,33.457796,120
126.400433,33.457271,120
126.400846,33.456854,120
126.400955,33.456544,120
126.401072,33.456304,120
126.40116,33.456169,120
126.401257,33.455911,120
126.401271,33.455653,120
126.40123,33.455388,120
126.401304,33.455011,120
126.401736,33.455306,120
126.402811,33.455847,118.0911
126.403739,33.456147,123.2931
126.404451,33.456264,129.7063
126.404777,33.456142,134.2798
126.40512,33.455982,138.0338
126.405303,33.455867,139.9418
126.4055,33.455713,141.51
126.405572,33.455568,143.1371
126.405669,33.455285,146.5944
126.406169,33.45516,147.0667
126.406733,33.454978,148.9483
126.407256,33.454901,149.4653
126.407438,33.45489,151.1044
126.407568,33.453607,160
126.407879,33.45325,160
126.408021,33.453153,160
126.408394,33.452978,160
126.408523,33.452867,0
126.408646,33.452644,0
126.408735,33.452546,0
126.409298,33.453064,0
126.409421,33.453153,0
126.409582,33.453232,0
126.409712,33.453274,0
126.410395,33.453343,170
126.41048,33.453378,170
126.410677,33.453536,170
126.410744,33.453615,170
126.410787,33.4537,170
126.411032,33.453652,170
126.411239,33.453641,170
126.411315,33.45351,170
126.411445,33.453152,170
126.411926,33.452823,170
126.411991,33.452735,170
126.412183,33.452633,170
126.412353,33.452681,170
126.412693,33.452625,170
126.41315,33.452433,170
126.413335,33.452754,170
126.413798,33.45267,170
126.414087,33.452666,170
126.414201,33.452697,170
126.414433,33.453294,164.7282
126.41453,33.45346,162.7381
126.414672,33.453426,164.0621
126.414855,33.453307,167.0964
126.415518,33.452931,170
126.415729,33.452843,170
126.415876,33.452809,170
126.416192,33.452619,170
126.416287,33.452395,170
126.416132,33.451851,170
126.416227,33.451689,180
126.41662,33.451828,180
126.416691,33.45176,180
126.416822,33.451854,180
126.416996,33.452268,170
126.417023,33.45242,170
126.417018,33.452778,170
126.416983,33.452972,170
126.417051,33.453022,170
126.417095,33.453404,170
126.41759,33.454026,160
126.417686,33.45407,160
126.417784,33.454054,160
126.417796,33.453938,164.8053
126.417887,33.453774,170
126.418009,33.453631,170
126.418198,33.453575,170
126.418434,33.45357,170
126.418751,33.453604,170
126.41893,33.453721,170
126.419078,33.453818,170
126.419029,33.45408,170
126.41908,33.454139,170
126.419373,33.45421,170
126.419432,33.454326,166.2666
126.419312,33.454956,160
126.419371,33.454894,160
126.419574,33.454811,160
126.420084,33.454729,160
126.420331,33.454602,163.1287
126.420704,33.454452,164.8735
126.421369,33.453853,170
126.421774,33.453566,170
126.422146,33.453385,170
126.42236,33.453187,170
126.422534,33.452917,170
126.42283,33.452538,180
126.423098,33.452289,180
126.423274,33.45221,180
126.423604,33.452209,180
126.423986,33.452128,180
126.424451,33.452069,180
126.424831,33.45204,190
126.425127,33.452096,190
126.425439,33.452031,190
126.425591,33.45218,190
126.425771,33.452319,190
126.426045,33.452584,180
126.425987,33.452637,180
126.426112,33.452717,180
126.426223,33.452764,180
126.426368,33.452795,185.0039
126.426799,33.452777,190
126.426987,33.452875,190
126.427304,33.453088,190
126.427446,33.453484,190
126.427587,33.453556,190
126.42768,33.453679,190
126.427649,33.453815,190
126.427667,33.453916,190
126.427726,33.454165,190
126.427837,33.454453,190
126.428179,33.454813,190
126.42824,33.454839,190
126.428555,33.454941,0
126.428817,33.45536,180
126.429091,33.455388,180
126.429226,33.455432,180
126.429276,33.455535,180
126.429403,33.455674,180
126.429499,33.455753,180
126.429717,33.455817,180
126.430261,33.456109,180
126.430305,33.455983,180
126.430314,33.455865,180
126.430599,33.455804,180
126.430836,33.45583,180
126.430907,33.45588,183.9431
126.430785,33.456217,180
126.430832,33.45629,180
126.430991,33.456445,183.3941
126.431107,33.456533,184.1613
126.431299,33.456612,185.4974
126.431418,33.456718,186.0893
126.431377,33.456896,184.9939
126.431365,33.457051,184.0131
126.431415,33.457125,183.819
126.431407,33.457316,180
126.431623,33.457305,183.5048
126.431817,33.457242,184.8573
126.432066,33.457206,186.1429
126.432143,33.457302,185.5544
126.432276,33.457342,185.6454
126.432357,33.457435,185.0657
126.432389,33.457575,183.8951
126.432486,33.457834,180
126.432908,33.457943,178.8983
126.433017,33.457971,179.5353
126.433127,33.458035,178.9297
126.433236,33.458055,177.8857
126.433544,33.458068,175.2753
126.433799,33.458214,170.9025
126.433951,33.458391,171.9097
126.43416,33.458568,166.2892
126.434176,33.458675,165.3746
126.434056,33.458811,164.6071
126.433974,33.458964,163.6001
126.433932,33.459013,163.378
126.433886,33.459131,162.5795
126.434405,33.459308,160
126.434506,33.459257,160
126.434718,33.459244,160
126.434943,33.459241,160
126.435165,33.459279,160
126.435418,33.459269,160
126.435766,33.459208,160
126.435903,33.459157,160
126.436223,33.459611,160
126.436273,33.459882,160
126.4363,33.46018,160
126.436213,33.460334,160
126.436134,33.460595,160
126.438914,33.460928,160
</coordinates>
    </LineString>
  </MultiGeometry>
</Placemark></Folder>
  </Document>
</kml>