<?xml version="1.0" encoding="utf-8"?>
<kml xmlns:gx="http://www.google.com/kml/ext/2.2" xmlns="http://www.opengis.net/kml/2.2">
  <Document>
    <Style id="base_track_style">
      <LineStyle>
        <color>7f00ffff</color>
        <width>4</width>
      </LineStyle>
    </Style>
    <Folder><Placemark>
  <styleUrl>#base_track_style</styleUrl>
  <name>route</name>
  <MultiGeometry>
    <LineString>
      <coordinates>126.256289,33.333536,120
126.256328,33.333539,120
126.256375,33.333166,120
126.256357,33.332956,120
126.256492,33.332991,120
126.256676,33.332939,120
126.256888,33.332806,120
126.257114,33.332606,120
126.257503,33.332375,120
126.25799,33.331847,120
126.258138,33.331759,120
126.258225,33.331731,120
126.259162,33.332582,120
126.260054,33.333439,120
126.261054,33.334319,110
126.261153,33.334382,110
126.261207,33.334441,110
126.261355,33.334856,110
126.261459,33.334929,110
126.261531,33.334948,110
126.261792,33.334921,110
126.261917,33.334827,110
126.262009,33.33488,110
126.262272,33.335028,110
126.262334,33.335144,110
126.262386,33.33536,110
126.262546,33.335357,110
126.262765,33.335326,110
126.262947,33.33537,110
126.26311,33.335453,110
126.263253,33.335579,110
126.263326,33.335707,0
126.263327,33.335804,0
126.263586,33.335845,0
126.26416,33.335292,110
126.264369,33.335158,110
126.265241,33.334373,110
126.265418,33.334242,110
126.265512,33.334172,0
126.265626,33.333907,0
126.265729,33.333552,0
126.265978,33.33333,0
126.2662,33.333282,0
126.266437,33.333299,0
126.267096,33.333022,120
126.267313,33.332843,120
126.267318,33.332438,120
126.267417,33.332299,120
126.267483,33.332148,120
126.267731,33.332041,124.4447
126.267919,33.331645,130
126.268277,33.331405,130
126.268518,33.33134,130
126.268911,33.331343,134.3372
126.270092,33.331231,140
126.270409,33.331292,140
126.270579,33.331352,140
126.270769,33.331375,140
126.271084,33.331284,140
126.27128,33.331269,150
126.271527,33.331523,150
126.271936,33.331414,150
126.272266,33.331455,150
126.272465,33.331503,150
126.2727,33.331589,150
126.272795,33.33168,150
126.272945,33.331948,150
126.272961,33.331977,150
126.273092,33.332065,150
126.273489,33.332209,150
126.273587,33.33234,150
126.273715,33.332399,150
126.273927,33.332576,150
126.274334,33.332641,140
126.274869,33.332899,140
126.275039,33.333206,140
126.275471,33.333408,140
126.275485,33.333615,140
126.275573,33.333793,140
126.275978,33.33382,140
126.27609,33.333835,140
126.276187,33.333839,140
126.276376,33.333832,140
126.276697,33.333729,140
126.276842,33.33372,140
126.277127,33.333767,140
126.277468,33.333882,140
126.277769,33.333903,140
126.27842,33.334005,140
126.278997,33.334072,150
126.27929,33.333991,150
126.279769,33.33378,150
126.280859,33.3334,160
126.281808,33.333219,160
126.282542,33.333094,160
126.283371,33.332992,170
126.284518,33.332931,170
126.285371,33.332741,170
126.286111,33.33253,180
126.287843,33.331953,180
126.289591,33.33162,180
126.290079,33.331491,190
126.290648,33.331185,190
126.291478,33.330832,190
126.292242,33.33037,200
126.29325,33.329596,200
126.294218,33.329317,210
126.294633,33.329344,210
126.294925,33.329168,210.5167
126.295511,33.329134,215.2716
126.295966,33.328957,220
126.296286,33.328745,221.3069
126.296156,33.328433,225.9469
126.295928,33.328215,229.4245
126.295727,33.327782,230
126.296008,33.327526,230
126.295906,33.327257,230
126.295515,33.327112,235.5563
126.295414,33.32703,235.8855
126.295069,33.326749,236.0813
126.294822,33.326299,233.7173
126.29479,33.325661,229.9648
126.295213,33.325308,228.6941
126.295912,33.325036,230
126.296693,33.325199,230
126.297164,33.325443,230
126.297538,33.324846,230
126.29705,33.324465,230
126.296823,33.324248,230
126.296709,33.323922,230
126.296416,33.323609,230
126.295619,33.32331,220
126.295099,33.323337,220
126.294432,33.323663,220
126.294026,33.32365,210
126.29331,33.323487,210
126.292286,33.323636,210
126.291489,33.323636,200
126.290741,33.323922,195.1768
126.289781,33.324098,190
126.289342,33.324044,190
126.288822,33.323813,180
126.28848,33.323283,180
126.288171,33.322889,180
126.287635,33.32244,180
126.286984,33.32225,170
126.286594,33.322291,170
126.286139,33.32225,170
126.285862,33.321856,170
126.285618,33.321571,170
126.285157,33.321476,170
126.285216,33.321359,170
126.285248,33.321231,170
126.285313,33.321088,170
126.285468,33.321021,170
126.285771,33.320792,170
126.285895,33.320712,0
126.286367,33.320537,170
126.286452,33.320395,170
126.286396,33.319817,170
126.285649,33.318584,170
126.284976,33.317866,170
126.284278,33.317562,170
126.283577,33.317352,170
126.28335,33.317032,170
126.283455,33.316706,170
126.283984,33.316461,170
126.284325,33.316162,170
126.284341,33.315727,170
126.28413,33.314851,170
126.284435,33.314119,170
126.28479,33.31362,170
126.284696,33.313027,170
126.284248,33.312574,170
126.284055,33.312049,170
126.283989,33.311723,170
126.284012,33.311665,170
126.284175,33.311545,170
126.284177,33.311467,170
126.284103,33.311417,170
126.28376,33.311367,160
126.283562,33.311261,160
126.283524,33.311241,160
126.283427,33.311108,160
126.283105,33.310993,160
126.282744,33.310905,160
126.282496,33.310758,160
126.282406,33.310436,160
126.282443,33.310211,160
126.282799,33.309855,160
126.283115,33.309617,160
126.28466,33.309348,160
126.284682,33.309124,160
126.285025,33.308976,160
126.285261,33.308738,160
126.285706,33.308263,160
126.286146,33.307648,150
126.286318,33.307464,150
126.286452,33.307432,150
126.286613,33.307451,150
126.286677,33.307408,150
126.286881,33.307401,150
126.287031,33.307329,150
126.287123,33.307255,150
126.287385,33.307096,150
126.287554,33.307123,150
126.28767,33.307069,150
126.287925,33.307054,150
126.288085,33.307028,150
126.288306,33.307069,150
</coordinates>
    </LineString>
  </MultiGeometry>
</Placemark></Folder>
  </Document>
</kml>