<?xml version="1.0" encoding="utf-8"?>
<kml xmlns:gx="http://www.google.com/kml/ext/2.2" xmlns="http://www.opengis.net/kml/2.2">
  <Document>
    <Style id="base_track_style">
      <LineStyle>
        <color>7f00ffff</color>
        <width>4</width>
      </LineStyle>
    </Style>
    <Folder><Placemark>
  <styleUrl>#base_track_style</styleUrl>
  <name>route</name>
  <MultiGeometry>
    <LineString>
      <coordinates>126.924111,33.451815,0
126.92394,33.451882,0
126.9238,33.451628,0
126.923579,33.4516,0
126.923459,33.451657,0
126.923198,33.451394,0
126.922952,33.451235,0
126.921584,33.450643,0
126.921525,33.450888,0
126.921539,33.451058,0
126.92159,33.451189,0
126.922449,33.451898,0
126.923599,33.453373,0
126.923758,33.453736,0
126.923849,33.454472,0
126.923846,33.454665,0
126.923766,33.454937,0
126.923746,33.455119,0
126.923624,33.455109,0
126.923466,33.455128,0
126.923347,33.455221,0
126.922708,33.456363,0
126.922612,33.456603,0
126.922468,33.457074,0
126.922455,33.457162,0
126.922418,33.457807,0
126.922432,33.45815,0
126.922411,33.458317,0
126.922387,33.458377,0
126.922094,33.458717,0
126.921995,33.458715,0
126.921614,33.458589,0
126.921555,33.458682,0
126.921525,33.458791,0
126.92148,33.458838,0
126.921352,33.45889,0
126.921286,33.458938,0
126.921259,33.459053,0
126.92119,33.459144,0
126.9212,33.459195,0
126.921237,33.459244,0
126.92133,33.459296,0
126.921354,33.459347,0
126.921339,33.459447,0
126.921352,33.459527,0
126.921517,33.459674,0
126.921655,33.459751,0
126.921733,33.45992,0
126.921727,33.459976,0
126.921595,33.460147,0
126.921432,33.460257,0
126.921403,33.460333,0
126.921365,33.460496,0
126.921429,33.46069,0
126.921411,33.460766,0
126.921287,33.46084,0
126.921473,33.460957,0
126.921284,33.461325,0
126.921231,33.461393,0
126.921175,33.461571,0
126.92117,33.461842,0
126.92109,33.462111,0
126.921109,33.462273,0
126.921183,33.462329,0
126.921366,33.462373,0
126.921396,33.462612,0
126.921369,33.462652,0
126.921295,33.462684,0
126.921167,33.462653,0
126.921044,33.462649,0
126.920433,33.462476,0
126.92022,33.462319,0
126.919713,33.462369,0
126.919543,33.46225,0
126.919271,33.462332,0
126.919203,33.462326,0
126.919121,33.46229,0
126.919086,33.462242,0
126.919058,33.46226,0
126.91903,33.462278,0
126.919264,33.462518,0
126.919631,33.463001,0
126.919687,33.46303,0
126.91986,33.463048,0
126.920145,33.462995,0
126.920217,33.463005,0
126.920321,33.463053,0
126.920357,33.463082,0
126.920384,33.463132,0
126.920433,33.463288,0
126.920476,33.46334,0
126.920632,33.463438,0
126.920741,33.463595,0
126.920922,33.463793,0
126.920651,33.464918,11.29275
126.920258,33.464819,12.05245
126.920071,33.464744,12.5601
126.919678,33.464683,10
126.919055,33.464712,10
126.918928,33.464687,10
126.918857,33.464636,10
126.918742,33.46462,10
126.918382,33.46469,10
126.918309,33.464718,0
126.917887,33.46501,8
126.917635,33.464916,8
126.917584,33.464876,8
126.91754,33.464863,8
126.917448,33.46488,8
126.917399,33.464856,8
126.917264,33.46467,8
126.917122,33.464549,8
126.916817,33.464036,8
126.916686,33.463741,8
126.916629,33.463692,8
126.916435,33.463611,8
126.916324,33.463605,8
126.916305,33.46359,8
126.916271,33.463478,8
126.916223,33.463442,8
126.915992,33.46341,8
126.915873,33.463361,8
126.915535,33.463283,8
126.915422,33.463144,8
126.914959,33.46285,8
126.914797,33.462712,8
126.914593,33.46268,8
126.914797,33.462712,0
126.914959,33.46285,0
126.915422,33.463144,0
126.915535,33.463283,0
126.915873,33.463361,0
126.916041,33.463417,0
126.915887,33.463356,0
126.915531,33.463265,0
126.915481,33.463185,0
126.915424,33.463134,0
126.914964,33.462845,0
126.91481,33.462707,0
126.914715,33.462679,0
126.914433,33.46266,0
126.914309,33.462631,0
126.914356,33.462436,0
126.914496,33.46218,0
126.914903,33.461996,0
126.914979,33.461957,0
126.915097,33.461707,0
126.915422,33.461165,0
126.91548,33.46065,0
126.915557,33.460412,0
126.915557,33.460318,0
126.915519,33.460134,0
126.915535,33.459976,0
126.915493,33.459605,0
126.91554,33.458873,0
126.915579,33.458752,0
126.915726,33.45852,0
126.915768,33.458417,0
126.915792,33.458304,0
126.915792,33.458187,0
126.916011,33.458203,0
126.916128,33.458187,0
126.916313,33.457881,0
126.916404,33.457747,0
126.91688,33.45737,0
126.917265,33.457205,0
126.917538,33.45701,0
126.917828,33.456884,0
126.917942,33.456763,0
126.917979,33.456701,0
126.918002,33.456607,0
126.917898,33.456459,0
126.917829,33.456324,0
126.917788,33.456138,0
126.917803,33.455966,0
126.917737,33.455851,0
126.9175,33.45564,0
126.917453,33.455566,0
126.917427,33.455485,0
126.917474,33.455221,0
126.917513,33.455163,0
126.9178,33.454989,0
126.917943,33.454923,0
126.918103,33.454889,0
126.918252,33.454913,0
126.918467,33.455005,0
126.918625,33.455047,0
126.918753,33.455058,0
126.918977,33.454998,0
126.919078,33.455011,0
126.919225,33.455056,0
126.919315,33.45505,0
126.919711,33.454877,0
126.920028,33.45477,0
126.92019,33.454581,0
126.920222,33.454492,0
126.920227,33.454425,0
126.920209,33.454369,0
126.920106,33.454312,0
126.919993,33.454311,0
126.919874,33.454326,0
126.91976,33.45438,0
126.919668,33.454454,0
126.919587,33.454487,0
126.919513,33.454483,0
126.919318,33.454586,0
126.918932,33.454411,0
126.918828,33.454323,0
126.918717,33.454257,0
126.918551,33.454205,0
126.918381,33.454179,0
126.918026,33.454168,0
126.917892,33.454102,0
126.917847,33.45399,0
126.917837,33.453792,0
126.917887,33.453606,0
126.918031,33.453343,0
126.918007,33.453305,0
126.91798,33.453146,0
126.917911,33.452967,0
126.917891,33.452736,0
126.917918,33.45228,0
126.917772,33.45213,0
126.917691,33.451827,0
126.917669,33.451742,0
126.917864,33.451705,0
126.917834,33.451637,0
126.91757,33.451582,0
126.916175,33.450976,0
126.915993,33.450871,0
126.915893,33.450843,0
126.913221,33.450421,0
126.912236,33.450301,0
126.913226,33.450424,0
126.91459,33.450641,0
126.914594,33.450624,0
126.91459,33.450641,0
126.913226,33.450424,0
126.912136,33.450289,0
126.910277,33.449995,0
126.90848,33.449739,0
126.907857,33.44963,0
126.90709,33.449495,10
126.906737,33.448965,10
126.906622,33.448829,10
126.90632,33.448561,10
126.905833,33.448226,10
126.905709,33.448181,10
126.905612,33.448177,10
126.904961,33.448224,10
126.904637,33.448229,10
126.904419,33.448184,10
126.903189,33.447531,20
126.90253,33.447235,20
126.902381,33.4472,20
126.901911,33.44726,20
126.901571,33.447257,20
126.901394,33.447199,20
126.901162,33.447151,20
126.901208,33.4468,20
126.901243,33.446701,20
126.901331,33.446539,20
126.901429,33.446427,20
126.903024,33.44597,20
126.903234,33.445881,20
126.903342,33.445775,20
126.903385,33.445647,20
126.903304,33.445532,20
126.903199,33.445451,20
126.903093,33.44541,20
126.901908,33.445102,30
126.901763,33.444944,30
126.901606,33.44483,30
126.901669,33.444774,30
126.901958,33.444639,30
126.901985,33.444572,30
126.901995,33.44452,30
126.901983,33.444473,30
126.901867,33.444292,30
126.901825,33.444074,30
126.90185,33.443897,30.21696
126.901937,33.443754,30.04379
126.901904,33.443615,31.5394
126.901915,33.443342,34.19271
126.901939,33.443133,36.44477
126.902011,33.442806,40.12873
126.902067,33.442646,42.18359
126.902077,33.44255,43.87198
126.902043,33.442444,46.3767
126.901979,33.442356,48.88898
126.901879,33.442284,51.39259
126.901837,33.442169,54.22029
126.902173,33.441858,59.13665
126.902718,33.441507,62.64907
126.903915,33.440803,58.11946
126.904634,33.440235,51.56397
126.904839,33.440074,48.62052
126.90495,33.439946,47.09607
126.904862,33.439649,50.16448
126.904802,33.439372,52.79649
126.904787,33.439252,53.85984
126.904785,33.438875,55.44047
126.904803,33.438664,55.21326
126.904874,33.438266,52.87458
126.905022,33.437804,51.20582
126.905096,33.43742,47.46895
126.905139,33.436747,46.58231
126.905002,33.43674,51.10611
126.904862,33.436693,51.46906
126.90451,33.436436,56.97488
126.904304,33.436249,58.27647
126.903963,33.436177,61.79945
126.903515,33.436034,63.25679
126.902974,33.436049,66.93703
126.902596,33.436128,69.22132
126.90245,33.43582,63.01987
126.90215,33.435633,60.06922
126.902067,33.435623,60.04458
126.901815,33.435591,60.04465
126.901641,33.435652,61.00014
126.901473,33.435812,63.19454
126.901288,33.435888,64.01816
126.901188,33.435912,64.20377
126.901091,33.435995,65.04518
126.900858,33.436128,66.08324
126.900497,33.43628,66.90316
126.900353,33.436325,66.99746
126.900202,33.436349,66.84605
126.900081,33.436305,66.09847
126.899969,33.436244,65.19194
126.899871,33.436125,63.77389
126.899562,33.435834,60
126.899226,33.435445,55.89947
126.898954,33.435236,50
126.898815,33.435203,50
126.898453,33.435265,50
126.898215,33.435248,50
126.898387,33.434798,50
126.898554,33.434477,50
126.898808,33.434139,50
126.898431,33.43411,50
126.89824,33.434075,50
126.898128,33.434025,50
126.897951,33.433894,50
126.897495,33.433835,50
126.89739,33.433778,50
126.897263,33.433648,50
126.896455,33.433504,50
126.896158,33.43339,0
126.895952,33.433349,0
126.895305,33.433413,0
126.895074,33.433369,0
126.894753,33.43335,0
126.894365,33.433453,0
126.894263,33.433467,0
126.894112,33.433433,0
126.894413,33.432656,0
126.894537,33.432388,0
126.894739,33.432215,0
126.894831,33.432056,0
126.895006,33.43187,0
126.895034,33.431806,0
126.895147,33.430752,0
126.895223,33.430462,50
126.895308,33.430266,50
126.895326,33.430001,50
126.895698,33.429977,50
126.895768,33.429953,50
126.895798,33.429924,50
126.895873,33.429406,50
126.895937,33.429279,50
126.896025,33.429191,50
126.896345,33.428963,50
126.896444,33.428865,50
126.89668,33.428564,50
126.896869,33.42842,50
126.896914,33.428318,50
126.897169,33.428185,50
126.897206,33.428143,50
126.897217,33.428099,50
126.897155,33.428057,50
126.896931,33.427982,50
126.896842,33.427914,50
126.89679,33.4279,50
126.896375,33.427907,50
126.896017,33.427857,50
126.895943,33.42782,50
126.89567,33.427616,50
126.895069,33.42726,50
126.894546,33.427111,50
126.89447,33.427107,50
126.894399,33.427123,50
126.894126,33.42723,50
126.893976,33.427251,50
126.893618,33.427238,50
126.893468,33.427179,50
126.893328,33.427096,0
126.893183,33.42705,0
126.892959,33.427033,0
126.892669,33.426952,0
126.89254,33.426368,0
126.892654,33.426012,0
126.892872,33.425848,50
126.892917,33.425809,50
126.892992,33.425776,50
126.89294,33.425641,50
126.892614,33.425469,50
126.892168,33.425505,50
126.891533,33.425512,50
126.891018,33.425104,50
126.890846,33.42481,50
126.890468,33.424581,50
126.890262,33.424323,50
126.89034,33.423721,50
126.890485,33.423528,50
126.890717,33.423306,50
126.890485,33.423026,50
126.890442,33.42274,50
126.890742,33.422272,50
126.890777,33.422217,50
126.890786,33.421715,50
126.89094,33.421458,50
126.891284,33.421056,50
126.891601,33.421028,50
126.891893,33.420755,50
126.892073,33.420397,50
126.891936,33.419824,50
126.892099,33.419559,50
126.892516,33.419374,50
126.892676,33.419286,40
126.893737,33.420135,40
126.893898,33.419952,40
126.894055,33.419875,40
126.894251,33.419737,40
126.894412,33.41933,40
126.894353,33.419083,40
126.89431,33.41871,40
126.894292,33.418214,40
126.89433,33.417845,40
126.894466,33.417371,40
126.894591,33.417002,40
126.894655,33.416872,40
126.894793,33.416573,30
126.894782,33.416492,30
126.89476,33.416328,30
126.894631,33.415841,30
126.894562,33.415504,30
126.893755,33.415351,30
126.893568,33.415161,30
126.894048,33.414706,30
126.894683,33.414644,30
126.895177,33.414526,30
126.89517,33.413717,30
126.895118,33.413606,30
126.895105,33.413579,30
126.894963,33.413578,30
126.89501,33.413476,30
126.895071,33.413412,30
126.89525,33.413302,30
126.895335,33.413173,30
126.89551,33.412773,30
126.896165,33.412262,30
126.896465,33.4114,30
126.896476,33.411238,30
126.896626,33.410907,30
126.896811,33.410789,30
126.896908,33.410699,30
126.896928,33.410655,30
126.89679,33.410366,30
126.896975,33.410116,30
126.897047,33.409951,30
126.897185,33.409765,30
126.897295,33.409536,30
126.897799,33.409598,30
126.898239,33.409665,30
126.898336,33.409693,20
126.898426,33.409895,20
126.898885,33.410941,20
126.899423,33.410866,20
126.899487,33.410742,20
126.899673,33.41053,20
126.899857,33.410335,20
126.899971,33.410254,20
126.900556,33.410328,20
126.900734,33.410325,20
126.900954,33.410247,20
126.901116,33.410156,20
126.901291,33.409901,20
126.901582,33.409696,20
126.901686,33.409637,20
126.901893,33.409613,20
126.902098,33.409507,0
126.902169,33.409445,0
126.902442,33.409209,10
126.902472,33.409126,10
126.90247,33.408909,10
126.902469,33.408774,10
126.902521,33.408669,10
126.902606,33.408496,10
126.902607,33.408449,10
126.903418,33.408203,10
126.903757,33.407903,10
126.903905,33.407678,10
126.904272,33.407328,10
126.904979,33.406499,0
126.905125,33.406434,0
126.905288,33.406465,0
126.905406,33.406443,0
126.905519,33.406385,0
126.905857,33.405955,0
126.905929,33.40586,0
126.90598,33.405736,0
126.905826,33.405524,0
126.905653,33.405313,0
126.905426,33.405127,0
126.905011,33.405006,0
126.904774,33.404996,0
126.90451,33.405059,0
126.904302,33.405156,0
126.904205,33.405139,0
126.904065,33.405084,0
126.904155,33.404989,0
</coordinates>
    </LineString>
  </MultiGeometry>
</Placemark></Folder>
  </Document>
</kml>