<?xml version="1.0" encoding="utf-8"?>
<kml xmlns:gx="http://www.google.com/kml/ext/2.2" xmlns="http://www.opengis.net/kml/2.2">
  <Document>
    <Style id="base_track_style">
      <LineStyle>
        <color>7f00ffff</color>
        <width>4</width>
      </LineStyle>
    </Style>
    <Folder><Placemark>
  <styleUrl>#base_track_style</styleUrl>
  <name>route</name>
  <MultiGeometry>
    <LineString>
      <coordinates>126.622978,33.251705,0
126.622808,33.251628,0
126.621649,33.250717,0
126.621414,33.250626,10
126.621373,33.250508,10
126.621228,33.250406,10
126.621099,33.250394,10
126.620377,33.25036,10
126.620302,33.250383,10
126.619997,33.250656,10
126.619859,33.250604,10
126.619732,33.250501,10
126.619589,33.250315,10
126.619342,33.24996,10
126.619354,33.249342,10
126.619396,33.249173,10
126.619461,33.249042,10
126.61947,33.248908,10
126.6193,33.248397,10
126.61921,33.248297,10
126.619032,33.248195,10
126.61891,33.248092,10
126.618813,33.247951,10
126.618724,33.247755,10
126.618694,33.247535,10
126.618716,33.247001,10
126.618723,33.246842,10
126.618843,33.246553,10
126.618832,33.246241,10
126.618749,33.245686,10
126.618665,33.245504,10
126.618592,33.245283,10
126.61852,33.244787,10
126.618596,33.244603,10
126.618898,33.244117,10
126.618909,33.24406,10
126.61889,33.243997,10
126.618643,33.243537,10
126.61847,33.243257,10
126.618356,33.243103,10
126.618019,33.242862,10
126.61743,33.2425,10
126.617236,33.242357,10
126.617064,33.242295,10
126.616879,33.242269,10
126.616761,33.242229,10
126.616058,33.241862,10
126.615945,33.241828,10
126.615355,33.241738,10
126.61424,33.241354,10
126.61384,33.241242,10
126.61348,33.241191,10
126.613287,33.24113,10
126.613167,33.241114,10
126.613032,33.24112,10
126.612944,33.241172,10
126.612794,33.241328,10
126.61276,33.241344,10
126.612684,33.241346,10
126.612512,33.241293,10
126.612269,33.24118,10
126.612173,33.241158,10
126.611803,33.241142,12.13693
126.611493,33.241099,11.13262
126.61127,33.241038,13.80371
126.611092,33.240932,14.07796
126.610946,33.240925,14.61822
126.610825,33.240942,15.8979
126.611069,33.241228,21.54755
126.611157,33.241413,20.03059
126.611244,33.241682,23.32733
126.611362,33.242138,25.79202
126.611429,33.242272,24.21458
126.61151,33.24264,20.74565
126.61127,33.24265,26.99785
126.611019,33.242661,33.41692
126.610339,33.24318,35.59763
126.610149,33.243299,34.13066
126.609946,33.243344,33.97788
126.609706,33.243367,33.93826
126.609643,33.24302,42.90178
126.609584,33.242542,48.16833
126.609618,33.24221,47.15422
126.609699,33.242075,47.36557
126.609822,33.241983,47.72615
126.609876,33.24175,47.21737
126.609844,33.241571,41.83385
126.609736,33.241474,38.59036
126.60924,33.241402,32.32154
126.609181,33.241499,34.25944
126.609101,33.241576,34.97464
126.608983,33.241872,39.11874
126.608779,33.241854,34.30899
126.608725,33.241567,27.93542
126.608736,33.241208,20.42553
126.608951,33.240795,14.4317
126.609266,33.24051,10.19509
126.60943,33.240372,11.44121
126.608691,33.240151,10
126.608548,33.240088,10
126.608444,33.239975,10
126.608341,33.239901,10
126.607857,33.239593,10
126.607634,33.239497,10
126.607137,33.239367,10
126.606717,33.239357,10
126.606496,33.239373,10
126.606361,33.239408,10
126.605999,33.239543,10
126.605917,33.2396,10
126.605855,33.239719,10
126.605857,33.23979,10
126.6058,33.239795,10
126.605708,33.239901,10
126.605266,33.239991,10
126.604959,33.239987,10
126.604807,33.239934,10
126.604666,33.239845,10
126.604627,33.239804,10
126.604386,33.239525,10
126.604322,33.239325,10
126.604188,33.239121,10
126.604086,33.238998,10
126.603898,33.238895,10
126.603689,33.238807,10
126.60347,33.238766,10
126.603266,33.23874,10
126.603015,33.238738,10
126.602658,33.238775,10
126.602529,33.238769,10
126.602298,33.238457,10
126.601945,33.237978,10
126.601967,33.237726,10
126.601468,33.237206,10
126.601123,33.237032,10
126.600869,33.236941,10
126.60075,33.236927,10
126.600068,33.236758,10
126.599746,33.236547,10
126.599475,33.236334,10
126.5994,33.236287,10
126.599249,33.236235,10
126.59905,33.236197,10
126.598578,33.236185,10
126.598374,33.236157,10
126.598186,33.236165,10
126.598008,33.236216,10
126.597743,33.236346,10
126.597143,33.236708,10
126.597062,33.236773,10
126.596934,33.236838,10
126.596352,33.237006,10
126.595844,33.237174,10
126.595747,33.23711,10
126.595451,33.237071,10
126.595091,33.237133,10
126.594643,33.237324,10
126.594315,33.237731,10
126.594021,33.237898,10
126.593614,33.237988,10
126.593629,33.238179,10
126.593371,33.238179,10
126.593335,33.238455,10
126.592948,33.238491,10
126.592878,33.238808,10
126.592133,33.239298,10
126.591811,33.239316,10
126.591826,33.239615,10
126.591983,33.239639,10
126.592148,33.24001,10
126.592277,33.24053,10
126.592448,33.24053,10
126.592543,33.240581,10
126.592684,33.240656,10
126.592684,33.240979,12.2108
126.592448,33.241158,10
126.591612,33.241206,10
126.591654,33.241351,10
126.591681,33.241446,10
126.590404,33.241945,10
126.590272,33.242016,10
126.590189,33.24221,10
126.59019,33.242268,10
126.590564,33.242978,12.18869
126.590309,33.243098,10
126.590119,33.243099,10
126.590079,33.243122,10
126.590036,33.243199,10
126.589754,33.243338,10
126.589255,33.243496,10
126.588943,33.243626,10
126.588408,33.243739,10
126.587421,33.243826,10
126.586698,33.244133,10
126.586612,33.244184,10
126.586339,33.244433,10
126.586051,33.244598,10
126.585959,33.244603,10
126.585771,33.244575,10
126.585662,33.244512,10
126.585422,33.244477,10
126.585302,33.24443,10
126.585176,33.244331,10
126.585107,33.244192,10
126.584975,33.244071,10
126.584725,33.244037,10
126.584326,33.244156,10
126.584122,33.244187,10
126.583556,33.244219,10
126.583411,33.244186,10
126.583343,33.244147,10
126.583119,33.244077,10
126.58271,33.244053,10
126.582217,33.243981,10
126.581956,33.24399,10
126.58181,33.24403,10
126.581847,33.244262,10
126.582034,33.244971,13.77741
126.582187,33.245431,20.0336
126.582355,33.245745,25.17159
126.582565,33.24623,30
126.582577,33.246337,30
126.582563,33.246616,30
126.582498,33.247176,40
126.582583,33.247652,40
126.582719,33.248109,40
126.581832,33.248304,40
126.581542,33.248326,40
126.579539,33.248178,40
126.57898,33.248096,40
126.578072,33.247825,37.92623
126.577124,33.247514,33.91682
126.577046,33.247483,33.70049
126.577081,33.247428,33.00879
126.577242,33.247362,31.90474
126.577865,33.24738,31.81871
126.57798,33.247345,31.42335
126.578034,33.247246,30.12477
126.578045,33.247131,30
126.578006,33.247113,30
126.577969,33.247052,30
126.577773,33.246462,20
126.577754,33.246348,20
126.577586,33.246324,20
126.577588,33.246132,20
126.577572,33.246075,20
126.577514,33.246031,20
126.577376,33.246,20
126.577326,33.245966,20
126.577311,33.24589,20
126.57732,33.245494,14.80353
126.577357,33.24541,13.86205
126.577398,33.245364,13.24391
126.577532,33.245339,12.52857
126.577552,33.245315,12.25548
126.577522,33.245294,12.10637
126.577429,33.245246,12.0239
126.577279,33.24521,12.15746
126.577129,33.245309,13.83408
126.576947,33.245309,14.10865
126.576582,33.245183,14.34112
126.576324,33.244959,11.95573
126.575819,33.244805,12.16955
126.575379,33.244731,15.07836
126.575272,33.244689,14.9501
126.574689,33.244336,12.61528
126.574426,33.244306,13.48649
126.574207,33.244228,12.73803
126.574074,33.244227,12.67061
126.573967,33.244248,12.3697
126.573884,33.244327,13.19391
126.573823,33.244457,14.84176
126.573675,33.244457,14.29726
126.573609,33.244479,14.37868
126.573561,33.244525,14.70023
126.57355,33.244817,18.55777
126.573295,33.244812,17.26133
126.572965,33.244838,15.89792
126.572471,33.245049,18.00201
126.572115,33.245103,18.57933
126.571222,33.245116,16.57434
126.570695,33.244984,25.61746
126.569823,33.244787,26.61438
126.569095,33.244822,26.09392
126.567749,33.244849,30
126.566944,33.245029,30
126.566961,33.243924,20
126.566941,33.242569,20
126.566941,33.242555,0
126.565714,33.242764,20
126.565145,33.242845,20
126.564011,33.242802,20
126.563844,33.242865,20
126.563831,33.242871,20
126.563854,33.242971,20
126.564411,33.244807,30
126.564368,33.244935,30
126.564387,33.244949,30
126.564636,33.245126,34.45081
126.56473,33.245176,34.44949
126.564822,33.2453,35.04142
126.564675,33.245398,36.25875
126.564322,33.245647,40
126.564156,33.245589,40
126.564168,33.245592,40
126.564055,33.245845,41.28883
126.564038,33.245969,42.92536
126.564045,33.246088,44.46596
126.564142,33.24668,50
126.564194,33.247377,60
126.56413,33.248069,60
126.562986,33.247802,60
126.561869,33.247562,60
126.561064,33.247566,60
126.559831,33.247521,60
126.558633,33.247523,57.66007
</coordinates>
    </LineString>
  </MultiGeometry>
</Placemark></Folder>
  </Document>
</kml>