<?xml version="1.0" encoding="utf-8"?>
<gpx version="1.1" creator="Movescount - http://www.movescount.com" xmlns:xsi="http://www.w3.org/2001/XMLSchema-instance" xsi:schemaLocation="http://www.topografix.com/GPX/1/1 http://www.topografix.com/GPX/1/1/gpx.xsd http://www.cluetrust.com/XML/GPXDATA/1/0 http://www.cluetrust.com/Schemas/gpxdata10.xsd http://www.garmin.com/xmlschemas/TrackPointExtension/v1 http://www.garmin.com/xmlschemas/TrackPointExtensionv1.xsd" xmlns:gpxdata="http://www.cluetrust.com/XML/GPXDATA/1/0" xmlns:gpxtpx="http://www.garmin.com/xmlschemas/TrackPointExtension/v1" xmlns="http://www.topografix.com/GPX/1/1">
   <rte>
      <name>ollegil 18</name>
      <rtept lat="33.512436" lon="126.524538" />
      <rtept lat="33.512433" lon="126.524599" />
      <rtept lat="33.512013" lon="126.524581" />
      <rtept lat="33.511761" lon="126.524521" />
      <rtept lat="33.510352" lon="126.523863">
         <ele>20</ele>
      </rtept>
      <rtept lat="33.510324" lon="126.523939">
         <ele>20</ele>
      </rtept>
      <rtept lat="33.510213" lon="126.524235">
         <ele>20</ele>
      </rtept>
      <rtept lat="33.510132" lon="126.524339">
         <ele>20</ele>
      </rtept>
      <rtept lat="33.510036" lon="126.524408">
         <ele>20</ele>
      </rtept>
      <rtept lat="33.510113" lon="126.524573">
         <ele>20</ele>
      </rtept>
      <rtept lat="33.5102" lon="126.52471">
         <ele>20</ele>
      </rtept>
      <rtept lat="33.510332" lon="126.525148">
         <ele>20</ele>
      </rtept>
      <rtept lat="33.510432" lon="126.525242">
         <ele>20</ele>
      </rtept>
      <rtept lat="33.51054" lon="126.525813">
         <ele>20</ele>
      </rtept>
      <rtept lat="33.510564" lon="126.525891">
         <ele>20</ele>
      </rtept>
      <rtept lat="33.510341" lon="126.526135">
         <ele>20</ele>
      </rtept>
      <rtept lat="33.510208" lon="126.526235">
         <ele>20</ele>
      </rtept>
      <rtept lat="33.510296" lon="126.526384">
         <ele>20</ele>
      </rtept>
      <rtept lat="33.510373" lon="126.526651">
         <ele>20</ele>
      </rtept>
      <rtept lat="33.510635" lon="126.527609">
         <ele>20</ele>
      </rtept>
      <rtept lat="33.510808" lon="126.527622">
         <ele>20</ele>
      </rtept>
      <rtept lat="33.510918" lon="126.527825">
         <ele>20</ele>
      </rtept>
      <rtept lat="33.511066" lon="126.527835">
         <ele>20</ele>
      </rtept>
      <rtept lat="33.511522" lon="126.527911">
         <ele>20</ele>
      </rtept>
      <rtept lat="33.511524" lon="126.527984">
         <ele>20</ele>
      </rtept>
      <rtept lat="33.511579" lon="126.5282">
         <ele>20</ele>
      </rtept>
      <rtept lat="33.511998" lon="126.528027">
         <ele>20</ele>
      </rtept>
      <rtept lat="33.512364" lon="126.527858">
         <ele>10</ele>
      </rtept>
      <rtept lat="33.51252" lon="126.528212">
         <ele>10</ele>
      </rtept>
      <rtept lat="33.512974" lon="126.527761">
         <ele>10</ele>
      </rtept>
      <rtept lat="33.513021" lon="126.527766">
         <ele>10</ele>
      </rtept>
      <rtept lat="33.513052" lon="126.527334">
         <ele>10</ele>
      </rtept>
      <rtept lat="33.513147" lon="126.527334">
         <ele>10</ele>
      </rtept>
      <rtept lat="33.513218" lon="126.52744">
         <ele>10</ele>
      </rtept>
      <rtept lat="33.513905" lon="126.528196">
         <ele>10</ele>
      </rtept>
      <rtept lat="33.514125" lon="126.528411">
         <ele>10</ele>
      </rtept>
      <rtept lat="33.515287" lon="126.529299">
         <ele>10</ele>
      </rtept>
      <rtept lat="33.515659" lon="126.529622">
         <ele>10</ele>
      </rtept>
      <rtept lat="33.515999" lon="126.530005">
         <ele>10</ele>
      </rtept>
      <rtept lat="33.516354" lon="126.530492">
         <ele>10</ele>
      </rtept>
      <rtept lat="33.516399" lon="126.530554">
         <ele>10</ele>
      </rtept>
      <rtept lat="33.516352" lon="126.530611">
         <ele>10</ele>
      </rtept>
      <rtept lat="33.516496" lon="126.530795">
         <ele>10</ele>
      </rtept>
      <rtept lat="33.516578" lon="126.531351">
         <ele>10</ele>
      </rtept>
      <rtept lat="33.516551" lon="126.531567">
         <ele>10</ele>
      </rtept>
      <rtept lat="33.516504" lon="126.531651">
         <ele>10</ele>
      </rtept>
      <rtept lat="33.516576" lon="126.532042">
         <ele>10.38313</ele>
      </rtept>
      <rtept lat="33.516908" lon="126.532638">
         <ele>13.18815</ele>
      </rtept>
      <rtept lat="33.517932" lon="126.533971">
         <ele>11.13937</ele>
      </rtept>
      <rtept lat="33.518675" lon="126.534988">
         <ele>11.55345</ele>
      </rtept>
      <rtept lat="33.518593" lon="126.535174">
         <ele>11.00346</ele>
      </rtept>
      <rtept lat="33.518604" lon="126.535167">
         <ele>10.73738</ele>
      </rtept>
      <rtept lat="33.518758" lon="126.535518">
         <ele>11.67822</ele>
      </rtept>
      <rtept lat="33.518828" lon="126.535754">
         <ele>13.38128</ele>
      </rtept>
      <rtept lat="33.518775" lon="126.535787">
         <ele>14.48559</ele>
      </rtept>
      <rtept lat="33.518833" lon="126.535926">
         <ele>15.25538</ele>
      </rtept>
      <rtept lat="33.518864" lon="126.536082">
         <ele>16.56849</ele>
      </rtept>
      <rtept lat="33.518853" lon="126.536262">
         <ele>18.55122</ele>
      </rtept>
      <rtept lat="33.518786" lon="126.536297">
         <ele>19.84898</ele>
      </rtept>
      <rtept lat="33.518801" lon="126.536339">
         <ele>19.9584</ele>
      </rtept>
      <rtept lat="33.518715" lon="126.536345">
         <ele>21.15435</ele>
      </rtept>
      <rtept lat="33.518622" lon="126.536289">
         <ele>21.77129</ele>
      </rtept>
      <rtept lat="33.518524" lon="126.536346">
         <ele>23.41842</ele>
      </rtept>
      <rtept lat="33.518478" lon="126.536324">
         <ele>23.72221</ele>
      </rtept>
      <rtept lat="33.517909" lon="126.536339">
         <ele>29.77172</ele>
      </rtept>
      <rtept lat="33.517991" lon="126.536451">
         <ele>29.81253</ele>
      </rtept>
      <rtept lat="33.518032" lon="126.536642">
         <ele>28.84238</ele>
      </rtept>
      <rtept lat="33.51808" lon="126.537236">
         <ele>30</ele>
      </rtept>
      <rtept lat="33.518087" lon="126.537746">
         <ele>35.87681</ele>
      </rtept>
      <rtept lat="33.518191" lon="126.538143">
         <ele>36.48652</ele>
      </rtept>
      <rtept lat="33.51822" lon="126.538387">
         <ele>36.88628</ele>
      </rtept>
      <rtept lat="33.51822" lon="126.538731">
         <ele>37.71629</ele>
      </rtept>
      <rtept lat="33.518175" lon="126.539053">
         <ele>39.02895</ele>
      </rtept>
      <rtept lat="33.51823" lon="126.53917">
         <ele>38.54674</ele>
      </rtept>
      <rtept lat="33.518298" lon="126.539445">
         <ele>38.39433</ele>
      </rtept>
      <rtept lat="33.518486" lon="126.54031">
         <ele>39.08293</ele>
      </rtept>
      <rtept lat="33.518237" lon="126.540382">
         <ele>44.10029</ele>
      </rtept>
      <rtept lat="33.518327" lon="126.540776">
         <ele>46.54312</ele>
      </rtept>
      <rtept lat="33.516969" lon="126.540887">
         <ele>55.85315</ele>
      </rtept>
      <rtept lat="33.516944" lon="126.541377">
         <ele>60.20972</ele>
      </rtept>
      <rtept lat="33.515485" lon="126.541353">
         <ele>60</ele>
      </rtept>
      <rtept lat="33.515713" lon="126.54226">
         <ele>63.13028</ele>
      </rtept>
      <rtept lat="33.515832" lon="126.542242">
         <ele>63.61519</ele>
      </rtept>
      <rtept lat="33.515976" lon="126.542476">
         <ele>66.01849</ele>
      </rtept>
      <rtept lat="33.516024" lon="126.5425">
         <ele>66.48752</ele>
      </rtept>
      <rtept lat="33.516074" lon="126.542526">
         <ele>66.99917</ele>
      </rtept>
      <rtept lat="33.516158" lon="126.542518">
         <ele>72.58503</ele>
      </rtept>
      <rtept lat="33.516655" lon="126.542378">
         <ele>71.33031</ele>
      </rtept>
      <rtept lat="33.51687" lon="126.542458">
         <ele>75.95105</ele>
      </rtept>
      <rtept lat="33.516964" lon="126.542672">
         <ele>80.97851</ele>
      </rtept>
      <rtept lat="33.517156" lon="126.542715">
         <ele>85.02997</ele>
      </rtept>
      <rtept lat="33.517304" lon="126.542887">
         <ele>89.4127</ele>
      </rtept>
      <rtept lat="33.517407" lon="126.543289">
         <ele>99.17783</ele>
      </rtept>
      <rtept lat="33.517523" lon="126.543955">
         <ele>109.9848</ele>
      </rtept>
      <rtept lat="33.517683" lon="126.544278">
         <ele>115.9051</ele>
      </rtept>
      <rtept lat="33.517859" lon="126.544522">
         <ele>118.8228</ele>
      </rtept>
      <rtept lat="33.518207" lon="126.544619">
         <ele>117.2473</ele>
      </rtept>
      <rtept lat="33.518457" lon="126.544598">
         <ele>118.162</ele>
      </rtept>
      <rtept lat="33.518768" lon="126.544546">
         <ele>116.3954</ele>
      </rtept>
      <rtept lat="33.518974" lon="126.544557">
         <ele>112.9045</ele>
      </rtept>
      <rtept lat="33.519139" lon="126.544673">
         <ele>112.4645</ele>
      </rtept>
      <rtept lat="33.519146" lon="126.544826">
         <ele>115.5562</ele>
      </rtept>
      <rtept lat="33.519032" lon="126.545016">
         <ele>118.7421</ele>
      </rtept>
      <rtept lat="33.518833" lon="126.545161">
         <ele>116.7407</ele>
      </rtept>
      <rtept lat="33.518697" lon="126.545233">
         <ele>116.3011</ele>
      </rtept>
      <rtept lat="33.518645" lon="126.545359">
         <ele>116.3926</ele>
      </rtept>
      <rtept lat="33.518748" lon="126.545408">
         <ele>116.6261</ele>
      </rtept>
      <rtept lat="33.519139" lon="126.545161">
         <ele>119.2501</ele>
      </rtept>
      <rtept lat="33.519602" lon="126.544694">
         <ele>99.16064</ele>
      </rtept>
      <rtept lat="33.519754" lon="126.544667">
         <ele>94.94843</ele>
      </rtept>
      <rtept lat="33.519777" lon="126.544893">
         <ele>99.44943</ele>
      </rtept>
      <rtept lat="33.519404" lon="126.545287">
         <ele>114.9358</ele>
      </rtept>
      <rtept lat="33.518605" lon="126.545842">
         <ele>119.4766</ele>
      </rtept>
      <rtept lat="33.518567" lon="126.545987">
         <ele>116.7708</ele>
      </rtept>
      <rtept lat="33.518635" lon="126.546076">
         <ele>114.7067</ele>
      </rtept>
      <rtept lat="33.518751" lon="126.546103">
         <ele>113.9875</ele>
      </rtept>
      <rtept lat="33.518907" lon="126.546048">
         <ele>114.5972</ele>
      </rtept>
      <rtept lat="33.518988" lon="126.546031">
         <ele>114.3779</ele>
      </rtept>
      <rtept lat="33.519024" lon="126.546112">
         <ele>112.2909</ele>
      </rtept>
      <rtept lat="33.518983" lon="126.546169">
         <ele>111.373</ele>
      </rtept>
      <rtept lat="33.518883" lon="126.546446">
         <ele>105.0625</ele>
      </rtept>
      <rtept lat="33.518943" lon="126.546525">
         <ele>102.8079</ele>
      </rtept>
      <rtept lat="33.519055" lon="126.546551">
         <ele>101.5884</ele>
      </rtept>
      <rtept lat="33.519082" lon="126.546613">
         <ele>100.1315</ele>
      </rtept>
      <rtept lat="33.519034" lon="126.546731">
         <ele>97.35172</ele>
      </rtept>
      <rtept lat="33.518924" lon="126.546924">
         <ele>92.94711</ele>
      </rtept>
      <rtept lat="33.51887" lon="126.547121">
         <ele>88.36038</ele>
      </rtept>
      <rtept lat="33.518871" lon="126.547316">
         <ele>84.25811</ele>
      </rtept>
      <rtept lat="33.518838" lon="126.547477">
         <ele>80.78442</ele>
      </rtept>
      <rtept lat="33.518751" lon="126.54747">
         <ele>80.55077</ele>
      </rtept>
      <rtept lat="33.518761" lon="126.547526">
         <ele>80.52717</ele>
      </rtept>
      <rtept lat="33.518947" lon="126.547915">
         <ele>76.73421</ele>
      </rtept>
      <rtept lat="33.519152" lon="126.548128">
         <ele>74.56219</ele>
      </rtept>
      <rtept lat="33.519305" lon="126.548231">
         <ele>72.90396</ele>
      </rtept>
      <rtept lat="33.519492" lon="126.54889">
         <ele>69.29464</ele>
      </rtept>
      <rtept lat="33.519617" lon="126.54978">
         <ele>68.61324</ele>
      </rtept>
      <rtept lat="33.51963" lon="126.550982">
         <ele>76.41487</ele>
      </rtept>
      <rtept lat="33.519667" lon="126.551592">
         <ele>82.33089</ele>
      </rtept>
      <rtept lat="33.519801" lon="126.551919">
         <ele>84.03458</ele>
      </rtept>
      <rtept lat="33.520099" lon="126.552052">
         <ele>77.00262</ele>
      </rtept>
      <rtept lat="33.520721" lon="126.55211">
         <ele>57.77407</ele>
      </rtept>
      <rtept lat="33.520986" lon="126.552232">
         <ele>54.02711</ele>
      </rtept>
      <rtept lat="33.521004" lon="126.552268">
         <ele>54.75309</ele>
      </rtept>
      <rtept lat="33.521057" lon="126.552376">
         <ele>56.66141</ele>
      </rtept>
      <rtept lat="33.521039" lon="126.552831">
         <ele>68.90108</ele>
      </rtept>
      <rtept lat="33.520844" lon="126.553151">
         <ele>78.36866</ele>
      </rtept>
      <rtept lat="33.5205" lon="126.553854">
         <ele>84.78049</ele>
      </rtept>
      <rtept lat="33.520171" lon="126.55446">
         <ele>82.87539</ele>
      </rtept>
      <rtept lat="33.520016" lon="126.554964">
         <ele>72.3844</ele>
      </rtept>
      <rtept lat="33.519922" lon="126.555521">
         <ele>58.88287</ele>
      </rtept>
      <rtept lat="33.519891" lon="126.555837">
         <ele>52.39237</ele>
      </rtept>
      <rtept lat="33.520168" lon="126.555981">
         <ele>47.86173</ele>
      </rtept>
      <rtept lat="33.520474" lon="126.556046">
         <ele>42.59678</ele>
      </rtept>
      <rtept lat="33.520591" lon="126.555905">
         <ele>41.36835</ele>
      </rtept>
      <rtept lat="33.521264" lon="126.556111">
         <ele>15.38208</ele>
      </rtept>
      <rtept lat="33.52135" lon="126.55612">
         <ele>16.05356</ele>
      </rtept>
      <rtept lat="33.52143" lon="126.556162">
         <ele>18.71613</ele>
      </rtept>
      <rtept lat="33.521519" lon="126.556268">
         <ele>16.42735</ele>
      </rtept>
      <rtept lat="33.521571" lon="126.556439">
         <ele>17.6448</ele>
      </rtept>
      <rtept lat="33.521591" lon="126.556785">
         <ele>18.93517</ele>
      </rtept>
      <rtept lat="33.521568" lon="126.556967">
         <ele>17.85294</ele>
      </rtept>
      <rtept lat="33.521459" lon="126.557439">
         <ele>23.21</ele>
      </rtept>
      <rtept lat="33.521335" lon="126.557621">
         <ele>24.00992</ele>
      </rtept>
      <rtept lat="33.521296" lon="126.55772">
         <ele>23.60088</ele>
      </rtept>
      <rtept lat="33.521283" lon="126.557813">
         <ele>22.77409</ele>
      </rtept>
      <rtept lat="33.521291" lon="126.557943">
         <ele>21.16417</ele>
      </rtept>
      <rtept lat="33.521345" lon="126.558017">
         <ele>19.62486</ele>
      </rtept>
      <rtept lat="33.521445" lon="126.558083">
         <ele>17.64359</ele>
      </rtept>
      <rtept lat="33.521524" lon="126.558114">
         <ele>16.26768</ele>
      </rtept>
      <rtept lat="33.521611" lon="126.558114">
         <ele>15.05061</ele>
      </rtept>
      <rtept lat="33.521733" lon="126.558006">
         <ele>14.05845</ele>
      </rtept>
      <rtept lat="33.522092" lon="126.557993">
         <ele>11.50151</ele>
      </rtept>
      <rtept lat="33.522121" lon="126.55803">
         <ele>11.8413</ele>
      </rtept>
      <rtept lat="33.522182" lon="126.558105">
         <ele>12.36728</ele>
      </rtept>
      <rtept lat="33.522325" lon="126.558015">
         <ele>10</ele>
      </rtept>
      <rtept lat="33.522404" lon="126.55802">
         <ele>10</ele>
      </rtept>
      <rtept lat="33.522499" lon="126.558063">
         <ele>10</ele>
      </rtept>
      <rtept lat="33.522539" lon="126.558144">
         <ele>10</ele>
      </rtept>
      <rtept lat="33.522544" lon="126.558264">
         <ele>10</ele>
      </rtept>
      <rtept lat="33.52251" lon="126.558381">
         <ele>10</ele>
      </rtept>
      <rtept lat="33.522455" lon="126.558817">
         <ele>10</ele>
      </rtept>
      <rtept lat="33.522451" lon="126.559041">
         <ele>10</ele>
      </rtept>
      <rtept lat="33.522497" lon="126.559484">
         <ele>10</ele>
      </rtept>
      <rtept lat="33.52259" lon="126.559639">
         <ele>10</ele>
      </rtept>
      <rtept lat="33.522602" lon="126.559722">
         <ele>10</ele>
      </rtept>
      <rtept lat="33.522592" lon="126.559772">
         <ele>10</ele>
      </rtept>
      <rtept lat="33.522648" lon="126.559872">
         <ele>10</ele>
      </rtept>
      <rtept lat="33.522682" lon="126.559919" />
      <rtept lat="33.52286" lon="126.5598" />
      <rtept lat="33.522979" lon="126.559754" />
      <rtept lat="33.523203" lon="126.559703" />
      <rtept lat="33.523536" lon="126.55973" />
      <rtept lat="33.52413" lon="126.559951" />
      <rtept lat="33.524382" lon="126.560073" />
      <rtept lat="33.524604" lon="126.560217" />
      <rtept lat="33.524918" lon="126.560464" />
      <rtept lat="33.525226" lon="126.560601" />
      <rtept lat="33.525842" lon="126.560761" />
      <rtept lat="33.526123" lon="126.560871" />
      <rtept lat="33.526395" lon="126.560996" />
      <rtept lat="33.526564" lon="126.561112" />
      <rtept lat="33.526875" lon="126.561377" />
      <rtept lat="33.527035" lon="126.561534" />
      <rtept lat="33.527107" lon="126.561642" />
      <rtept lat="33.527172" lon="126.561791" />
      <rtept lat="33.527228" lon="126.562088" />
      <rtept lat="33.527215" lon="126.562299" />
      <rtept lat="33.527156" lon="126.562502" />
      <rtept lat="33.526733" lon="126.563495" />
      <rtept lat="33.526712" lon="126.563663" />
      <rtept lat="33.526692" lon="126.563655" />
      <rtept lat="33.52661" lon="126.563791" />
      <rtept lat="33.526419" lon="126.563929" />
      <rtept lat="33.526378" lon="126.563958" />
      <rtept lat="33.526264" lon="126.56395" />
      <rtept lat="33.525933" lon="126.563977" />
      <rtept lat="33.52575" lon="126.563979" />
      <rtept lat="33.525629" lon="126.564142" />
      <rtept lat="33.525561" lon="126.564227" />
      <rtept lat="33.52552" lon="126.564312" />
      <rtept lat="33.525356" lon="126.564593" />
      <rtept lat="33.525292" lon="126.564674" />
      <rtept lat="33.525282" lon="126.564664" />
      <rtept lat="33.525196" lon="126.564573" />
      <rtept lat="33.52473" lon="126.563828" />
      <rtept lat="33.524636" lon="126.563863" />
      <rtept lat="33.524516" lon="126.564093" />
      <rtept lat="33.524408" lon="126.564482" />
      <rtept lat="33.52439" lon="126.564512" />
      <rtept lat="33.524373" lon="126.564493" />
      <rtept lat="33.524275" lon="126.564638" />
      <rtept lat="33.52407" lon="126.565137" />
      <rtept lat="33.524003" lon="126.565213" />
      <rtept lat="33.523916" lon="126.565271" />
      <rtept lat="33.523911" lon="126.565544" />
      <rtept lat="33.523981" lon="126.565579" />
      <rtept lat="33.524044" lon="126.565585" />
      <rtept lat="33.524357" lon="126.565677" />
      <rtept lat="33.524387" lon="126.565793" />
      <rtept lat="33.524425" lon="126.565964" />
      <rtept lat="33.524567" lon="126.566365" />
      <rtept lat="33.524626" lon="126.566618" />
      <rtept lat="33.52465" lon="126.567033" />
      <rtept lat="33.524635" lon="126.56716" />
      <rtept lat="33.524736" lon="126.567399" />
      <rtept lat="33.524774" lon="126.567388" />
      <rtept lat="33.524907" lon="126.567446" />
      <rtept lat="33.525258" lon="126.567201" />
      <rtept lat="33.525283" lon="126.567296" />
      <rtept lat="33.525461" lon="126.567356" />
      <rtept lat="33.525602" lon="126.567386" />
      <rtept lat="33.525916" lon="126.567415" />
      <rtept lat="33.526029" lon="126.5674" />
      <rtept lat="33.526149" lon="126.567438" />
      <rtept lat="33.52623" lon="126.56748" />
      <rtept lat="33.526367" lon="126.567609" />
      <rtept lat="33.526495" lon="126.568004" />
      <rtept lat="33.52655" lon="126.568273" />
      <rtept lat="33.52654" lon="126.568496" />
      <rtept lat="33.52649" lon="126.568588" />
      <rtept lat="33.526403" lon="126.568592" />
      <rtept lat="33.526132" lon="126.568669" />
      <rtept lat="33.526098" lon="126.568657" />
      <rtept lat="33.526063" lon="126.568614" />
      <rtept lat="33.526012" lon="126.568475" />
      <rtept lat="33.525943" lon="126.568436" />
      <rtept lat="33.525715" lon="126.568402" />
      <rtept lat="33.525517" lon="126.56832" />
      <rtept lat="33.525464" lon="126.568384" />
      <rtept lat="33.52544" lon="126.568363" />
      <rtept lat="33.525389" lon="126.568356" />
      <rtept lat="33.525255" lon="126.568372" />
      <rtept lat="33.525222" lon="126.568522" />
      <rtept lat="33.525103" lon="126.568636" />
      <rtept lat="33.525094" lon="126.568839" />
      <rtept lat="33.525045" lon="126.569107" />
      <rtept lat="33.52475" lon="126.570074">
         <ele>10</ele>
      </rtept>
      <rtept lat="33.52474" lon="126.570299">
         <ele>10</ele>
      </rtept>
      <rtept lat="33.524762" lon="126.570532">
         <ele>10</ele>
      </rtept>
      <rtept lat="33.524726" lon="126.570601">
         <ele>10</ele>
      </rtept>
      <rtept lat="33.524692" lon="126.570625">
         <ele>10</ele>
      </rtept>
      <rtept lat="33.524521" lon="126.570665">
         <ele>10</ele>
      </rtept>
      <rtept lat="33.524515" lon="126.570787">
         <ele>10</ele>
      </rtept>
      <rtept lat="33.524477" lon="126.570927">
         <ele>10</ele>
      </rtept>
      <rtept lat="33.524533" lon="126.571321">
         <ele>10</ele>
      </rtept>
      <rtept lat="33.524627" lon="126.571568">
         <ele>10</ele>
      </rtept>
      <rtept lat="33.524615" lon="126.571931">
         <ele>10</ele>
      </rtept>
      <rtept lat="33.524696" lon="126.572103">
         <ele>10</ele>
      </rtept>
      <rtept lat="33.524762" lon="126.572306">
         <ele>10</ele>
      </rtept>
      <rtept lat="33.524757" lon="126.57263">
         <ele>10</ele>
      </rtept>
      <rtept lat="33.524779" lon="126.573263">
         <ele>10</ele>
      </rtept>
      <rtept lat="33.524835" lon="126.573414">
         <ele>10</ele>
      </rtept>
      <rtept lat="33.524979" lon="126.573676">
         <ele>10</ele>
      </rtept>
      <rtept lat="33.525014" lon="126.573822">
         <ele>10</ele>
      </rtept>
      <rtept lat="33.525156" lon="126.573985">
         <ele>10</ele>
      </rtept>
      <rtept lat="33.525231" lon="126.574315">
         <ele>10</ele>
      </rtept>
      <rtept lat="33.525445" lon="126.574563">
         <ele>10</ele>
      </rtept>
      <rtept lat="33.525525" lon="126.574631">
         <ele>10</ele>
      </rtept>
      <rtept lat="33.52558" lon="126.574674">
         <ele>10</ele>
      </rtept>
      <rtept lat="33.52571" lon="126.574711">
         <ele>10</ele>
      </rtept>
      <rtept lat="33.5258" lon="126.57476">
         <ele>10</ele>
      </rtept>
      <rtept lat="33.526022" lon="126.574935">
         <ele>10</ele>
      </rtept>
      <rtept lat="33.52623" lon="126.575126">
         <ele>10</ele>
      </rtept>
      <rtept lat="33.526284" lon="126.575188">
         <ele>10</ele>
      </rtept>
      <rtept lat="33.526319" lon="126.575274">
         <ele>10</ele>
      </rtept>
      <rtept lat="33.526368" lon="126.575495">
         <ele>10</ele>
      </rtept>
      <rtept lat="33.52635" lon="126.575648" />
      <rtept lat="33.526419" lon="126.575989" />
      <rtept lat="33.526421" lon="126.576236" />
      <rtept lat="33.526506" lon="126.576512" />
      <rtept lat="33.526436" lon="126.576562" />
      <rtept lat="33.526334" lon="126.576679" />
      <rtept lat="33.526266" lon="126.576836" />
      <rtept lat="33.52625" lon="126.5769" />
      <rtept lat="33.526248" lon="126.577156" />
      <rtept lat="33.526228" lon="126.577313" />
      <rtept lat="33.52612" lon="126.577683" />
      <rtept lat="33.526048" lon="126.57779" />
      <rtept lat="33.525977" lon="126.577855" />
      <rtept lat="33.526028" lon="126.577903" />
      <rtept lat="33.525864" lon="126.577988">
         <ele>10</ele>
      </rtept>
      <rtept lat="33.525675" lon="126.578117">
         <ele>10</ele>
      </rtept>
      <rtept lat="33.525503" lon="126.578317">
         <ele>10</ele>
      </rtept>
      <rtept lat="33.525426" lon="126.578473">
         <ele>10</ele>
      </rtept>
      <rtept lat="33.525386" lon="126.578655">
         <ele>10</ele>
      </rtept>
      <rtept lat="33.525347" lon="126.579034">
         <ele>10</ele>
      </rtept>
      <rtept lat="33.525336" lon="126.579132">
         <ele>10</ele>
      </rtept>
      <rtept lat="33.525278" lon="126.579292">
         <ele>10</ele>
      </rtept>
      <rtept lat="33.525171" lon="126.579436">
         <ele>10</ele>
      </rtept>
      <rtept lat="33.524887" lon="126.579666">
         <ele>10</ele>
      </rtept>
      <rtept lat="33.524622" lon="126.579827">
         <ele>10</ele>
      </rtept>
      <rtept lat="33.524548" lon="126.579901">
         <ele>10</ele>
      </rtept>
      <rtept lat="33.524538" lon="126.579938">
         <ele>10</ele>
      </rtept>
      <rtept lat="33.524548" lon="126.580308">
         <ele>10</ele>
      </rtept>
      <rtept lat="33.524852" lon="126.580957">
         <ele>10</ele>
      </rtept>
      <rtept lat="33.524887" lon="126.581375">
         <ele>10</ele>
      </rtept>
      <rtept lat="33.524936" lon="126.581485">
         <ele>10</ele>
      </rtept>
      <rtept lat="33.525132" lon="126.581688">
         <ele>10</ele>
      </rtept>
      <rtept lat="33.525249" lon="126.581889">
         <ele>10</ele>
      </rtept>
      <rtept lat="33.52527" lon="126.582058">
         <ele>10</ele>
      </rtept>
      <rtept lat="33.525265" lon="126.5824">
         <ele>10</ele>
      </rtept>
      <rtept lat="33.525241" lon="126.582514" />
      <rtept lat="33.525174" lon="126.582606" />
      <rtept lat="33.525062" lon="126.582705" />
      <rtept lat="33.524998" lon="126.582693" />
      <rtept lat="33.524973" lon="126.582771" />
      <rtept lat="33.524974" lon="126.582875" />
      <rtept lat="33.525025" lon="126.583082" />
      <rtept lat="33.525182" lon="126.583451" />
      <rtept lat="33.525377" lon="126.583625" />
      <rtept lat="33.525505" lon="126.583705" />
      <rtept lat="33.525559" lon="126.583896" />
      <rtept lat="33.52555" lon="126.583985" />
      <rtept lat="33.525522" lon="126.58413" />
      <rtept lat="33.525455" lon="126.584233" />
      <rtept lat="33.525243" lon="126.584446" />
      <rtept lat="33.524793" lon="126.584967" />
      <rtept lat="33.524731" lon="126.585108" />
      <rtept lat="33.524724" lon="126.585254">
         <ele>10</ele>
      </rtept>
      <rtept lat="33.524785" lon="126.585362">
         <ele>10</ele>
      </rtept>
      <rtept lat="33.524981" lon="126.585821">
         <ele>10</ele>
      </rtept>
      <rtept lat="33.52498" lon="126.585889">
         <ele>10</ele>
      </rtept>
      <rtept lat="33.525063" lon="126.585897">
         <ele>10</ele>
      </rtept>
      <rtept lat="33.525308" lon="126.586016">
         <ele>10</ele>
      </rtept>
      <rtept lat="33.525404" lon="126.586129">
         <ele>10</ele>
      </rtept>
      <rtept lat="33.525634" lon="126.58657">
         <ele>10</ele>
      </rtept>
      <rtept lat="33.525656" lon="126.586729">
         <ele>10</ele>
      </rtept>
      <rtept lat="33.52566" lon="126.587037">
         <ele>10</ele>
      </rtept>
      <rtept lat="33.526793" lon="126.58792">
         <ele>10</ele>
      </rtept>
      <rtept lat="33.526844" lon="126.587929">
         <ele>10</ele>
      </rtept>
      <rtept lat="33.526891" lon="126.587917">
         <ele>10</ele>
      </rtept>
      <rtept lat="33.527182" lon="126.587802">
         <ele>10</ele>
      </rtept>
      <rtept lat="33.527353" lon="126.587812">
         <ele>10</ele>
      </rtept>
      <rtept lat="33.527615" lon="126.587932">
         <ele>10</ele>
      </rtept>
      <rtept lat="33.528279" lon="126.588359">
         <ele>10</ele>
      </rtept>
      <rtept lat="33.528394" lon="126.588455">
         <ele>10</ele>
      </rtept>
      <rtept lat="33.528791" lon="126.588841">
         <ele>10</ele>
      </rtept>
      <rtept lat="33.528897" lon="126.589008">
         <ele>10</ele>
      </rtept>
      <rtept lat="33.529064" lon="126.589249" />
      <rtept lat="33.529197" lon="126.589259" />
      <rtept lat="33.529289" lon="126.589196" />
      <rtept lat="33.529461" lon="126.589534" />
      <rtept lat="33.529662" lon="126.589731" />
      <rtept lat="33.529704" lon="126.589794" />
      <rtept lat="33.52975" lon="126.589952" />
      <rtept lat="33.529757" lon="126.590198" />
      <rtept lat="33.529733" lon="126.590253" />
      <rtept lat="33.529776" lon="126.59028" />
      <rtept lat="33.529375" lon="126.590681">
         <ele>10</ele>
      </rtept>
      <rtept lat="33.528995" lon="126.591101">
         <ele>10</ele>
      </rtept>
      <rtept lat="33.52857" lon="126.591514">
         <ele>14.89532</ele>
      </rtept>
      <rtept lat="33.528158" lon="126.591944">
         <ele>20</ele>
      </rtept>
      <rtept lat="33.52815" lon="126.591953">
         <ele>20</ele>
      </rtept>
      <rtept lat="33.528723" lon="126.592821">
         <ele>20.93916</ele>
      </rtept>
      <rtept lat="33.529454" lon="126.593861">
         <ele>26.73112</ele>
      </rtept>
      <rtept lat="33.5294" lon="126.593954">
         <ele>31.64634</ele>
      </rtept>
      <rtept lat="33.529252" lon="126.594213">
         <ele>34.43288</ele>
      </rtept>
      <rtept lat="33.529192" lon="126.594176">
         <ele>34.68648</ele>
      </rtept>
      <rtept lat="33.529137" lon="126.594364">
         <ele>38.95382</ele>
      </rtept>
      <rtept lat="33.528892" lon="126.594895">
         <ele>54.47061</ele>
      </rtept>
      <rtept lat="33.528686" lon="126.595217">
         <ele>64.54411</ele>
      </rtept>
      <rtept lat="33.528506" lon="126.595984">
         <ele>72.83244</ele>
      </rtept>
      <rtept lat="33.528563" lon="126.59635">
         <ele>72.73504</ele>
      </rtept>
      <rtept lat="33.528783" lon="126.596682">
         <ele>68.54588</ele>
      </rtept>
      <rtept lat="33.528928" lon="126.597144">
         <ele>70</ele>
      </rtept>
      <rtept lat="33.52896" lon="126.597297">
         <ele>70</ele>
      </rtept>
      <rtept lat="33.528951" lon="126.597474">
         <ele>73.46895</ele>
      </rtept>
      <rtept lat="33.528931" lon="126.597642">
         <ele>74.37815</ele>
      </rtept>
      <rtept lat="33.528873" lon="126.597752">
         <ele>75.19314</ele>
      </rtept>
      <rtept lat="33.528922" lon="126.598108">
         <ele>80</ele>
      </rtept>
      <rtept lat="33.52897" lon="126.598331">
         <ele>75.16121</ele>
      </rtept>
      <rtept lat="33.529054" lon="126.598552">
         <ele>73.95247</ele>
      </rtept>
      <rtept lat="33.529091" lon="126.598749">
         <ele>72.96735</ele>
      </rtept>
      <rtept lat="33.529157" lon="126.599199">
         <ele>70.30932</ele>
      </rtept>
      <rtept lat="33.529548" lon="126.59933">
         <ele>70</ele>
      </rtept>
      <rtept lat="33.52986" lon="126.599396">
         <ele>70</ele>
      </rtept>
      <rtept lat="33.530047" lon="126.599517">
         <ele>70</ele>
      </rtept>
      <rtept lat="33.530143" lon="126.599706">
         <ele>66.75248</ele>
      </rtept>
      <rtept lat="33.530377" lon="126.59976">
         <ele>66.95313</ele>
      </rtept>
      <rtept lat="33.530465" lon="126.599752">
         <ele>67.17422</ele>
      </rtept>
      <rtept lat="33.530507" lon="126.599764">
         <ele>67.13882</ele>
      </rtept>
      <rtept lat="33.53086" lon="126.600001">
         <ele>64.6991</ele>
      </rtept>
      <rtept lat="33.531207" lon="126.60015">
         <ele>61.37608</ele>
      </rtept>
      <rtept lat="33.531297" lon="126.600231">
         <ele>60.14123</ele>
      </rtept>
      <rtept lat="33.53139" lon="126.60018">
         <ele>59.42478</ele>
      </rtept>
      <rtept lat="33.531565" lon="126.600554">
         <ele>55.09319</ele>
      </rtept>
      <rtept lat="33.531635" lon="126.600956">
         <ele>51.58078</ele>
      </rtept>
      <rtept lat="33.531853" lon="126.600849">
         <ele>50</ele>
      </rtept>
      <rtept lat="33.531993" lon="126.601002">
         <ele>50</ele>
      </rtept>
      <rtept lat="33.532071" lon="126.601451">
         <ele>50</ele>
      </rtept>
      <rtept lat="33.531715" lon="126.602362">
         <ele>50</ele>
      </rtept>
      <rtept lat="33.531696" lon="126.6029">
         <ele>40</ele>
      </rtept>
      <rtept lat="33.531821" lon="126.602879">
         <ele>40</ele>
      </rtept>
      <rtept lat="33.532" lon="126.602883">
         <ele>40</ele>
      </rtept>
      <rtept lat="33.532035" lon="126.603004">
         <ele>40</ele>
      </rtept>
      <rtept lat="33.531993" lon="126.603928">
         <ele>40</ele>
      </rtept>
      <rtept lat="33.531876" lon="126.605462">
         <ele>40</ele>
      </rtept>
      <rtept lat="33.53184" lon="126.606463">
         <ele>40</ele>
      </rtept>
      <rtept lat="33.531873" lon="126.606591">
         <ele>40</ele>
      </rtept>
      <rtept lat="33.532075" lon="126.606882">
         <ele>40</ele>
      </rtept>
      <rtept lat="33.532144" lon="126.607116">
         <ele>40</ele>
      </rtept>
      <rtept lat="33.532181" lon="126.607316">
         <ele>40</ele>
      </rtept>
      <rtept lat="33.532204" lon="126.607576">
         <ele>30</ele>
      </rtept>
      <rtept lat="33.532269" lon="126.607774">
         <ele>30</ele>
      </rtept>
      <rtept lat="33.532371" lon="126.607996">
         <ele>30</ele>
      </rtept>
      <rtept lat="33.532446" lon="126.608099">
         <ele>30</ele>
      </rtept>
      <rtept lat="33.532538" lon="126.608161">
         <ele>30</ele>
      </rtept>
      <rtept lat="33.532597" lon="126.60828">
         <ele>30</ele>
      </rtept>
      <rtept lat="33.532566" lon="126.608614">
         <ele>30</ele>
      </rtept>
      <rtept lat="33.532497" lon="126.608983">
         <ele>30</ele>
      </rtept>
      <rtept lat="33.532515" lon="126.60997">
         <ele>30</ele>
      </rtept>
      <rtept lat="33.532584" lon="126.609978">
         <ele>30</ele>
      </rtept>
      <rtept lat="33.532754" lon="126.61012">
         <ele>30</ele>
      </rtept>
      <rtept lat="33.532788" lon="126.610118">
         <ele>30</ele>
      </rtept>
      <rtept lat="33.533214" lon="126.609931">
         <ele>30</ele>
      </rtept>
      <rtept lat="33.533768" lon="126.609549">
         <ele>20</ele>
      </rtept>
      <rtept lat="33.533795" lon="126.60951">
         <ele>20</ele>
      </rtept>
      <rtept lat="33.533815" lon="126.609379">
         <ele>20</ele>
      </rtept>
      <rtept lat="33.533858" lon="126.609262">
         <ele>20</ele>
      </rtept>
      <rtept lat="33.533796" lon="126.609103">
         <ele>20</ele>
      </rtept>
      <rtept lat="33.533761" lon="126.608951">
         <ele>20</ele>
      </rtept>
      <rtept lat="33.533758" lon="126.608862">
         <ele>20</ele>
      </rtept>
      <rtept lat="33.533834" lon="126.608751">
         <ele>20</ele>
      </rtept>
      <rtept lat="33.533836" lon="126.608725">
         <ele>20</ele>
      </rtept>
      <rtept lat="33.533815" lon="126.60862">
         <ele>20</ele>
      </rtept>
      <rtept lat="33.533765" lon="126.608527">
         <ele>20</ele>
      </rtept>
      <rtept lat="33.533692" lon="126.608317">
         <ele>20</ele>
      </rtept>
      <rtept lat="33.533916" lon="126.608112">
         <ele>20</ele>
      </rtept>
      <rtept lat="33.534182" lon="126.607867">
         <ele>20</ele>
      </rtept>
      <rtept lat="33.534606" lon="126.607894">
         <ele>15.61778</ele>
      </rtept>
      <rtept lat="33.534792" lon="126.607862">
         <ele>14.83284</ele>
      </rtept>
      <rtept lat="33.53491" lon="126.607894">
         <ele>14.12606</ele>
      </rtept>
      <rtept lat="33.535022" lon="126.60787">
         <ele>13.6511</ele>
      </rtept>
      <rtept lat="33.53524" lon="126.607693">
         <ele>14.06113</ele>
      </rtept>
      <rtept lat="33.535291" lon="126.60766">
         <ele>13.68074</ele>
      </rtept>
      <rtept lat="33.535351" lon="126.607654">
         <ele>13.12009</ele>
      </rtept>
      <rtept lat="33.5354" lon="126.607657">
         <ele>12.62885</ele>
      </rtept>
      <rtept lat="33.535438" lon="126.607748">
         <ele>10</ele>
      </rtept>
      <rtept lat="33.535547" lon="126.607766">
         <ele>10</ele>
      </rtept>
      <rtept lat="33.535603" lon="126.607833">
         <ele>10</ele>
      </rtept>
      <rtept lat="33.535622" lon="126.607936">
         <ele>10</ele>
      </rtept>
      <rtept lat="33.535593" lon="126.608066">
         <ele>10</ele>
      </rtept>
      <rtept lat="33.535378" lon="126.608228">
         <ele>10</ele>
      </rtept>
      <rtept lat="33.535164" lon="126.608358">
         <ele>10</ele>
      </rtept>
      <rtept lat="33.534904" lon="126.608485">
         <ele>10</ele>
      </rtept>
      <rtept lat="33.534689" lon="126.608613">
         <ele>11.35123</ele>
      </rtept>
      <rtept lat="33.534674" lon="126.60885">
         <ele>11.73735</ele>
      </rtept>
      <rtept lat="33.534951" lon="126.609055">
         <ele>10</ele>
      </rtept>
      <rtept lat="33.535005" lon="126.609268">
         <ele>10.83768</ele>
      </rtept>
      <rtept lat="33.535081" lon="126.609409">
         <ele>10</ele>
      </rtept>
      <rtept lat="33.5354" lon="126.609742">
         <ele>10</ele>
      </rtept>
      <rtept lat="33.535683" lon="126.609898">
         <ele>10</ele>
      </rtept>
      <rtept lat="33.535819" lon="126.61015">
         <ele>10</ele>
      </rtept>
      <rtept lat="33.535829" lon="126.610256">
         <ele>10</ele>
      </rtept>
      <rtept lat="33.535791" lon="126.610402">
         <ele>10</ele>
      </rtept>
      <rtept lat="33.535714" lon="126.610569">
         <ele>10</ele>
      </rtept>
      <rtept lat="33.535573" lon="126.611143">
         <ele>10</ele>
      </rtept>
      <rtept lat="33.535531" lon="126.611517">
         <ele>10</ele>
      </rtept>
      <rtept lat="33.535535" lon="126.611725">
         <ele>10</ele>
      </rtept>
      <rtept lat="33.535521" lon="126.611949">
         <ele>10</ele>
      </rtept>
      <rtept lat="33.535505" lon="126.612004">
         <ele>10</ele>
      </rtept>
      <rtept lat="33.535625" lon="126.612041">
         <ele>10</ele>
      </rtept>
      <rtept lat="33.535714" lon="126.612167">
         <ele>10</ele>
      </rtept>
      <rtept lat="33.535913" lon="126.612032">
         <ele>10</ele>
      </rtept>
      <rtept lat="33.536159" lon="126.612089">
         <ele>10</ele>
      </rtept>
      <rtept lat="33.536419" lon="126.612359">
         <ele>10</ele>
      </rtept>
      <rtept lat="33.536482" lon="126.612424">
         <ele>10</ele>
      </rtept>
      <rtept lat="33.536749" lon="126.61285">
         <ele>10</ele>
      </rtept>
      <rtept lat="33.536952" lon="126.612968">
         <ele>10</ele>
      </rtept>
      <rtept lat="33.537127" lon="126.613038">
         <ele>10</ele>
      </rtept>
      <rtept lat="33.537548" lon="126.613163">
         <ele>10</ele>
      </rtept>
      <rtept lat="33.537692" lon="126.613255">
         <ele>10</ele>
      </rtept>
      <rtept lat="33.537812" lon="126.613602">
         <ele>10</ele>
      </rtept>
      <rtept lat="33.537883" lon="126.614122">
         <ele>10</ele>
      </rtept>
      <rtept lat="33.537883" lon="126.614384">
         <ele>10</ele>
      </rtept>
      <rtept lat="33.537876" lon="126.614621" />
      <rtept lat="33.537851" lon="126.61474" />
      <rtept lat="33.537648" lon="126.614786" />
      <rtept lat="33.537624" lon="126.61485" />
      <rtept lat="33.537651" lon="126.615218" />
      <rtept lat="33.537616" lon="126.615562" />
      <rtept lat="33.537364" lon="126.615639" />
      <rtept lat="33.537305" lon="126.615704" />
      <rtept lat="33.537241" lon="126.61583" />
      <rtept lat="33.537155" lon="126.6161" />
      <rtept lat="33.537241" lon="126.616429" />
      <rtept lat="33.537109" lon="126.616462" />
      <rtept lat="33.537063" lon="126.616527" />
      <rtept lat="33.536789" lon="126.616534">
         <ele>10</ele>
      </rtept>
      <rtept lat="33.536775" lon="126.616796">
         <ele>10</ele>
      </rtept>
      <rtept lat="33.536859" lon="126.617552">
         <ele>10</ele>
      </rtept>
      <rtept lat="33.536889" lon="126.617626">
         <ele>10</ele>
      </rtept>
      <rtept lat="33.536978" lon="126.617734">
         <ele>10</ele>
      </rtept>
      <rtept lat="33.537149" lon="126.617717">
         <ele>10</ele>
      </rtept>
      <rtept lat="33.537213" lon="126.617748">
         <ele>10</ele>
      </rtept>
      <rtept lat="33.537326" lon="126.617874">
         <ele>10</ele>
      </rtept>
      <rtept lat="33.537461" lon="126.617841">
         <ele>10</ele>
      </rtept>
      <rtept lat="33.537574" lon="126.617841">
         <ele>10</ele>
      </rtept>
      <rtept lat="33.537617" lon="126.617859">
         <ele>10</ele>
      </rtept>
      <rtept lat="33.537653" lon="126.617888">
         <ele>10</ele>
      </rtept>
      <rtept lat="33.537663" lon="126.617938">
         <ele>10</ele>
      </rtept>
      <rtept lat="33.537639" lon="126.618014">
         <ele>10</ele>
      </rtept>
      <rtept lat="33.537737" lon="126.618081">
         <ele>10</ele>
      </rtept>
      <rtept lat="33.537861" lon="126.618165" />
      <rtept lat="33.537817" lon="126.618484" />
      <rtept lat="33.537982" lon="126.61861" />
      <rtept lat="33.538053" lon="126.618834" />
      <rtept lat="33.538111" lon="126.618932" />
      <rtept lat="33.538116" lon="126.619027" />
      <rtept lat="33.538219" lon="126.619399" />
      <rtept lat="33.538294" lon="126.61941" />
      <rtept lat="33.538324" lon="126.619432" />
      <rtept lat="33.538365" lon="126.619504" />
      <rtept lat="33.538412" lon="126.619928" />
      <rtept lat="33.538406" lon="126.62002" />
      <rtept lat="33.538439" lon="126.62015" />
      <rtept lat="33.538458" lon="126.620284" />
      <rtept lat="33.538453" lon="126.620327" />
      <rtept lat="33.538417" lon="126.620371" />
      <rtept lat="33.538313" lon="126.620448" />
      <rtept lat="33.538189" lon="126.620469" />
      <rtept lat="33.537939" lon="126.620646" />
      <rtept lat="33.538049" lon="126.62137" />
      <rtept lat="33.538048" lon="126.621615" />
      <rtept lat="33.537989" lon="126.622169" />
      <rtept lat="33.538226" lon="126.622116" />
      <rtept lat="33.538259" lon="126.622129" />
      <rtept lat="33.538398" lon="126.622277" />
      <rtept lat="33.53842" lon="126.62251" />
      <rtept lat="33.538637" lon="126.622777" />
      <rtept lat="33.538776" lon="126.622817" />
      <rtept lat="33.538822" lon="126.622885" />
      <rtept lat="33.539001" lon="126.623119" />
      <rtept lat="33.538957" lon="126.623237" />
      <rtept lat="33.538575" lon="126.623648" />
      <rtept lat="33.53842" lon="126.623704" />
      <rtept lat="33.537957" lon="126.623806" />
      <rtept lat="33.537753" lon="126.623882" />
      <rtept lat="33.537698" lon="126.623902" />
      <rtept lat="33.537613" lon="126.62389" />
      <rtept lat="33.537488" lon="126.62385" />
      <rtept lat="33.53736" lon="126.623839" />
      <rtept lat="33.537148" lon="126.623783" />
      <rtept lat="33.537005" lon="126.623721" />
      <rtept lat="33.536748" lon="126.623691" />
      <rtept lat="33.53655" lon="126.6242" />
      <rtept lat="33.536305" lon="126.625">
         <ele>10</ele>
      </rtept>
      <rtept lat="33.536049" lon="126.625719">
         <ele>10</ele>
      </rtept>
      <rtept lat="33.535833" lon="126.62625">
         <ele>10</ele>
      </rtept>
      <rtept lat="33.535793" lon="126.626296">
         <ele>10</ele>
      </rtept>
      <rtept lat="33.53584" lon="126.626355">
         <ele>10</ele>
      </rtept>
      <rtept lat="33.536003" lon="126.626365">
         <ele>10</ele>
      </rtept>
      <rtept lat="33.536079" lon="126.626409">
         <ele>10</ele>
      </rtept>
      <rtept lat="33.536511" lon="126.626822">
         <ele>10</ele>
      </rtept>
      <rtept lat="33.536612" lon="126.626878">
         <ele>10</ele>
      </rtept>
      <rtept lat="33.536758" lon="126.626906">
         <ele>10</ele>
      </rtept>
      <rtept lat="33.536899" lon="126.626963">
         <ele>10</ele>
      </rtept>
      <rtept lat="33.536976" lon="126.627056">
         <ele>10</ele>
      </rtept>
      <rtept lat="33.53704" lon="126.627259">
         <ele>10</ele>
      </rtept>
      <rtept lat="33.537083" lon="126.627321">
         <ele>10</ele>
      </rtept>
      <rtept lat="33.537296" lon="126.627396">
         <ele>10</ele>
      </rtept>
      <rtept lat="33.537289" lon="126.627484">
         <ele>10</ele>
      </rtept>
      <rtept lat="33.537276" lon="126.627665" />
      <rtept lat="33.537321" lon="126.627883" />
      <rtept lat="33.53729" lon="126.628025" />
      <rtept lat="33.537185" lon="126.628281" />
      <rtept lat="33.537134" lon="126.628479" />
      <rtept lat="33.537139" lon="126.628521" />
      <rtept lat="33.537209" lon="126.628582" />
      <rtept lat="33.537226" lon="126.628647" />
      <rtept lat="33.537168" lon="126.628781" />
      <rtept lat="33.537072" lon="126.628905" />
      <rtept lat="33.537023" lon="126.629135" />
      <rtept lat="33.537114" lon="126.629214" />
      <rtept lat="33.537151" lon="126.629385" />
      <rtept lat="33.537301" lon="126.629608" />
      <rtept lat="33.537328" lon="126.629725" />
      <rtept lat="33.53727" lon="126.629837" />
      <rtept lat="33.537308" lon="126.630094" />
      <rtept lat="33.537246" lon="126.630239" />
      <rtept lat="33.537158" lon="126.630386" />
      <rtept lat="33.537241" lon="126.630446" />
      <rtept lat="33.537367" lon="126.630604" />
      <rtept lat="33.537409" lon="126.630683" />
      <rtept lat="33.537509" lon="126.63094" />
      <rtept lat="33.537496" lon="126.631044" />
      <rtept lat="33.537472" lon="126.631093" />
      <rtept lat="33.537086" lon="126.631077" />
      <rtept lat="33.536778" lon="126.631136" />
      <rtept lat="33.536675" lon="126.631198" />
      <rtept lat="33.536588" lon="126.631179" />
      <rtept lat="33.53636" lon="126.631651" />
      <rtept lat="33.536215" lon="126.632064" />
      <rtept lat="33.536114" lon="126.632123" />
      <rtept lat="33.536022" lon="126.632345" />
      <rtept lat="33.535987" lon="126.632504" />
      <rtept lat="33.535835" lon="126.632536">
         <ele>10</ele>
      </rtept>
      <rtept lat="33.535781" lon="126.632581">
         <ele>10</ele>
      </rtept>
      <rtept lat="33.535641" lon="126.632977">
         <ele>10</ele>
      </rtept>
      <rtept lat="33.535633" lon="126.633021">
         <ele>10</ele>
      </rtept>
      <rtept lat="33.535694" lon="126.63309">
         <ele>10</ele>
      </rtept>
      <rtept lat="33.535906" lon="126.633231">
         <ele>10</ele>
      </rtept>
      <rtept lat="33.536004" lon="126.63335">
         <ele>10</ele>
      </rtept>
      <rtept lat="33.536032" lon="126.633432">
         <ele>10</ele>
      </rtept>
      <rtept lat="33.536046" lon="126.633573">
         <ele>10</ele>
      </rtept>
      <rtept lat="33.536043" lon="126.633677">
         <ele>10</ele>
      </rtept>
      <rtept lat="33.535949" lon="126.634241">
         <ele>10</ele>
      </rtept>
      <rtept lat="33.535891" lon="126.634397">
         <ele>10</ele>
      </rtept>
      <rtept lat="33.535611" lon="126.634886">
         <ele>10</ele>
      </rtept>
      <rtept lat="33.535709" lon="126.63498">
         <ele>10</ele>
      </rtept>
      <rtept lat="33.535783" lon="126.635051" />
      <rtept lat="33.535845" lon="126.635204" />
      <rtept lat="33.535996" lon="126.635144" />
      <rtept lat="33.536253" lon="126.634995" />
      <rtept lat="33.536353" lon="126.635036" />
      <rtept lat="33.536412" lon="126.635194" />
      <rtept lat="33.536466" lon="126.635339" />
      <rtept lat="33.536609" lon="126.635969" />
      <rtept lat="33.536752" lon="126.635795" />
      <rtept lat="33.537041" lon="126.635613" />
      <rtept lat="33.537217" lon="126.635477" />
      <rtept lat="33.537321" lon="126.635413" />
      <rtept lat="33.537371" lon="126.635412" />
      <rtept lat="33.53746" lon="126.635337" />
      <rtept lat="33.53759" lon="126.63527" />
      <rtept lat="33.537679" lon="126.635177" />
      <rtept lat="33.537769" lon="126.635152" />
      <rtept lat="33.537826" lon="126.635098" />
      <rtept lat="33.537972" lon="126.635045" />
      <rtept lat="33.5382" lon="126.635227" />
      <rtept lat="33.538343" lon="126.635305" />
      <rtept lat="33.538496" lon="126.635472" />
      <rtept lat="33.53861" lon="126.635619" />
      <rtept lat="33.538655" lon="126.635702" />
      <rtept lat="33.53888" lon="126.635753" />
      <rtept lat="33.539174" lon="126.63613" />
      <rtept lat="33.539199" lon="126.636178" />
      <rtept lat="33.539191" lon="126.63634" />
      <rtept lat="33.539211" lon="126.636422" />
      <rtept lat="33.539249" lon="126.636453" />
      <rtept lat="33.53933" lon="126.636462" />
      <rtept lat="33.539362" lon="126.636484" />
      <rtept lat="33.539455" lon="126.63683" />
      <rtept lat="33.539507" lon="126.636871" />
      <rtept lat="33.539786" lon="126.636309" />
      <rtept lat="33.539974" lon="126.635884" />
      <rtept lat="33.540111" lon="126.63567" />
      <rtept lat="33.540318" lon="126.635559" />
      <rtept lat="33.540567" lon="126.635556" />
      <rtept lat="33.540615" lon="126.635555" />
      <rtept lat="33.541184" lon="126.6354" />
      <rtept lat="33.541216" lon="126.635153" />
      <rtept lat="33.541849" lon="126.634981" />
      <rtept lat="33.542035" lon="126.634492" />
      <rtept lat="33.542204" lon="126.634453" />
      <rtept lat="33.542586" lon="126.634535" />
      <rtept lat="33.542797" lon="126.634513" />
      <rtept lat="33.542968" lon="126.634476" />
      <rtept lat="33.543179" lon="126.634405" />
      <rtept lat="33.543455" lon="126.634136" />
      <rtept lat="33.543593" lon="126.63415" />
      <rtept lat="33.543601" lon="126.634424" />
      <rtept lat="33.543536" lon="126.635015" />
      <rtept lat="33.543444" lon="126.635283" />
      <rtept lat="33.543436" lon="126.635431" />
      <rtept lat="33.543367" lon="126.63575" />
      <rtept lat="33.543369" lon="126.635873" />
      <rtept lat="33.543337" lon="126.635937" />
      <rtept lat="33.543322" lon="126.635967" />
      <rtept lat="33.543349" lon="126.636097" />
      <rtept lat="33.543354" lon="126.63639" />
      <rtept lat="33.543465" lon="126.636501" />
      <rtept lat="33.543313" lon="126.63687" />
      <rtept lat="33.542949" lon="126.637042" />
      <rtept lat="33.542807" lon="126.637138" />
      <rtept lat="33.542586" lon="126.637351" />
      <rtept lat="33.541144" lon="126.639167" />
      <rtept lat="33.539405" lon="126.641438">
         <ele>10</ele>
      </rtept>
      <rtept lat="33.53967" lon="126.64189">
         <ele>10</ele>
      </rtept>
      <rtept lat="33.539726" lon="126.641846">
         <ele>10</ele>
      </rtept>
   </rte>
</gpx>