<?xml version="1.0" encoding="utf-8"?>
<kml xmlns:gx="http://www.google.com/kml/ext/2.2" xmlns="http://www.opengis.net/kml/2.2">
  <Document>
    <Style id="base_track_style">
      <LineStyle>
        <color>7f00ffff</color>
        <width>4</width>
      </LineStyle>
    </Style>
    <Folder><Placemark>
  <styleUrl>#base_track_style</styleUrl>
  <name>route</name>
  <MultiGeometry>
    <LineString>
      <coordinates>126.524538,33.512436,0
126.524599,33.512433,0
126.524581,33.512013,0
126.524521,33.511761,0
126.523863,33.510352,20
126.523939,33.510324,20
126.524235,33.510213,20
126.524339,33.510132,20
126.524408,33.510036,20
126.524573,33.510113,20
126.52471,33.5102,20
126.525148,33.510332,20
126.525242,33.510432,20
126.525813,33.51054,20
126.525891,33.510564,20
126.526135,33.510341,20
126.526235,33.510208,20
126.526384,33.510296,20
126.526651,33.510373,20
126.527609,33.510635,20
126.527622,33.510808,20
126.527825,33.510918,20
126.527835,33.511066,20
126.527911,33.511522,20
126.527984,33.511524,20
126.5282,33.511579,20
126.528027,33.511998,20
126.527858,33.512364,10
126.528212,33.51252,10
126.527761,33.512974,10
126.527766,33.513021,10
126.527334,33.513052,10
126.527334,33.513147,10
126.52744,33.513218,10
126.528196,33.513905,10
126.528411,33.514125,10
126.529299,33.515287,10
126.529622,33.515659,10
126.530005,33.515999,10
126.530492,33.516354,10
126.530554,33.516399,10
126.530611,33.516352,10
126.530795,33.516496,10
126.531351,33.516578,10
126.531567,33.516551,10
126.531651,33.516504,10
126.532042,33.516576,10.38313
126.532638,33.516908,13.18815
126.533971,33.517932,11.13937
126.534988,33.518675,11.55345
126.535174,33.518593,11.00346
126.535167,33.518604,10.73738
126.535518,33.518758,11.67822
126.535754,33.518828,13.38128
126.535787,33.518775,14.48559
126.535926,33.518833,15.25538
126.536082,33.518864,16.56849
126.536262,33.518853,18.55122
126.536297,33.518786,19.84898
126.536339,33.518801,19.9584
126.536345,33.518715,21.15435
126.536289,33.518622,21.77129
126.536346,33.518524,23.41842
126.536324,33.518478,23.72221
126.536339,33.517909,29.77172
126.536451,33.517991,29.81253
126.536642,33.518032,28.84238
126.537236,33.51808,30
126.537746,33.518087,35.87681
126.538143,33.518191,36.48652
126.538387,33.51822,36.88628
126.538731,33.51822,37.71629
126.539053,33.518175,39.02895
126.53917,33.51823,38.54674
126.539445,33.518298,38.39433
126.54031,33.518486,39.08293
126.540382,33.518237,44.10029
126.540776,33.518327,46.54312
126.540887,33.516969,55.85315
126.541377,33.516944,60.20972
126.541353,33.515485,60
126.54226,33.515713,63.13028
126.542242,33.515832,63.61519
126.542476,33.515976,66.01849
126.5425,33.516024,66.48752
126.542526,33.516074,66.99917
126.542518,33.516158,72.58503
126.542378,33.516655,71.33031
126.542458,33.51687,75.95105
126.542672,33.516964,80.97851
126.542715,33.517156,85.02997
126.542887,33.517304,89.4127
126.543289,33.517407,99.17783
126.543955,33.517523,109.9848
126.544278,33.517683,115.9051
126.544522,33.517859,118.8228
126.544619,33.518207,117.2473
126.544598,33.518457,118.162
126.544546,33.518768,116.3954
126.544557,33.518974,112.9045
126.544673,33.519139,112.4645
126.544826,33.519146,115.5562
126.545016,33.519032,118.7421
126.545161,33.518833,116.7407
126.545233,33.518697,116.3011
126.545359,33.518645,116.3926
126.545408,33.518748,116.6261
126.545161,33.519139,119.2501
126.544694,33.519602,99.16064
126.544667,33.519754,94.94843
126.544893,33.519777,99.44943
126.545287,33.519404,114.9358
126.545842,33.518605,119.4766
126.545987,33.518567,116.7708
126.546076,33.518635,114.7067
126.546103,33.518751,113.9875
126.546048,33.518907,114.5972
126.546031,33.518988,114.3779
126.546112,33.519024,112.2909
126.546169,33.518983,111.373
126.546446,33.518883,105.0625
126.546525,33.518943,102.8079
126.546551,33.519055,101.5884
126.546613,33.519082,100.1315
126.546731,33.519034,97.35172
126.546924,33.518924,92.94711
126.547121,33.51887,88.36038
126.547316,33.518871,84.25811
126.547477,33.518838,80.78442
126.54747,33.518751,80.55077
126.547526,33.518761,80.52717
126.547915,33.518947,76.73421
126.548128,33.519152,74.56219
126.548231,33.519305,72.90396
126.54889,33.519492,69.29464
126.54978,33.519617,68.61324
126.550982,33.51963,76.41487
126.551592,33.519667,82.33089
126.551919,33.519801,84.03458
126.552052,33.520099,77.00262
126.55211,33.520721,57.77407
126.552232,33.520986,54.02711
126.552268,33.521004,54.75309
126.552376,33.521057,56.66141
126.552831,33.521039,68.90108
126.553151,33.520844,78.36866
126.553854,33.5205,84.78049
126.55446,33.520171,82.87539
126.554964,33.520016,72.3844
126.555521,33.519922,58.88287
126.555837,33.519891,52.39237
126.555981,33.520168,47.86173
126.556046,33.520474,42.59678
126.555905,33.520591,41.36835
126.556111,33.521264,15.38208
126.55612,33.52135,16.05356
126.556162,33.52143,18.71613
126.556268,33.521519,16.42735
126.556439,33.521571,17.6448
126.556785,33.521591,18.93517
126.556967,33.521568,17.85294
126.557439,33.521459,23.21
126.557621,33.521335,24.00992
126.55772,33.521296,23.60088
126.557813,33.521283,22.77409
126.557943,33.521291,21.16417
126.558017,33.521345,19.62486
126.558083,33.521445,17.64359
126.558114,33.521524,16.26768
126.558114,33.521611,15.05061
126.558006,33.521733,14.05845
126.557993,33.522092,11.50151
126.55803,33.522121,11.8413
126.558105,33.522182,12.36728
126.558015,33.522325,10
126.55802,33.522404,10
126.558063,33.522499,10
126.558144,33.522539,10
126.558264,33.522544,10
126.558381,33.52251,10
126.558817,33.522455,10
126.559041,33.522451,10
126.559484,33.522497,10
126.559639,33.52259,10
126.559722,33.522602,10
126.559772,33.522592,10
126.559872,33.522648,10
126.559919,33.522682,0
126.5598,33.52286,0
126.559754,33.522979,0
126.559703,33.523203,0
126.55973,33.523536,0
126.559951,33.52413,0
126.560073,33.524382,0
126.560217,33.524604,0
126.560464,33.524918,0
126.560601,33.525226,0
126.560761,33.525842,0
126.560871,33.526123,0
126.560996,33.526395,0
126.561112,33.526564,0
126.561377,33.526875,0
126.561534,33.527035,0
126.561642,33.527107,0
126.561791,33.527172,0
126.562088,33.527228,0
126.562299,33.527215,0
126.562502,33.527156,0
126.563495,33.526733,0
126.563663,33.526712,0
126.563655,33.526692,0
126.563791,33.52661,0
126.563929,33.526419,0
126.563958,33.526378,0
126.56395,33.526264,0
126.563977,33.525933,0
126.563979,33.52575,0
126.564142,33.525629,0
126.564227,33.525561,0
126.564312,33.52552,0
126.564593,33.525356,0
126.564674,33.525292,0
126.564664,33.525282,0
126.564573,33.525196,0
126.563828,33.52473,0
126.563863,33.524636,0
126.564093,33.524516,0
126.564482,33.524408,0
126.564512,33.52439,0
126.564493,33.524373,0
126.564638,33.524275,0
126.565137,33.52407,0
126.565213,33.524003,0
126.565271,33.523916,0
126.565544,33.523911,0
126.565579,33.523981,0
126.565585,33.524044,0
126.565677,33.524357,0
126.565793,33.524387,0
126.565964,33.524425,0
126.566365,33.524567,0
126.566618,33.524626,0
126.567033,33.52465,0
126.56716,33.524635,0
126.567399,33.524736,0
126.567388,33.524774,0
126.567446,33.524907,0
126.567201,33.525258,0
126.567296,33.525283,0
126.567356,33.525461,0
126.567386,33.525602,0
126.567415,33.525916,0
126.5674,33.526029,0
126.567438,33.526149,0
126.56748,33.52623,0
126.567609,33.526367,0
126.568004,33.526495,0
126.568273,33.52655,0
126.568496,33.52654,0
126.568588,33.52649,0
126.568592,33.526403,0
126.568669,33.526132,0
126.568657,33.526098,0
126.568614,33.526063,0
126.568475,33.526012,0
126.568436,33.525943,0
126.568402,33.525715,0
126.56832,33.525517,0
126.568384,33.525464,0
126.568363,33.52544,0
126.568356,33.525389,0
126.568372,33.525255,0
126.568522,33.525222,0
126.568636,33.525103,0
126.568839,33.525094,0
126.569107,33.525045,0
126.570074,33.52475,10
126.570299,33.52474,10
126.570532,33.524762,10
126.570601,33.524726,10
126.570625,33.524692,10
126.570665,33.524521,10
126.570787,33.524515,10
126.570927,33.524477,10
126.571321,33.524533,10
126.571568,33.524627,10
126.571931,33.524615,10
126.572103,33.524696,10
126.572306,33.524762,10
126.57263,33.524757,10
126.573263,33.524779,10
126.573414,33.524835,10
126.573676,33.524979,10
126.573822,33.525014,10
126.573985,33.525156,10
126.574315,33.525231,10
126.574563,33.525445,10
126.574631,33.525525,10
126.574674,33.52558,10
126.574711,33.52571,10
126.57476,33.5258,10
126.574935,33.526022,10
126.575126,33.52623,10
126.575188,33.526284,10
126.575274,33.526319,10
126.575495,33.526368,10
126.575648,33.52635,0
126.575989,33.526419,0
126.576236,33.526421,0
126.576512,33.526506,0
126.576562,33.526436,0
126.576679,33.526334,0
126.576836,33.526266,0
126.5769,33.52625,0
126.577156,33.526248,0
126.577313,33.526228,0
126.577683,33.52612,0
126.57779,33.526048,0
126.577855,33.525977,0
126.577903,33.526028,0
126.577988,33.525864,10
126.578117,33.525675,10
126.578317,33.525503,10
126.578473,33.525426,10
126.578655,33.525386,10
126.579034,33.525347,10
126.579132,33.525336,10
126.579292,33.525278,10
126.579436,33.525171,10
126.579666,33.524887,10
126.579827,33.524622,10
126.579901,33.524548,10
126.579938,33.524538,10
126.580308,33.524548,10
126.580957,33.524852,10
126.581375,33.524887,10
126.581485,33.524936,10
126.581688,33.525132,10
126.581889,33.525249,10
126.582058,33.52527,10
126.5824,33.525265,10
126.582514,33.525241,0
126.582606,33.525174,0
126.582705,33.525062,0
126.582693,33.524998,0
126.582771,33.524973,0
126.582875,33.524974,0
126.583082,33.525025,0
126.583451,33.525182,0
126.583625,33.525377,0
126.583705,33.525505,0
126.583896,33.525559,0
126.583985,33.52555,0
126.58413,33.525522,0
126.584233,33.525455,0
126.584446,33.525243,0
126.584967,33.524793,0
126.585108,33.524731,0
126.585254,33.524724,10
126.585362,33.524785,10
126.585821,33.524981,10
126.585889,33.52498,10
126.585897,33.525063,10
126.586016,33.525308,10
126.586129,33.525404,10
126.58657,33.525634,10
126.586729,33.525656,10
126.587037,33.52566,10
126.58792,33.526793,10
126.587929,33.526844,10
126.587917,33.526891,10
126.587802,33.527182,10
126.587812,33.527353,10
126.587932,33.527615,10
126.588359,33.528279,10
126.588455,33.528394,10
126.588841,33.528791,10
126.589008,33.528897,10
126.589249,33.529064,0
126.589259,33.529197,0
126.589196,33.529289,0
126.589534,33.529461,0
126.589731,33.529662,0
126.589794,33.529704,0
126.589952,33.52975,0
126.590198,33.529757,0
126.590253,33.529733,0
126.59028,33.529776,0
126.590681,33.529375,10
126.591101,33.528995,10
126.591514,33.52857,14.89532
126.591944,33.528158,20
126.591953,33.52815,20
126.592821,33.528723,20.93916
126.593861,33.529454,26.73112
126.593954,33.5294,31.64634
126.594213,33.529252,34.43288
126.594176,33.529192,34.68648
126.594364,33.529137,38.95382
126.594895,33.528892,54.47061
126.595217,33.528686,64.54411
126.595984,33.528506,72.83244
126.59635,33.528563,72.73504
126.596682,33.528783,68.54588
126.597144,33.528928,70
126.597297,33.52896,70
126.597474,33.528951,73.46895
126.597642,33.528931,74.37815
126.597752,33.528873,75.19314
126.598108,33.528922,80
126.598331,33.52897,75.16121
126.598552,33.529054,73.95247
126.598749,33.529091,72.96735
126.599199,33.529157,70.30932
126.59933,33.529548,70
126.599396,33.52986,70
126.599517,33.530047,70
126.599706,33.530143,66.75248
126.59976,33.530377,66.95313
126.599752,33.530465,67.17422
126.599764,33.530507,67.13882
126.600001,33.53086,64.6991
126.60015,33.531207,61.37608
126.600231,33.531297,60.14123
126.60018,33.53139,59.42478
126.600554,33.531565,55.09319
126.600956,33.531635,51.58078
126.600849,33.531853,50
126.601002,33.531993,50
126.601451,33.532071,50
126.602362,33.531715,50
126.6029,33.531696,40
126.602879,33.531821,40
126.602883,33.532,40
126.603004,33.532035,40
126.603928,33.531993,40
126.605462,33.531876,40
126.606463,33.53184,40
126.606591,33.531873,40
126.606882,33.532075,40
126.607116,33.532144,40
126.607316,33.532181,40
126.607576,33.532204,30
126.607774,33.532269,30
126.607996,33.532371,30
126.608099,33.532446,30
126.608161,33.532538,30
126.60828,33.532597,30
126.608614,33.532566,30
126.608983,33.532497,30
126.60997,33.532515,30
126.609978,33.532584,30
126.61012,33.532754,30
126.610118,33.532788,30
126.609931,33.533214,30
126.609549,33.533768,20
126.60951,33.533795,20
126.609379,33.533815,20
126.609262,33.533858,20
126.609103,33.533796,20
126.608951,33.533761,20
126.608862,33.533758,20
126.608751,33.533834,20
126.608725,33.533836,20
126.60862,33.533815,20
126.608527,33.533765,20
126.608317,33.533692,20
126.608112,33.533916,20
126.607867,33.534182,20
126.607894,33.534606,15.61778
126.607862,33.534792,14.83284
126.607894,33.53491,14.12606
126.60787,33.535022,13.6511
126.607693,33.53524,14.06113
126.60766,33.535291,13.68074
126.607654,33.535351,13.12009
126.607657,33.5354,12.62885
126.607748,33.535438,10
126.607766,33.535547,10
126.607833,33.535603,10
126.607936,33.535622,10
126.608066,33.535593,10
126.608228,33.535378,10
126.608358,33.535164,10
126.608485,33.534904,10
126.608613,33.534689,11.35123
126.60885,33.534674,11.73735
126.609055,33.534951,10
126.609268,33.535005,10.83768
126.609409,33.535081,10
126.609742,33.5354,10
126.609898,33.535683,10
126.61015,33.535819,10
126.610256,33.535829,10
126.610402,33.535791,10
126.610569,33.535714,10
126.611143,33.535573,10
126.611517,33.535531,10
126.611725,33.535535,10
126.611949,33.535521,10
126.612004,33.535505,10
126.612041,33.535625,10
126.612167,33.535714,10
126.612032,33.535913,10
126.612089,33.536159,10
126.612359,33.536419,10
126.612424,33.536482,10
126.61285,33.536749,10
126.612968,33.536952,10
126.613038,33.537127,10
126.613163,33.537548,10
126.613255,33.537692,10
126.613602,33.537812,10
126.614122,33.537883,10
126.614384,33.537883,10
126.614621,33.537876,0
126.61474,33.537851,0
126.614786,33.537648,0
126.61485,33.537624,0
126.615218,33.537651,0
126.615562,33.537616,0
126.615639,33.537364,0
126.615704,33.537305,0
126.61583,33.537241,0
126.6161,33.537155,0
126.616429,33.537241,0
126.616462,33.537109,0
126.616527,33.537063,0
126.616534,33.536789,10
126.616796,33.536775,10
126.617552,33.536859,10
126.617626,33.536889,10
126.617734,33.536978,10
126.617717,33.537149,10
126.617748,33.537213,10
126.617874,33.537326,10
126.617841,33.537461,10
126.617841,33.537574,10
126.617859,33.537617,10
126.617888,33.537653,10
126.617938,33.537663,10
126.618014,33.537639,10
126.618081,33.537737,10
126.618165,33.537861,0
126.618484,33.537817,0
126.61861,33.537982,0
126.618834,33.538053,0
126.618932,33.538111,0
126.619027,33.538116,0
126.619399,33.538219,0
126.61941,33.538294,0
126.619432,33.538324,0
126.619504,33.538365,0
126.619928,33.538412,0
126.62002,33.538406,0
126.62015,33.538439,0
126.620284,33.538458,0
126.620327,33.538453,0
126.620371,33.538417,0
126.620448,33.538313,0
126.620469,33.538189,0
126.620646,33.537939,0
126.62137,33.538049,0
126.621615,33.538048,0
126.622169,33.537989,0
126.622116,33.538226,0
126.622129,33.538259,0
126.622277,33.538398,0
126.62251,33.53842,0
126.622777,33.538637,0
126.622817,33.538776,0
126.622885,33.538822,0
126.623119,33.539001,0
126.623237,33.538957,0
126.623648,33.538575,0
126.623704,33.53842,0
126.623806,33.537957,0
126.623882,33.537753,0
126.623902,33.537698,0
126.62389,33.537613,0
126.62385,33.537488,0
126.623839,33.53736,0
126.623783,33.537148,0
126.623721,33.537005,0
126.623691,33.536748,0
126.6242,33.53655,0
126.625,33.536305,10
126.625719,33.536049,10
126.62625,33.535833,10
126.626296,33.535793,10
126.626355,33.53584,10
126.626365,33.536003,10
126.626409,33.536079,10
126.626822,33.536511,10
126.626878,33.536612,10
126.626906,33.536758,10
126.626963,33.536899,10
126.627056,33.536976,10
126.627259,33.53704,10
126.627321,33.537083,10
126.627396,33.537296,10
126.627484,33.537289,10
126.627665,33.537276,0
126.627883,33.537321,0
126.628025,33.53729,0
126.628281,33.537185,0
126.628479,33.537134,0
126.628521,33.537139,0
126.628582,33.537209,0
126.628647,33.537226,0
126.628781,33.537168,0
126.628905,33.537072,0
126.629135,33.537023,0
126.629214,33.537114,0
126.629385,33.537151,0
126.629608,33.537301,0
126.629725,33.537328,0
126.629837,33.53727,0
126.630094,33.537308,0
126.630239,33.537246,0
126.630386,33.537158,0
126.630446,33.537241,0
126.630604,33.537367,0
126.630683,33.537409,0
126.63094,33.537509,0
126.631044,33.537496,0
126.631093,33.537472,0
126.631077,33.537086,0
126.631136,33.536778,0
126.631198,33.536675,0
126.631179,33.536588,0
126.631651,33.53636,0
126.632064,33.536215,0
126.632123,33.536114,0
126.632345,33.536022,0
126.632504,33.535987,0
126.632536,33.535835,10
126.632581,33.535781,10
126.632977,33.535641,10
126.633021,33.535633,10
126.63309,33.535694,10
126.633231,33.535906,10
126.63335,33.536004,10
126.633432,33.536032,10
126.633573,33.536046,10
126.633677,33.536043,10
126.634241,33.535949,10
126.634397,33.535891,10
126.634886,33.535611,10
126.63498,33.535709,10
126.635051,33.535783,0
126.635204,33.535845,0
126.635144,33.535996,0
126.634995,33.536253,0
126.635036,33.536353,0
126.635194,33.536412,0
126.635339,33.536466,0
126.635969,33.536609,0
126.635795,33.536752,0
126.635613,33.537041,0
126.635477,33.537217,0
126.635413,33.537321,0
126.635412,33.537371,0
126.635337,33.53746,0
126.63527,33.53759,0
126.635177,33.537679,0
126.635152,33.537769,0
126.635098,33.537826,0
126.635045,33.537972,0
126.635227,33.5382,0
126.635305,33.538343,0
126.635472,33.538496,0
126.635619,33.53861,0
126.635702,33.538655,0
126.635753,33.53888,0
126.63613,33.539174,0
126.636178,33.539199,0
126.63634,33.539191,0
126.636422,33.539211,0
126.636453,33.539249,0
126.636462,33.53933,0
126.636484,33.539362,0
126.63683,33.539455,0
126.636871,33.539507,0
126.636309,33.539786,0
126.635884,33.539974,0
126.63567,33.540111,0
126.635559,33.540318,0
126.635556,33.540567,0
126.635555,33.540615,0
126.6354,33.541184,0
126.635153,33.541216,0
126.634981,33.541849,0
126.634492,33.542035,0
126.634453,33.542204,0
126.634535,33.542586,0
126.634513,33.542797,0
126.634476,33.542968,0
126.634405,33.543179,0
126.634136,33.543455,0
126.63415,33.543593,0
126.634424,33.543601,0
126.635015,33.543536,0
126.635283,33.543444,0
126.635431,33.543436,0
126.63575,33.543367,0
126.635873,33.543369,0
126.635937,33.543337,0
126.635967,33.543322,0
126.636097,33.543349,0
126.63639,33.543354,0
126.636501,33.543465,0
126.63687,33.543313,0
126.637042,33.542949,0
126.637138,33.542807,0
126.637351,33.542586,0
126.639167,33.541144,0
126.641438,33.539405,10
126.64189,33.53967,10
126.641846,33.539726,10
</coordinates>
    </LineString>
  </MultiGeometry>
</Placemark></Folder>
  </Document>
</kml>