<?xml version="1.0" encoding="utf-8"?>
<gpx version="1.1" creator="Movescount - http://www.movescount.com" xmlns:xsi="http://www.w3.org/2001/XMLSchema-instance" xsi:schemaLocation="http://www.topografix.com/GPX/1/1 http://www.topografix.com/GPX/1/1/gpx.xsd http://www.cluetrust.com/XML/GPXDATA/1/0 http://www.cluetrust.com/Schemas/gpxdata10.xsd http://www.garmin.com/xmlschemas/TrackPointExtension/v1 http://www.garmin.com/xmlschemas/TrackPointExtensionv1.xsd" xmlns:gpxdata="http://www.cluetrust.com/XML/GPXDATA/1/0" xmlns:gpxtpx="http://www.garmin.com/xmlschemas/TrackPointExtension/v1" xmlns="http://www.topografix.com/GPX/1/1">
   <rte>
      <name>ollegil 19</name>
      <rtept lat="33.539734" lon="126.641811" />
      <rtept lat="33.539753" lon="126.641825" />
      <rtept lat="33.540514" lon="126.641212" />
      <rtept lat="33.541436" lon="126.642678" />
      <rtept lat="33.541385" lon="126.642977" />
      <rtept lat="33.54151" lon="126.643178" />
      <rtept lat="33.541718" lon="126.643155" />
      <rtept lat="33.54199" lon="126.64292" />
      <rtept lat="33.542138" lon="126.643026" />
      <rtept lat="33.542325" lon="126.643306" />
      <rtept lat="33.542507" lon="126.643449" />
      <rtept lat="33.542898" lon="126.643611" />
      <rtept lat="33.543052" lon="126.643639" />
      <rtept lat="33.543318" lon="126.643688" />
      <rtept lat="33.543835" lon="126.643899">
         <ele>10</ele>
      </rtept>
      <rtept lat="33.544095" lon="126.644171">
         <ele>10</ele>
      </rtept>
      <rtept lat="33.544254" lon="126.644784">
         <ele>10</ele>
      </rtept>
      <rtept lat="33.544528" lon="126.645159">
         <ele>10</ele>
      </rtept>
      <rtept lat="33.54471" lon="126.64526">
         <ele>10</ele>
      </rtept>
      <rtept lat="33.544989" lon="126.645303">
         <ele>10</ele>
      </rtept>
      <rtept lat="33.54521" lon="126.645526">
         <ele>10</ele>
      </rtept>
      <rtept lat="33.545652" lon="126.645636">
         <ele>10</ele>
      </rtept>
      <rtept lat="33.545852" lon="126.645587">
         <ele>10</ele>
      </rtept>
      <rtept lat="33.545987" lon="126.645618">
         <ele>10</ele>
      </rtept>
      <rtept lat="33.546096" lon="126.645735">
         <ele>10</ele>
      </rtept>
      <rtept lat="33.546231" lon="126.646006">
         <ele>10</ele>
      </rtept>
      <rtept lat="33.54633" lon="126.64613">
         <ele>10</ele>
      </rtept>
      <rtept lat="33.546385" lon="126.646134">
         <ele>10</ele>
      </rtept>
      <rtept lat="33.546586" lon="126.645928">
         <ele>10</ele>
      </rtept>
      <rtept lat="33.546754" lon="126.645756">
         <ele>10</ele>
      </rtept>
      <rtept lat="33.546945" lon="126.645478">
         <ele>10</ele>
      </rtept>
      <rtept lat="33.547146" lon="126.645411">
         <ele>10</ele>
      </rtept>
      <rtept lat="33.547253" lon="126.645297">
         <ele>10</ele>
      </rtept>
      <rtept lat="33.547378" lon="126.645006">
         <ele>10</ele>
      </rtept>
      <rtept lat="33.547614" lon="126.644662">
         <ele>10</ele>
      </rtept>
      <rtept lat="33.547831" lon="126.644151">
         <ele>10</ele>
      </rtept>
      <rtept lat="33.547913" lon="126.643825">
         <ele>10</ele>
      </rtept>
      <rtept lat="33.54805" lon="126.643754">
         <ele>10</ele>
      </rtept>
      <rtept lat="33.548095" lon="126.643567">
         <ele>10</ele>
      </rtept>
      <rtept lat="33.548221" lon="126.643316">
         <ele>10</ele>
      </rtept>
      <rtept lat="33.548242" lon="126.643149">
         <ele>10</ele>
      </rtept>
      <rtept lat="33.548422" lon="126.642841">
         <ele>10</ele>
      </rtept>
      <rtept lat="33.548439" lon="126.642648">
         <ele>10</ele>
      </rtept>
      <rtept lat="33.54853" lon="126.642618">
         <ele>10</ele>
      </rtept>
      <rtept lat="33.548665" lon="126.642379">
         <ele>10</ele>
      </rtept>
      <rtept lat="33.548704" lon="126.642015">
         <ele>10</ele>
      </rtept>
      <rtept lat="33.548923" lon="126.64175">
         <ele>10</ele>
      </rtept>
      <rtept lat="33.548968" lon="126.64148">
         <ele>10</ele>
      </rtept>
      <rtept lat="33.549028" lon="126.641283">
         <ele>10</ele>
      </rtept>
      <rtept lat="33.549146" lon="126.641221">
         <ele>10</ele>
      </rtept>
      <rtept lat="33.549269" lon="126.641217">
         <ele>10</ele>
      </rtept>
      <rtept lat="33.549318" lon="126.641181">
         <ele>10</ele>
      </rtept>
      <rtept lat="33.549362" lon="126.641094">
         <ele>10</ele>
      </rtept>
      <rtept lat="33.549562" lon="126.641269">
         <ele>10</ele>
      </rtept>
      <rtept lat="33.549721" lon="126.64136">
         <ele>10</ele>
      </rtept>
      <rtept lat="33.54996" lon="126.641369">
         <ele>10</ele>
      </rtept>
      <rtept lat="33.550344" lon="126.641257">
         <ele>10</ele>
      </rtept>
      <rtept lat="33.550571" lon="126.641295">
         <ele>10</ele>
      </rtept>
      <rtept lat="33.550751" lon="126.641458">
         <ele>10</ele>
      </rtept>
      <rtept lat="33.551587" lon="126.64235">
         <ele>10</ele>
      </rtept>
      <rtept lat="33.551656" lon="126.642514">
         <ele>10</ele>
      </rtept>
      <rtept lat="33.551696" lon="126.64274">
         <ele>10</ele>
      </rtept>
      <rtept lat="33.551688" lon="126.642982">
         <ele>10</ele>
      </rtept>
      <rtept lat="33.551636" lon="126.643432">
         <ele>10</ele>
      </rtept>
      <rtept lat="33.551669" lon="126.643618">
         <ele>10</ele>
      </rtept>
      <rtept lat="33.551755" lon="126.64378">
         <ele>10</ele>
      </rtept>
      <rtept lat="33.551839" lon="126.643875">
         <ele>10</ele>
      </rtept>
      <rtept lat="33.551952" lon="126.64396">
         <ele>10</ele>
      </rtept>
      <rtept lat="33.552097" lon="126.643968">
         <ele>10</ele>
      </rtept>
      <rtept lat="33.552266" lon="126.643932">
         <ele>10</ele>
      </rtept>
      <rtept lat="33.552606" lon="126.643745">
         <ele>10</ele>
      </rtept>
      <rtept lat="33.552944" lon="126.643592">
         <ele>10</ele>
      </rtept>
      <rtept lat="33.553352" lon="126.643806">
         <ele>10</ele>
      </rtept>
      <rtept lat="33.553686" lon="126.644011">
         <ele>10</ele>
      </rtept>
      <rtept lat="33.553817" lon="126.64407">
         <ele>10</ele>
      </rtept>
      <rtept lat="33.554459" lon="126.644446">
         <ele>10</ele>
      </rtept>
      <rtept lat="33.554774" lon="126.644573">
         <ele>10</ele>
      </rtept>
      <rtept lat="33.554977" lon="126.644595">
         <ele>10</ele>
      </rtept>
      <rtept lat="33.555002" lon="126.64468">
         <ele>10</ele>
      </rtept>
      <rtept lat="33.554916" lon="126.644899">
         <ele>10</ele>
      </rtept>
      <rtept lat="33.554748" lon="126.645086">
         <ele>10</ele>
      </rtept>
      <rtept lat="33.55466" lon="126.64541">
         <ele>10</ele>
      </rtept>
      <rtept lat="33.554569" lon="126.645546">
         <ele>10</ele>
      </rtept>
      <rtept lat="33.554526" lon="126.645875">
         <ele>10</ele>
      </rtept>
      <rtept lat="33.55467" lon="126.646842">
         <ele>10</ele>
      </rtept>
      <rtept lat="33.554588" lon="126.646962">
         <ele>10</ele>
      </rtept>
      <rtept lat="33.554294" lon="126.647199">
         <ele>10</ele>
      </rtept>
      <rtept lat="33.553723" lon="126.647523">
         <ele>10</ele>
      </rtept>
      <rtept lat="33.553346" lon="126.648074">
         <ele>10</ele>
      </rtept>
      <rtept lat="33.552934" lon="126.649226">
         <ele>10</ele>
      </rtept>
      <rtept lat="33.552832" lon="126.649334">
         <ele>10</ele>
      </rtept>
      <rtept lat="33.552565" lon="126.649355">
         <ele>10</ele>
      </rtept>
      <rtept lat="33.55229" lon="126.649239">
         <ele>10</ele>
      </rtept>
      <rtept lat="33.551869" lon="126.648612">
         <ele>10</ele>
      </rtept>
      <rtept lat="33.551752" lon="126.64834">
         <ele>10</ele>
      </rtept>
      <rtept lat="33.551072" lon="126.64879">
         <ele>10</ele>
      </rtept>
      <rtept lat="33.550742" lon="126.648395">
         <ele>10</ele>
      </rtept>
      <rtept lat="33.550034" lon="126.64824">
         <ele>10</ele>
      </rtept>
      <rtept lat="33.5498" lon="126.647944">
         <ele>10</ele>
      </rtept>
      <rtept lat="33.549556" lon="126.647634" />
      <rtept lat="33.549434" lon="126.647611" />
      <rtept lat="33.549287" lon="126.647678" />
      <rtept lat="33.549068" lon="126.64779" />
      <rtept lat="33.548951" lon="126.648188" />
      <rtept lat="33.548864" lon="126.64856" />
      <rtept lat="33.548728" lon="126.649421" />
      <rtept lat="33.548704" lon="126.649725" />
      <rtept lat="33.54876" lon="126.650738" />
      <rtept lat="33.54879" lon="126.650884" />
      <rtept lat="33.548569" lon="126.650979" />
      <rtept lat="33.5485" lon="126.651169" />
      <rtept lat="33.54848" lon="126.651382" />
      <rtept lat="33.547492" lon="126.65179" />
      <rtept lat="33.547525" lon="126.651879" />
      <rtept lat="33.547516" lon="126.652026" />
      <rtept lat="33.547511" lon="126.652098" />
      <rtept lat="33.547608" lon="126.652271" />
      <rtept lat="33.54767" lon="126.652489" />
      <rtept lat="33.547658" lon="126.653788" />
      <rtept lat="33.547635" lon="126.653893" />
      <rtept lat="33.547385" lon="126.654267" />
      <rtept lat="33.547145" lon="126.654798" />
      <rtept lat="33.547092" lon="126.654854" />
      <rtept lat="33.546935" lon="126.654887" />
      <rtept lat="33.546893" lon="126.654931" />
      <rtept lat="33.546868" lon="126.655057" />
      <rtept lat="33.546805" lon="126.655202" />
      <rtept lat="33.546416" lon="126.655536" />
      <rtept lat="33.545963" lon="126.655501">
         <ele>10</ele>
      </rtept>
      <rtept lat="33.545892" lon="126.655549">
         <ele>10</ele>
      </rtept>
      <rtept lat="33.545763" lon="126.655902">
         <ele>10</ele>
      </rtept>
      <rtept lat="33.545655" lon="126.656368">
         <ele>10</ele>
      </rtept>
      <rtept lat="33.545633" lon="126.656518">
         <ele>10</ele>
      </rtept>
      <rtept lat="33.545657" lon="126.656596">
         <ele>10</ele>
      </rtept>
      <rtept lat="33.545739" lon="126.656737">
         <ele>10</ele>
      </rtept>
      <rtept lat="33.545703" lon="126.657257">
         <ele>10</ele>
      </rtept>
      <rtept lat="33.545859" lon="126.657489">
         <ele>10</ele>
      </rtept>
      <rtept lat="33.545806" lon="126.657695">
         <ele>10</ele>
      </rtept>
      <rtept lat="33.545639" lon="126.658059">
         <ele>10</ele>
      </rtept>
      <rtept lat="33.545564" lon="126.658222">
         <ele>10</ele>
      </rtept>
      <rtept lat="33.545471" lon="126.65851">
         <ele>10</ele>
      </rtept>
      <rtept lat="33.545483" lon="126.65872">
         <ele>10</ele>
      </rtept>
      <rtept lat="33.545404" lon="126.659019">
         <ele>10</ele>
      </rtept>
      <rtept lat="33.545598" lon="126.659236">
         <ele>10</ele>
      </rtept>
      <rtept lat="33.545729" lon="126.659324">
         <ele>10</ele>
      </rtept>
      <rtept lat="33.545723" lon="126.65957">
         <ele>10</ele>
      </rtept>
      <rtept lat="33.545739" lon="126.659768">
         <ele>10</ele>
      </rtept>
      <rtept lat="33.545788" lon="126.660037">
         <ele>10</ele>
      </rtept>
      <rtept lat="33.545747" lon="126.66018">
         <ele>10</ele>
      </rtept>
      <rtept lat="33.54575" lon="126.660382">
         <ele>10</ele>
      </rtept>
      <rtept lat="33.545773" lon="126.66046">
         <ele>10</ele>
      </rtept>
      <rtept lat="33.545753" lon="126.660553">
         <ele>10</ele>
      </rtept>
      <rtept lat="33.545711" lon="126.660645">
         <ele>10</ele>
      </rtept>
      <rtept lat="33.545639" lon="126.660723">
         <ele>10</ele>
      </rtept>
      <rtept lat="33.545426" lon="126.660828">
         <ele>10</ele>
      </rtept>
      <rtept lat="33.545446" lon="126.660939">
         <ele>10</ele>
      </rtept>
      <rtept lat="33.545437" lon="126.660958">
         <ele>10</ele>
      </rtept>
      <rtept lat="33.54529" lon="126.661052">
         <ele>10</ele>
      </rtept>
      <rtept lat="33.545238" lon="126.661116">
         <ele>10</ele>
      </rtept>
      <rtept lat="33.545252" lon="126.661189">
         <ele>10</ele>
      </rtept>
      <rtept lat="33.545561" lon="126.661609">
         <ele>10</ele>
      </rtept>
      <rtept lat="33.545842" lon="126.661828">
         <ele>10</ele>
      </rtept>
      <rtept lat="33.545811" lon="126.662043">
         <ele>10</ele>
      </rtept>
      <rtept lat="33.545502" lon="126.662293">
         <ele>10</ele>
      </rtept>
      <rtept lat="33.545359" lon="126.662368">
         <ele>10</ele>
      </rtept>
      <rtept lat="33.544992" lon="126.662466">
         <ele>10</ele>
      </rtept>
      <rtept lat="33.544854" lon="126.662548">
         <ele>10</ele>
      </rtept>
      <rtept lat="33.544725" lon="126.662676">
         <ele>10</ele>
      </rtept>
      <rtept lat="33.544349" lon="126.663239">
         <ele>10</ele>
      </rtept>
      <rtept lat="33.544122" lon="126.663431">
         <ele>10</ele>
      </rtept>
      <rtept lat="33.543663" lon="126.66362">
         <ele>10</ele>
      </rtept>
      <rtept lat="33.543427" lon="126.663904">
         <ele>10</ele>
      </rtept>
      <rtept lat="33.542947" lon="126.664915">
         <ele>10</ele>
      </rtept>
      <rtept lat="33.542853" lon="126.665138">
         <ele>10</ele>
      </rtept>
      <rtept lat="33.542726" lon="126.665545">
         <ele>10</ele>
      </rtept>
      <rtept lat="33.542715" lon="126.66715">
         <ele>10</ele>
      </rtept>
      <rtept lat="33.542651" lon="126.668397">
         <ele>10</ele>
      </rtept>
      <rtept lat="33.542817" lon="126.668426">
         <ele>10</ele>
      </rtept>
      <rtept lat="33.542822" lon="126.668837">
         <ele>10</ele>
      </rtept>
      <rtept lat="33.54286" lon="126.669875" />
      <rtept lat="33.54321" lon="126.669869" />
      <rtept lat="33.54328" lon="126.669896" />
      <rtept lat="33.543308" lon="126.669927" />
      <rtept lat="33.543366" lon="126.670102" />
      <rtept lat="33.54359" lon="126.670278" />
      <rtept lat="33.54385" lon="126.670859" />
      <rtept lat="33.544198" lon="126.671041" />
      <rtept lat="33.544384" lon="126.671294" />
      <rtept lat="33.544399" lon="126.671402" />
      <rtept lat="33.544321" lon="126.671514" />
      <rtept lat="33.544466" lon="126.671691" />
      <rtept lat="33.544647" lon="126.672444">
         <ele>10</ele>
      </rtept>
      <rtept lat="33.54456" lon="126.672886">
         <ele>10</ele>
      </rtept>
      <rtept lat="33.544391" lon="126.673196">
         <ele>10</ele>
      </rtept>
      <rtept lat="33.544414" lon="126.673404">
         <ele>10</ele>
      </rtept>
      <rtept lat="33.544493" lon="126.673508">
         <ele>10</ele>
      </rtept>
      <rtept lat="33.544456" lon="126.673681">
         <ele>10</ele>
      </rtept>
      <rtept lat="33.544492" lon="126.673791">
         <ele>10</ele>
      </rtept>
      <rtept lat="33.54447" lon="126.674232">
         <ele>10</ele>
      </rtept>
      <rtept lat="33.544787" lon="126.674495">
         <ele>10</ele>
      </rtept>
      <rtept lat="33.545106" lon="126.674648">
         <ele>10</ele>
      </rtept>
      <rtept lat="33.545375" lon="126.674694">
         <ele>10</ele>
      </rtept>
      <rtept lat="33.545898" lon="126.674641">
         <ele>10.48462</ele>
      </rtept>
      <rtept lat="33.546009" lon="126.674674">
         <ele>12.25342</ele>
      </rtept>
      <rtept lat="33.546239" lon="126.674598">
         <ele>13.83065</ele>
      </rtept>
      <rtept lat="33.546489" lon="126.675176">
         <ele>24.56173</ele>
      </rtept>
      <rtept lat="33.546713" lon="126.676254">
         <ele>46.19418</ele>
      </rtept>
      <rtept lat="33.547232" lon="126.676801">
         <ele>61.48268</ele>
      </rtept>
      <rtept lat="33.547309" lon="126.676957">
         <ele>65.00992</ele>
      </rtept>
      <rtept lat="33.547355" lon="126.67741">
         <ele>74.20845</ele>
      </rtept>
      <rtept lat="33.547522" lon="126.677502">
         <ele>74.74635</ele>
      </rtept>
      <rtept lat="33.547597" lon="126.677479">
         <ele>73.9537</ele>
      </rtept>
      <rtept lat="33.547963" lon="126.677248">
         <ele>68.26667</ele>
      </rtept>
      <rtept lat="33.548043" lon="126.677198">
         <ele>66.9406</ele>
      </rtept>
      <rtept lat="33.548175" lon="126.677424">
         <ele>71.25476</ele>
      </rtept>
      <rtept lat="33.548391" lon="126.677537">
         <ele>73.26733</ele>
      </rtept>
      <rtept lat="33.548528" lon="126.677526">
         <ele>73.10455</ele>
      </rtept>
      <rtept lat="33.548681" lon="126.677596">
         <ele>74.63772</ele>
      </rtept>
      <rtept lat="33.548718" lon="126.677508">
         <ele>72.93875</ele>
      </rtept>
      <rtept lat="33.548933" lon="126.677522">
         <ele>73.52375</ele>
      </rtept>
      <rtept lat="33.549237" lon="126.677346">
         <ele>69.13474</ele>
      </rtept>
      <rtept lat="33.549392" lon="126.677362">
         <ele>71.39834</ele>
      </rtept>
      <rtept lat="33.549438" lon="126.677208">
         <ele>68.61156</ele>
      </rtept>
      <rtept lat="33.549701" lon="126.677198">
         <ele>68.58934</ele>
      </rtept>
      <rtept lat="33.549781" lon="126.677075">
         <ele>65.78012</ele>
      </rtept>
      <rtept lat="33.549926" lon="126.677027">
         <ele>64.24456</ele>
      </rtept>
      <rtept lat="33.549985" lon="126.677084">
         <ele>65.28477</ele>
      </rtept>
      <rtept lat="33.550036" lon="126.677354">
         <ele>69.01384</ele>
      </rtept>
      <rtept lat="33.550154" lon="126.677537">
         <ele>67.63398</ele>
      </rtept>
      <rtept lat="33.550469" lon="126.677815">
         <ele>67.73427</ele>
      </rtept>
      <rtept lat="33.550652" lon="126.677862">
         <ele>69.53986</ele>
      </rtept>
      <rtept lat="33.550664" lon="126.677878">
         <ele>69.68568</ele>
      </rtept>
      <rtept lat="33.550714" lon="126.677946">
         <ele>69.54578</ele>
      </rtept>
      <rtept lat="33.55072" lon="126.6781">
         <ele>69.53433</ele>
      </rtept>
      <rtept lat="33.550867" lon="126.677977">
         <ele>66.45061</ele>
      </rtept>
      <rtept lat="33.550965" lon="126.677965">
         <ele>64.40035</ele>
      </rtept>
      <rtept lat="33.551028" lon="126.67909">
         <ele>55.88699</ele>
      </rtept>
      <rtept lat="33.55097" lon="126.680098">
         <ele>43.02762</ele>
      </rtept>
      <rtept lat="33.550783" lon="126.680294">
         <ele>42.30136</ele>
      </rtept>
      <rtept lat="33.550779" lon="126.68053">
         <ele>38.67821</ele>
      </rtept>
      <rtept lat="33.550271" lon="126.681074">
         <ele>33.9817</ele>
      </rtept>
      <rtept lat="33.55009" lon="126.681361">
         <ele>29.18257</ele>
      </rtept>
      <rtept lat="33.549872" lon="126.681562">
         <ele>29.12395</ele>
      </rtept>
      <rtept lat="33.549656" lon="126.682055">
         <ele>15.21151</ele>
      </rtept>
      <rtept lat="33.549268" lon="126.682487">
         <ele>15.36818</ele>
      </rtept>
      <rtept lat="33.549188" lon="126.682804">
         <ele>18.23327</ele>
      </rtept>
      <rtept lat="33.548698" lon="126.683313">
         <ele>14.20547</ele>
      </rtept>
      <rtept lat="33.548374" lon="126.683482">
         <ele>19.15116</ele>
      </rtept>
      <rtept lat="33.547922" lon="126.684375">
         <ele>12.20902</ele>
      </rtept>
      <rtept lat="33.54787" lon="126.684658">
         <ele>11.00023</ele>
      </rtept>
      <rtept lat="33.548036" lon="126.68488">
         <ele>10</ele>
      </rtept>
      <rtept lat="33.5481" lon="126.68508">
         <ele>10</ele>
      </rtept>
      <rtept lat="33.548069" lon="126.685335">
         <ele>10</ele>
      </rtept>
      <rtept lat="33.548067" lon="126.68548">
         <ele>10</ele>
      </rtept>
      <rtept lat="33.548088" lon="126.685626">
         <ele>10</ele>
      </rtept>
      <rtept lat="33.547942" lon="126.685742">
         <ele>10</ele>
      </rtept>
      <rtept lat="33.547917" lon="126.685871">
         <ele>10</ele>
      </rtept>
      <rtept lat="33.547725" lon="126.685945">
         <ele>10</ele>
      </rtept>
      <rtept lat="33.547694" lon="126.685978">
         <ele>10</ele>
      </rtept>
      <rtept lat="33.547677" lon="126.686035">
         <ele>10</ele>
      </rtept>
      <rtept lat="33.547684" lon="126.686146">
         <ele>10</ele>
      </rtept>
      <rtept lat="33.547666" lon="126.686342">
         <ele>10</ele>
      </rtept>
      <rtept lat="33.547566" lon="126.68667">
         <ele>10</ele>
      </rtept>
      <rtept lat="33.547457" lon="126.686799">
         <ele>10</ele>
      </rtept>
      <rtept lat="33.547165" lon="126.687086">
         <ele>10</ele>
      </rtept>
      <rtept lat="33.546999" lon="126.687135">
         <ele>10</ele>
      </rtept>
      <rtept lat="33.546952" lon="126.687167">
         <ele>10</ele>
      </rtept>
      <rtept lat="33.546823" lon="126.687343">
         <ele>10</ele>
      </rtept>
      <rtept lat="33.546769" lon="126.687525">
         <ele>10</ele>
      </rtept>
      <rtept lat="33.546604" lon="126.687682">
         <ele>10</ele>
      </rtept>
      <rtept lat="33.546508" lon="126.687818">
         <ele>10</ele>
      </rtept>
      <rtept lat="33.54647" lon="126.688187">
         <ele>10</ele>
      </rtept>
      <rtept lat="33.546359" lon="126.68854">
         <ele>10</ele>
      </rtept>
      <rtept lat="33.546309" lon="126.688667">
         <ele>10</ele>
      </rtept>
      <rtept lat="33.546217" lon="126.688812">
         <ele>10</ele>
      </rtept>
      <rtept lat="33.546116" lon="126.688908">
         <ele>10</ele>
      </rtept>
      <rtept lat="33.546146" lon="126.688952">
         <ele>10</ele>
      </rtept>
      <rtept lat="33.546248" lon="126.689002">
         <ele>10</ele>
      </rtept>
      <rtept lat="33.546528" lon="126.688964">
         <ele>10</ele>
      </rtept>
      <rtept lat="33.546635" lon="126.688934">
         <ele>10</ele>
      </rtept>
      <rtept lat="33.546823" lon="126.68895">
         <ele>10</ele>
      </rtept>
      <rtept lat="33.546859" lon="126.688982">
         <ele>10</ele>
      </rtept>
      <rtept lat="33.546963" lon="126.689268">
         <ele>10</ele>
      </rtept>
      <rtept lat="33.546998" lon="126.689325">
         <ele>10</ele>
      </rtept>
      <rtept lat="33.547203" lon="126.689454">
         <ele>10</ele>
      </rtept>
      <rtept lat="33.547321" lon="126.689703">
         <ele>10</ele>
      </rtept>
      <rtept lat="33.547368" lon="126.689742">
         <ele>10</ele>
      </rtept>
      <rtept lat="33.547551" lon="126.689727">
         <ele>10</ele>
      </rtept>
      <rtept lat="33.547742" lon="126.689805">
         <ele>10</ele>
      </rtept>
      <rtept lat="33.547912" lon="126.689797">
         <ele>10</ele>
      </rtept>
      <rtept lat="33.548079" lon="126.689748">
         <ele>10</ele>
      </rtept>
      <rtept lat="33.548129" lon="126.689751">
         <ele>10</ele>
      </rtept>
      <rtept lat="33.548195" lon="126.689856">
         <ele>10</ele>
      </rtept>
      <rtept lat="33.548213" lon="126.69028">
         <ele>10</ele>
      </rtept>
      <rtept lat="33.548243" lon="126.690361">
         <ele>10</ele>
      </rtept>
      <rtept lat="33.54834" lon="126.690396">
         <ele>10</ele>
      </rtept>
      <rtept lat="33.548789" lon="126.690362">
         <ele>10</ele>
      </rtept>
      <rtept lat="33.548854" lon="126.690284">
         <ele>10</ele>
      </rtept>
      <rtept lat="33.549009" lon="126.69002">
         <ele>10</ele>
      </rtept>
      <rtept lat="33.549126" lon="126.689936">
         <ele>10</ele>
      </rtept>
      <rtept lat="33.549395" lon="126.689938">
         <ele>10</ele>
      </rtept>
      <rtept lat="33.549672" lon="126.689941" />
      <rtept lat="33.550097" lon="126.690357" />
      <rtept lat="33.550213" lon="126.690633" />
      <rtept lat="33.550184" lon="126.691279" />
      <rtept lat="33.550452" lon="126.691225" />
      <rtept lat="33.550543" lon="126.691129" />
      <rtept lat="33.550579" lon="126.691143" />
      <rtept lat="33.550875" lon="126.691592" />
      <rtept lat="33.550801" lon="126.691873" />
      <rtept lat="33.55074" lon="126.692023" />
      <rtept lat="33.550574" lon="126.692589" />
      <rtept lat="33.550713" lon="126.692641" />
      <rtept lat="33.550794" lon="126.692641" />
      <rtept lat="33.550893" lon="126.69284" />
      <rtept lat="33.551018" lon="126.692913" />
      <rtept lat="33.551274" lon="126.693435" />
      <rtept lat="33.551407" lon="126.693555" />
      <rtept lat="33.551424" lon="126.693676" />
      <rtept lat="33.551155" lon="126.693875" />
      <rtept lat="33.550857" lon="126.693967" />
      <rtept lat="33.550683" lon="126.694" />
      <rtept lat="33.550417" lon="126.694122" />
      <rtept lat="33.550334" lon="126.69416" />
      <rtept lat="33.550238" lon="126.69427" />
      <rtept lat="33.550482" lon="126.694561" />
      <rtept lat="33.550508" lon="126.694612" />
      <rtept lat="33.550517" lon="126.69468" />
      <rtept lat="33.550472" lon="126.694805" />
      <rtept lat="33.550184" lon="126.695146" />
      <rtept lat="33.550137" lon="126.695263" />
      <rtept lat="33.550391" lon="126.695477" />
      <rtept lat="33.550619" lon="126.695602" />
      <rtept lat="33.550814" lon="126.695815" />
      <rtept lat="33.551048" lon="126.695824" />
      <rtept lat="33.551288" lon="126.695954" />
      <rtept lat="33.551246" lon="126.696019" />
      <rtept lat="33.551184" lon="126.696115" />
      <rtept lat="33.551012" lon="126.696625" />
      <rtept lat="33.55081" lon="126.696824">
         <ele>10</ele>
      </rtept>
      <rtept lat="33.550697" lon="126.696967">
         <ele>10</ele>
      </rtept>
      <rtept lat="33.550668" lon="126.69704">
         <ele>10</ele>
      </rtept>
      <rtept lat="33.550618" lon="126.697473">
         <ele>10</ele>
      </rtept>
      <rtept lat="33.550564" lon="126.697542">
         <ele>10</ele>
      </rtept>
      <rtept lat="33.550018" lon="126.697839">
         <ele>10</ele>
      </rtept>
      <rtept lat="33.549833" lon="126.697993">
         <ele>10</ele>
      </rtept>
      <rtept lat="33.549964" lon="126.698168">
         <ele>10</ele>
      </rtept>
      <rtept lat="33.549854" lon="126.698278">
         <ele>10</ele>
      </rtept>
      <rtept lat="33.550029" lon="126.69855">
         <ele>10</ele>
      </rtept>
      <rtept lat="33.54996" lon="126.698649">
         <ele>10</ele>
      </rtept>
      <rtept lat="33.549921" lon="126.698758">
         <ele>20</ele>
      </rtept>
      <rtept lat="33.549923" lon="126.698982">
         <ele>20</ele>
      </rtept>
      <rtept lat="33.549909" lon="126.699038">
         <ele>20</ele>
      </rtept>
      <rtept lat="33.549887" lon="126.699091">
         <ele>20</ele>
      </rtept>
      <rtept lat="33.549789" lon="126.699218">
         <ele>20</ele>
      </rtept>
      <rtept lat="33.549779" lon="126.699261">
         <ele>20</ele>
      </rtept>
      <rtept lat="33.549819" lon="126.699547">
         <ele>20</ele>
      </rtept>
      <rtept lat="33.549778" lon="126.699769">
         <ele>20</ele>
      </rtept>
      <rtept lat="33.549699" lon="126.699933">
         <ele>20</ele>
      </rtept>
      <rtept lat="33.549432" lon="126.700244">
         <ele>20</ele>
      </rtept>
      <rtept lat="33.549324" lon="126.700392">
         <ele>20</ele>
      </rtept>
      <rtept lat="33.549192" lon="126.70069">
         <ele>20</ele>
      </rtept>
      <rtept lat="33.549032" lon="126.70097">
         <ele>20</ele>
      </rtept>
      <rtept lat="33.548921" lon="126.701038">
         <ele>20</ele>
      </rtept>
      <rtept lat="33.548856" lon="126.701101">
         <ele>20</ele>
      </rtept>
      <rtept lat="33.548808" lon="126.701338">
         <ele>20</ele>
      </rtept>
      <rtept lat="33.548583" lon="126.702115">
         <ele>20</ele>
      </rtept>
      <rtept lat="33.548558" lon="126.702255">
         <ele>20</ele>
      </rtept>
      <rtept lat="33.548456" lon="126.70249">
         <ele>20</ele>
      </rtept>
      <rtept lat="33.548415" lon="126.70263">
         <ele>20</ele>
      </rtept>
      <rtept lat="33.548376" lon="126.702889">
         <ele>20</ele>
      </rtept>
      <rtept lat="33.548294" lon="126.703146">
         <ele>20</ele>
      </rtept>
      <rtept lat="33.548249" lon="126.703333">
         <ele>20</ele>
      </rtept>
      <rtept lat="33.548257" lon="126.703406">
         <ele>20</ele>
      </rtept>
      <rtept lat="33.5484" lon="126.70355">
         <ele>20</ele>
      </rtept>
      <rtept lat="33.548437" lon="126.703613">
         <ele>20</ele>
      </rtept>
      <rtept lat="33.548439" lon="126.703687">
         <ele>20</ele>
      </rtept>
      <rtept lat="33.548433" lon="126.703777">
         <ele>20</ele>
      </rtept>
      <rtept lat="33.548288" lon="126.70426">
         <ele>20</ele>
      </rtept>
      <rtept lat="33.548267" lon="126.704443">
         <ele>20</ele>
      </rtept>
      <rtept lat="33.548239" lon="126.704504">
         <ele>20</ele>
      </rtept>
      <rtept lat="33.548206" lon="126.704533">
         <ele>20</ele>
      </rtept>
      <rtept lat="33.548096" lon="126.70457">
         <ele>20</ele>
      </rtept>
      <rtept lat="33.548025" lon="126.70465">
         <ele>20</ele>
      </rtept>
      <rtept lat="33.547964" lon="126.70484">
         <ele>20</ele>
      </rtept>
      <rtept lat="33.547874" lon="126.705008">
         <ele>20</ele>
      </rtept>
      <rtept lat="33.547807" lon="126.705193">
         <ele>20</ele>
      </rtept>
      <rtept lat="33.547374" lon="126.705419">
         <ele>20</ele>
      </rtept>
      <rtept lat="33.547876" lon="126.705968">
         <ele>20</ele>
      </rtept>
      <rtept lat="33.547681" lon="126.706149">
         <ele>20</ele>
      </rtept>
      <rtept lat="33.547167" lon="126.706508">
         <ele>20</ele>
      </rtept>
      <rtept lat="33.546645" lon="126.706543">
         <ele>20</ele>
      </rtept>
      <rtept lat="33.546673" lon="126.706892">
         <ele>20</ele>
      </rtept>
      <rtept lat="33.546888" lon="126.707044">
         <ele>20</ele>
      </rtept>
      <rtept lat="33.547032" lon="126.707359">
         <ele>20</ele>
      </rtept>
      <rtept lat="33.547046" lon="126.707582">
         <ele>20</ele>
      </rtept>
      <rtept lat="33.54696" lon="126.707817">
         <ele>20</ele>
      </rtept>
      <rtept lat="33.547216" lon="126.707874">
         <ele>20</ele>
      </rtept>
      <rtept lat="33.547376" lon="126.707976">
         <ele>20</ele>
      </rtept>
      <rtept lat="33.547482" lon="126.708189">
         <ele>20</ele>
      </rtept>
      <rtept lat="33.547552" lon="126.70849">
         <ele>20</ele>
      </rtept>
      <rtept lat="33.547844" lon="126.708775">
         <ele>20</ele>
      </rtept>
      <rtept lat="33.547901" lon="126.708886">
         <ele>20</ele>
      </rtept>
      <rtept lat="33.547942" lon="126.709104">
         <ele>20</ele>
      </rtept>
      <rtept lat="33.548065" lon="126.709333">
         <ele>20</ele>
      </rtept>
      <rtept lat="33.548093" lon="126.709386" />
      <rtept lat="33.548134" lon="126.709592" />
      <rtept lat="33.548007" lon="126.709627" />
      <rtept lat="33.547632" lon="126.709672" />
      <rtept lat="33.547445" lon="126.709714" />
      <rtept lat="33.547203" lon="126.709803" />
      <rtept lat="33.546973" lon="126.709981" />
      <rtept lat="33.546797" lon="126.710173" />
      <rtept lat="33.546529" lon="126.710653" />
      <rtept lat="33.546091" lon="126.710678" />
      <rtept lat="33.545659" lon="126.710553">
         <ele>30</ele>
      </rtept>
      <rtept lat="33.545147" lon="126.710628">
         <ele>30</ele>
      </rtept>
      <rtept lat="33.544753" lon="126.710574">
         <ele>30</ele>
      </rtept>
      <rtept lat="33.544053" lon="126.710608">
         <ele>30</ele>
      </rtept>
      <rtept lat="33.543786" lon="126.71056">
         <ele>30</ele>
      </rtept>
      <rtept lat="33.543754" lon="126.710728">
         <ele>30</ele>
      </rtept>
      <rtept lat="33.543563" lon="126.710915">
         <ele>30</ele>
      </rtept>
      <rtept lat="33.543348" lon="126.710983">
         <ele>30</ele>
      </rtept>
      <rtept lat="33.543097" lon="126.711171">
         <ele>30</ele>
      </rtept>
      <rtept lat="33.542826" lon="126.7111">
         <ele>30</ele>
      </rtept>
      <rtept lat="33.542467" lon="126.711386">
         <ele>30</ele>
      </rtept>
      <rtept lat="33.542258" lon="126.711426">
         <ele>30</ele>
      </rtept>
      <rtept lat="33.542004" lon="126.711797">
         <ele>40</ele>
      </rtept>
      <rtept lat="33.542009" lon="126.712213">
         <ele>40</ele>
      </rtept>
      <rtept lat="33.541889" lon="126.712398">
         <ele>40</ele>
      </rtept>
      <rtept lat="33.541733" lon="126.712379">
         <ele>40</ele>
      </rtept>
      <rtept lat="33.541708" lon="126.712443">
         <ele>40</ele>
      </rtept>
      <rtept lat="33.541742" lon="126.712731">
         <ele>40</ele>
      </rtept>
      <rtept lat="33.541688" lon="126.713555">
         <ele>40</ele>
      </rtept>
      <rtept lat="33.541753" lon="126.713956">
         <ele>40</ele>
      </rtept>
      <rtept lat="33.541748" lon="126.714205">
         <ele>40</ele>
      </rtept>
      <rtept lat="33.541521" lon="126.714315">
         <ele>40</ele>
      </rtept>
      <rtept lat="33.54125" lon="126.714261">
         <ele>40</ele>
      </rtept>
      <rtept lat="33.541195" lon="126.714472">
         <ele>40</ele>
      </rtept>
      <rtept lat="33.540869" lon="126.714726">
         <ele>40</ele>
      </rtept>
      <rtept lat="33.540708" lon="126.714944">
         <ele>40</ele>
      </rtept>
      <rtept lat="33.54095" lon="126.715218">
         <ele>40</ele>
      </rtept>
      <rtept lat="33.540972" lon="126.715329">
         <ele>40</ele>
      </rtept>
      <rtept lat="33.540941" lon="126.715462">
         <ele>40</ele>
      </rtept>
      <rtept lat="33.540618" lon="126.71584">
         <ele>50</ele>
      </rtept>
      <rtept lat="33.54078" lon="126.716137">
         <ele>50</ele>
      </rtept>
      <rtept lat="33.540718" lon="126.716327">
         <ele>50</ele>
      </rtept>
      <rtept lat="33.540658" lon="126.716394">
         <ele>50</ele>
      </rtept>
      <rtept lat="33.540464" lon="126.716359">
         <ele>50</ele>
      </rtept>
      <rtept lat="33.540337" lon="126.716394">
         <ele>50</ele>
      </rtept>
      <rtept lat="33.540183" lon="126.716609">
         <ele>50</ele>
      </rtept>
      <rtept lat="33.540062" lon="126.716692">
         <ele>50</ele>
      </rtept>
      <rtept lat="33.539775" lon="126.716764">
         <ele>50</ele>
      </rtept>
      <rtept lat="33.539641" lon="126.716842">
         <ele>50</ele>
      </rtept>
      <rtept lat="33.539305" lon="126.716873">
         <ele>60</ele>
      </rtept>
      <rtept lat="33.53911" lon="126.717028">
         <ele>60</ele>
      </rtept>
      <rtept lat="33.538805" lon="126.71708">
         <ele>60</ele>
      </rtept>
      <rtept lat="33.538201" lon="126.717505">
         <ele>60</ele>
      </rtept>
      <rtept lat="33.537986" lon="126.717548">
         <ele>60</ele>
      </rtept>
      <rtept lat="33.537826" lon="126.717675">
         <ele>60</ele>
      </rtept>
      <rtept lat="33.53759" lon="126.717862" />
      <rtept lat="33.53741" lon="126.718157">
         <ele>60</ele>
      </rtept>
      <rtept lat="33.537221" lon="126.718237">
         <ele>60</ele>
      </rtept>
      <rtept lat="33.537067" lon="126.718502">
         <ele>60</ele>
      </rtept>
      <rtept lat="33.536881" lon="126.718712">
         <ele>60</ele>
      </rtept>
      <rtept lat="33.536338" lon="126.719185">
         <ele>60</ele>
      </rtept>
      <rtept lat="33.535959" lon="126.719322">
         <ele>60</ele>
      </rtept>
      <rtept lat="33.535777" lon="126.719454">
         <ele>60</ele>
      </rtept>
      <rtept lat="33.535222" lon="126.719854" />
      <rtept lat="33.534539" lon="126.720969" />
      <rtept lat="33.534436" lon="126.721052" />
      <rtept lat="33.534403" lon="126.721277">
         <ele>60</ele>
      </rtept>
      <rtept lat="33.534441" lon="126.721686">
         <ele>60</ele>
      </rtept>
      <rtept lat="33.534842" lon="126.72188">
         <ele>60</ele>
      </rtept>
      <rtept lat="33.534902" lon="126.722069">
         <ele>60</ele>
      </rtept>
      <rtept lat="33.534717" lon="126.722654">
         <ele>60</ele>
      </rtept>
      <rtept lat="33.534768" lon="126.722912">
         <ele>60</ele>
      </rtept>
      <rtept lat="33.534854" lon="126.722985">
         <ele>60</ele>
      </rtept>
      <rtept lat="33.534783" lon="126.723869">
         <ele>60</ele>
      </rtept>
      <rtept lat="33.535167" lon="126.724314">
         <ele>60</ele>
      </rtept>
      <rtept lat="33.535223" lon="126.724631">
         <ele>60</ele>
      </rtept>
      <rtept lat="33.535431" lon="126.725082">
         <ele>60</ele>
      </rtept>
      <rtept lat="33.535741" lon="126.72552">
         <ele>60</ele>
      </rtept>
      <rtept lat="33.535718" lon="126.725629">
         <ele>60</ele>
      </rtept>
      <rtept lat="33.535823" lon="126.725732">
         <ele>60</ele>
      </rtept>
      <rtept lat="33.535916" lon="126.725905">
         <ele>60</ele>
      </rtept>
      <rtept lat="33.536042" lon="126.726141" />
      <rtept lat="33.536217" lon="126.726185" />
      <rtept lat="33.536328" lon="126.72639" />
      <rtept lat="33.536557" lon="126.726607" />
      <rtept lat="33.536785" lon="126.726677" />
      <rtept lat="33.537086" lon="126.726485" />
      <rtept lat="33.537148" lon="126.726499" />
      <rtept lat="33.537265" lon="126.726781" />
      <rtept lat="33.537288" lon="126.726835" />
      <rtept lat="33.53725" lon="126.727101" />
      <rtept lat="33.53705" lon="126.727502" />
      <rtept lat="33.53675" lon="126.727932" />
      <rtept lat="33.536849" lon="126.728098">
         <ele>50</ele>
      </rtept>
      <rtept lat="33.536911" lon="126.728158">
         <ele>50</ele>
      </rtept>
      <rtept lat="33.536931" lon="126.728257">
         <ele>50</ele>
      </rtept>
      <rtept lat="33.536911" lon="126.72833">
         <ele>50</ele>
      </rtept>
      <rtept lat="33.536919" lon="126.728411">
         <ele>50</ele>
      </rtept>
      <rtept lat="33.536959" lon="126.72859">
         <ele>50</ele>
      </rtept>
      <rtept lat="33.537001" lon="126.728683">
         <ele>50</ele>
      </rtept>
      <rtept lat="33.537597" lon="126.728794">
         <ele>50</ele>
      </rtept>
      <rtept lat="33.537732" lon="126.728929">
         <ele>50</ele>
      </rtept>
      <rtept lat="33.537778" lon="126.728962">
         <ele>50</ele>
      </rtept>
      <rtept lat="33.537846" lon="126.728976">
         <ele>50</ele>
      </rtept>
      <rtept lat="33.538508" lon="126.728842">
         <ele>50</ele>
      </rtept>
      <rtept lat="33.538594" lon="126.728942">
         <ele>50</ele>
      </rtept>
      <rtept lat="33.538653" lon="126.728984">
         <ele>50</ele>
      </rtept>
      <rtept lat="33.538739" lon="126.729003">
         <ele>50</ele>
      </rtept>
      <rtept lat="33.538846" lon="126.728975">
         <ele>50</ele>
      </rtept>
      <rtept lat="33.53896" lon="126.728994">
         <ele>50</ele>
      </rtept>
      <rtept lat="33.539032" lon="126.729024">
         <ele>50</ele>
      </rtept>
      <rtept lat="33.539451" lon="126.728863">
         <ele>50</ele>
      </rtept>
      <rtept lat="33.539608" lon="126.728741">
         <ele>50</ele>
      </rtept>
      <rtept lat="33.539712" lon="126.728745">
         <ele>50</ele>
      </rtept>
      <rtept lat="33.539813" lon="126.728902">
         <ele>50</ele>
      </rtept>
      <rtept lat="33.539886" lon="126.729057">
         <ele>50</ele>
      </rtept>
      <rtept lat="33.539952" lon="126.729142">
         <ele>50</ele>
      </rtept>
      <rtept lat="33.54007" lon="126.729232">
         <ele>50</ele>
      </rtept>
      <rtept lat="33.540156" lon="126.72926">
         <ele>50</ele>
      </rtept>
      <rtept lat="33.54029" lon="126.729199">
         <ele>50</ele>
      </rtept>
      <rtept lat="33.540397" lon="126.72918">
         <ele>50</ele>
      </rtept>
      <rtept lat="33.540518" lon="126.729136">
         <ele>50</ele>
      </rtept>
      <rtept lat="33.540621" lon="126.729164">
         <ele>50</ele>
      </rtept>
      <rtept lat="33.540592" lon="126.729247">
         <ele>50</ele>
      </rtept>
      <rtept lat="33.540406" lon="126.729788" />
      <rtept lat="33.540371" lon="126.730108" />
      <rtept lat="33.540285" lon="126.730302" />
      <rtept lat="33.540357" lon="126.730375" />
      <rtept lat="33.540164" lon="126.730623" />
      <rtept lat="33.540018" lon="126.730965" />
      <rtept lat="33.540091" lon="126.73134" />
      <rtept lat="33.539893" lon="126.73191" />
      <rtept lat="33.539903" lon="126.732037" />
      <rtept lat="33.539967" lon="126.732089" />
      <rtept lat="33.540235" lon="126.73218" />
      <rtept lat="33.540342" lon="126.732545" />
      <rtept lat="33.54038" lon="126.732553" />
      <rtept lat="33.540404" lon="126.732855" />
      <rtept lat="33.540443" lon="126.733347" />
      <rtept lat="33.540271" lon="126.733528" />
      <rtept lat="33.540404" lon="126.733707" />
      <rtept lat="33.540534" lon="126.73381" />
      <rtept lat="33.540664" lon="126.733823" />
      <rtept lat="33.541003" lon="126.733811" />
      <rtept lat="33.541096" lon="126.733837" />
      <rtept lat="33.541478" lon="126.73401" />
      <rtept lat="33.541687" lon="126.734075" />
      <rtept lat="33.541859" lon="126.734155" />
      <rtept lat="33.541962" lon="126.734232">
         <ele>40</ele>
      </rtept>
      <rtept lat="33.541985" lon="126.734558">
         <ele>40</ele>
      </rtept>
      <rtept lat="33.542038" lon="126.734733">
         <ele>40</ele>
      </rtept>
      <rtept lat="33.542088" lon="126.734809">
         <ele>40</ele>
      </rtept>
      <rtept lat="33.542236" lon="126.734896">
         <ele>40</ele>
      </rtept>
      <rtept lat="33.542456" lon="126.735339">
         <ele>40</ele>
      </rtept>
      <rtept lat="33.542519" lon="126.735689">
         <ele>40</ele>
      </rtept>
      <rtept lat="33.542535" lon="126.736131">
         <ele>40</ele>
      </rtept>
      <rtept lat="33.542572" lon="126.736442">
         <ele>40</ele>
      </rtept>
      <rtept lat="33.54263" lon="126.736589">
         <ele>40</ele>
      </rtept>
      <rtept lat="33.542723" lon="126.736721">
         <ele>40</ele>
      </rtept>
      <rtept lat="33.543655" lon="126.737298">
         <ele>40</ele>
      </rtept>
      <rtept lat="33.543845" lon="126.737338">
         <ele>40</ele>
      </rtept>
      <rtept lat="33.54391" lon="126.737339">
         <ele>40</ele>
      </rtept>
      <rtept lat="33.544062" lon="126.737251">
         <ele>40</ele>
      </rtept>
      <rtept lat="33.544264" lon="126.737297">
         <ele>40</ele>
      </rtept>
      <rtept lat="33.544328" lon="126.737296">
         <ele>40</ele>
      </rtept>
      <rtept lat="33.544581" lon="126.737061">
         <ele>40</ele>
      </rtept>
      <rtept lat="33.545019" lon="126.736999">
         <ele>40</ele>
      </rtept>
      <rtept lat="33.545059" lon="126.737048">
         <ele>40</ele>
      </rtept>
      <rtept lat="33.545118" lon="126.737196">
         <ele>40</ele>
      </rtept>
      <rtept lat="33.545295" lon="126.737291">
         <ele>40</ele>
      </rtept>
      <rtept lat="33.545492" lon="126.737327">
         <ele>40</ele>
      </rtept>
      <rtept lat="33.545586" lon="126.737397">
         <ele>40</ele>
      </rtept>
      <rtept lat="33.545702" lon="126.737522">
         <ele>40</ele>
      </rtept>
      <rtept lat="33.545731" lon="126.73779">
         <ele>40</ele>
      </rtept>
      <rtept lat="33.54574" lon="126.737871" />
      <rtept lat="33.545813" lon="126.738008" />
      <rtept lat="33.546017" lon="126.738094" />
      <rtept lat="33.546445" lon="126.738104">
         <ele>30</ele>
      </rtept>
      <rtept lat="33.54669" lon="126.738204">
         <ele>30</ele>
      </rtept>
      <rtept lat="33.547602" lon="126.73925">
         <ele>30</ele>
      </rtept>
      <rtept lat="33.547997" lon="126.739418">
         <ele>30</ele>
      </rtept>
      <rtept lat="33.548197" lon="126.739649">
         <ele>30</ele>
      </rtept>
      <rtept lat="33.548286" lon="126.740158">
         <ele>30</ele>
      </rtept>
      <rtept lat="33.548368" lon="126.740264">
         <ele>30</ele>
      </rtept>
      <rtept lat="33.548617" lon="126.740406">
         <ele>30</ele>
      </rtept>
      <rtept lat="33.548578" lon="126.740808">
         <ele>30</ele>
      </rtept>
      <rtept lat="33.548681" lon="126.740757">
         <ele>30</ele>
      </rtept>
      <rtept lat="33.548799" lon="126.740464">
         <ele>30</ele>
      </rtept>
      <rtept lat="33.549219" lon="126.740158">
         <ele>30</ele>
      </rtept>
      <rtept lat="33.549693" lon="126.740385">
         <ele>30</ele>
      </rtept>
      <rtept lat="33.549824" lon="126.740607">
         <ele>30</ele>
      </rtept>
      <rtept lat="33.549833" lon="126.740674">
         <ele>30</ele>
      </rtept>
      <rtept lat="33.549859" lon="126.740871" />
      <rtept lat="33.549786" lon="126.740948" />
      <rtept lat="33.549616" lon="126.74121" />
      <rtept lat="33.549585" lon="126.741287" />
      <rtept lat="33.549624" lon="126.741642" />
      <rtept lat="33.549758" lon="126.742061">
         <ele>20</ele>
      </rtept>
      <rtept lat="33.549742" lon="126.742127">
         <ele>20</ele>
      </rtept>
      <rtept lat="33.549698" lon="126.742203">
         <ele>20</ele>
      </rtept>
      <rtept lat="33.549512" lon="126.742476">
         <ele>20</ele>
      </rtept>
      <rtept lat="33.549439" lon="126.743153">
         <ele>20</ele>
      </rtept>
      <rtept lat="33.54938" lon="126.743416">
         <ele>20</ele>
      </rtept>
      <rtept lat="33.549557" lon="126.743484">
         <ele>20</ele>
      </rtept>
      <rtept lat="33.549717" lon="126.743573">
         <ele>20</ele>
      </rtept>
      <rtept lat="33.549799" lon="126.743603">
         <ele>20</ele>
      </rtept>
      <rtept lat="33.549891" lon="126.743609">
         <ele>20</ele>
      </rtept>
      <rtept lat="33.550351" lon="126.743586" />
      <rtept lat="33.550778" lon="126.743519" />
      <rtept lat="33.551356" lon="126.7436" />
      <rtept lat="33.551473" lon="126.743591" />
      <rtept lat="33.551952" lon="126.743814">
         <ele>10</ele>
      </rtept>
      <rtept lat="33.552076" lon="126.74389">
         <ele>10</ele>
      </rtept>
      <rtept lat="33.552461" lon="126.744177">
         <ele>10</ele>
      </rtept>
      <rtept lat="33.552765" lon="126.744327">
         <ele>10</ele>
      </rtept>
      <rtept lat="33.552938" lon="126.744042">
         <ele>10</ele>
      </rtept>
      <rtept lat="33.553229" lon="126.743892">
         <ele>10</ele>
      </rtept>
      <rtept lat="33.553787" lon="126.743528">
         <ele>10</ele>
      </rtept>
      <rtept lat="33.553867" lon="126.743523">
         <ele>10</ele>
      </rtept>
      <rtept lat="33.554062" lon="126.743383">
         <ele>10</ele>
      </rtept>
      <rtept lat="33.554513" lon="126.743292">
         <ele>10</ele>
      </rtept>
      <rtept lat="33.554667" lon="126.743082">
         <ele>10</ele>
      </rtept>
      <rtept lat="33.555036" lon="126.743016">
         <ele>10</ele>
      </rtept>
      <rtept lat="33.555354" lon="126.742909">
         <ele>10</ele>
      </rtept>
      <rtept lat="33.555372" lon="126.743131">
         <ele>10</ele>
      </rtept>
      <rtept lat="33.555616" lon="126.743109">
         <ele>10</ele>
      </rtept>
      <rtept lat="33.555694" lon="126.743048">
         <ele>10</ele>
      </rtept>
      <rtept lat="33.555799" lon="126.743">
         <ele>10</ele>
      </rtept>
      <rtept lat="33.556072" lon="126.742906">
         <ele>10</ele>
      </rtept>
      <rtept lat="33.556128" lon="126.742844">
         <ele>10</ele>
      </rtept>
      <rtept lat="33.556272" lon="126.742574">
         <ele>10</ele>
      </rtept>
      <rtept lat="33.556354" lon="126.742546">
         <ele>10</ele>
      </rtept>
      <rtept lat="33.556544" lon="126.742576">
         <ele>10</ele>
      </rtept>
      <rtept lat="33.556604" lon="126.742808">
         <ele>10</ele>
      </rtept>
      <rtept lat="33.55663" lon="126.742831">
         <ele>10</ele>
      </rtept>
      <rtept lat="33.55671" lon="126.742903" />
      <rtept lat="33.556787" lon="126.743133" />
      <rtept lat="33.556937" lon="126.743254" />
      <rtept lat="33.556934" lon="126.743554" />
      <rtept lat="33.556993" lon="126.743855" />
      <rtept lat="33.557461" lon="126.744939" />
   </rte>
</gpx>