<?xml version="1.0" encoding="utf-8"?>
<kml xmlns:gx="http://www.google.com/kml/ext/2.2" xmlns="http://www.opengis.net/kml/2.2">
  <Document>
    <Style id="base_track_style">
      <LineStyle>
        <color>7f00ffff</color>
        <width>4</width>
      </LineStyle>
    </Style>
    <Folder><Placemark>
  <styleUrl>#base_track_style</styleUrl>
  <name>route</name>
  <MultiGeometry>
    <LineString>
      <coordinates>126.862767,33.523025,0
126.86318,33.523129,0
126.86372,33.521891,10
126.864462,33.521501,10
126.864975,33.521199,10
126.865251,33.521189,10
126.865308,33.521392,10
126.864962,33.521944,10
126.864658,33.522276,10
126.864763,33.522385,10
126.86493,33.522446,10
126.865202,33.522405,10
126.865314,33.522455,10
126.866156,33.522831,0
126.866471,33.52273,0
126.866731,33.522749,0
126.866901,33.5228,0
126.867372,33.522222,0
126.867701,33.521733,0
126.868452,33.52194,0
126.868691,33.522071,0
126.869563,33.522882,10
126.869807,33.523235,10
126.869847,33.523382,10
126.87006,33.523754,10
126.87007,33.523932,10
126.870189,33.524092,10
126.870246,33.52438,10
126.870364,33.524371,10
126.870633,33.52435,0
126.870891,33.524252,0
126.87117,33.524193,0
126.871497,33.524162,0
126.871888,33.524032,0
126.872183,33.524068,0
126.872489,33.524149,0
126.872892,33.52431,0
126.873267,33.524332,0
126.873295,33.524239,0
126.873411,33.52414,0
126.873554,33.523885,0
126.873547,33.523516,0
126.873636,33.523375,0
126.874054,33.523203,0
126.874814,33.522807,0
126.874914,33.522719,0
126.875042,33.52268,0
126.875194,33.522669,0
126.875392,33.522683,0
126.875629,33.522759,0
126.875702,33.522753,0
126.875829,33.522743,0
126.876191,33.522646,0
126.87734,33.522125,0
126.877763,33.522144,0
126.878189,33.52232,0
126.878916,33.522807,0
126.878878,33.523889,10
126.879861,33.523964,10
126.879981,33.52401,10
126.880155,33.524076,10
126.880271,33.52412,10
126.880538,33.524513,10
126.880613,33.524649,10
126.880737,33.52478,10
126.880748,33.524812,10
126.8807,33.525001,10
126.880727,33.525148,10
126.880778,33.525246,10
126.881249,33.525889,10
126.881536,33.526424,10
126.881611,33.52639,10
126.881724,33.526372,10
126.882143,33.526397,10
126.882273,33.526405,0
126.882384,33.526385,0
126.883014,33.526503,0
126.883068,33.526449,0
126.883341,33.526322,0
126.883318,33.5256,0
126.88355,33.525407,0
126.883675,33.525152,0
126.883997,33.524851,10
126.884121,33.524932,10
126.884204,33.524986,10
126.884246,33.525038,10
126.884383,33.525034,10
126.884667,33.524834,10
126.884674,33.524745,10
126.885219,33.524661,10
126.885846,33.524906,10
126.88674,33.524859,10
126.88715,33.524997,10
126.887628,33.524988,10
126.887639,33.52524,10
126.887862,33.525397,10
126.887916,33.525546,10
126.887956,33.525659,0
126.888422,33.526626,0
126.888386,33.526711,0
126.888526,33.52713,0
126.888247,33.527414,0
126.888359,33.527404,0
126.888945,33.52728,0
126.890478,33.526933,0
126.892405,33.526324,0
126.892932,33.526089,0
126.893093,33.525984,0
126.893446,33.525694,0
126.894046,33.525073,0
126.894152,33.524993,0
126.894946,33.524507,0
126.896185,33.52358,0
126.897414,33.522727,0
126.897527,33.522627,0
126.897961,33.52235,0
126.898084,33.522291,0
126.899921,33.521682,0
126.900071,33.521613,0
126.900228,33.521517,0
126.900494,33.521309,0
126.900679,33.521097,0
126.900854,33.52078,0
126.900931,33.52044,0
126.900932,33.520244,0
126.900894,33.519978,0
126.900637,33.519016,0
126.900336,33.517763,0
126.900232,33.517355,0
126.900204,33.517177,0
126.900575,33.515003,0
126.900559,33.514814,0
126.90046,33.514623,0
126.900415,33.514566,0
126.90031,33.514462,0
126.900232,33.51441,0
126.900057,33.514327,0
126.899283,33.514061,0
126.899111,33.513979,0
126.89889,33.513846,0
126.89851,33.513453,0
126.898413,33.513326,0
126.898314,33.513124,0
126.898231,33.512819,0
126.898348,33.512658,0
126.898556,33.512164,0
126.899547,33.509459,10
126.899584,33.509408,10
126.899625,33.509384,10
126.899693,33.509362,10
126.899801,33.509357,10
126.900281,33.509561,10
126.900337,33.509506,10
126.90033,33.508803,10
126.900351,33.508632,10
126.900164,33.508348,10
126.900106,33.508277,10
126.900117,33.508107,10
126.900246,33.507924,10
126.900278,33.5077,10
126.900224,33.507423,10
126.899945,33.507155,10
126.899903,33.50694,10
126.900037,33.506573,10
126.900058,33.506269,10
126.900139,33.506072,10
126.900038,33.505983,10
126.899083,33.505625,10
126.899469,33.504972,10
126.899769,33.504905,10
126.899995,33.504695,10
126.900301,33.504453,10
126.900429,33.504462,10
126.90088,33.504105,20
126.900494,33.503613,20
126.900331,33.503451,20
126.900188,33.5032,22.20414
126.900091,33.502936,25.23501
126.900351,33.502556,31.07025
126.900392,33.502465,33.26686
126.900327,33.502342,36.46628
126.899993,33.502217,39.39327
126.900196,33.501593,58.7397
126.89992,33.501281,69.45415
126.899627,33.500983,75.13052
126.899513,33.500556,78.92056
126.899538,33.50021,83.55396
126.899741,33.499769,87.60307
126.900131,33.499424,92.16718
126.900603,33.499315,99.79831
126.901286,33.499288,108.7332
126.901749,33.499424,116.8884
126.902148,33.499471,117.4502
126.902896,33.499085,116.6882
126.903408,33.498759,96.85844
126.903961,33.498488,75.34245
126.904335,33.49802,50.33794
126.904807,33.497654,30.54177
126.905034,33.49745,22.24029
126.905164,33.49705,12.91486
126.905514,33.496806,12.27448
126.905969,33.496359,12.27448
126.906053,33.496456,10
126.906205,33.49663,10
126.90653,33.496467,10
126.906994,33.496589,10
126.907799,33.496298,10
126.907878,33.496074,10
126.908058,33.49614,10
126.908618,33.496282,10
126.909205,33.496365,10
126.909421,33.496417,10
126.909432,33.496391,10
126.909555,33.496325,10
126.909383,33.496156,10
126.909166,33.495896,10
126.909015,33.495578,10
126.908949,33.495314,10
126.908995,33.494969,10
126.90926,33.493902,10
126.909527,33.492994,10
126.909837,33.492219,10
126.910377,33.491005,10
126.910494,33.490741,0
126.910585,33.490374,0
126.910544,33.489988,0
126.910475,33.489543,0
126.910372,33.489154,0
126.91031,33.489076,0
126.90989,33.488767,0
126.908721,33.488039,0
126.907838,33.487564,0
126.907511,33.487539,0
126.906884,33.487726,0
126.906156,33.488094,0
126.905895,33.488255,0
126.905684,33.488479,0
126.905393,33.488688,0
</coordinates>
    </LineString>
  </MultiGeometry>
</Placemark></Folder>
  </Document>
</kml>