<?xml version="1.0" encoding="utf-8"?>
<gpx version="1.1" creator="Movescount - http://www.movescount.com" xmlns:xsi="http://www.w3.org/2001/XMLSchema-instance" xsi:schemaLocation="http://www.topografix.com/GPX/1/1 http://www.topografix.com/GPX/1/1/gpx.xsd http://www.cluetrust.com/XML/GPXDATA/1/0 http://www.cluetrust.com/Schemas/gpxdata10.xsd http://www.garmin.com/xmlschemas/TrackPointExtension/v1 http://www.garmin.com/xmlschemas/TrackPointExtensionv1.xsd" xmlns:gpxdata="http://www.cluetrust.com/XML/GPXDATA/1/0" xmlns:gpxtpx="http://www.garmin.com/xmlschemas/TrackPointExtension/v1" xmlns="http://www.topografix.com/GPX/1/1">
   <rte>
      <name>ollegil 16</name>
      <rtept lat="33.466905" lon="126.338093" />
      <rtept lat="33.466945" lon="126.338098" />
      <rtept lat="33.466999" lon="126.338312" />
      <rtept lat="33.467201" lon="126.338708" />
      <rtept lat="33.467323" lon="126.339073">
         <ele>10</ele>
      </rtept>
      <rtept lat="33.467454" lon="126.339254">
         <ele>10</ele>
      </rtept>
      <rtept lat="33.467615" lon="126.339404">
         <ele>10</ele>
      </rtept>
      <rtept lat="33.467879" lon="126.339572">
         <ele>10</ele>
      </rtept>
      <rtept lat="33.468518" lon="126.339917">
         <ele>10</ele>
      </rtept>
      <rtept lat="33.468776" lon="126.340002">
         <ele>10</ele>
      </rtept>
      <rtept lat="33.469469" lon="126.340142">
         <ele>10</ele>
      </rtept>
      <rtept lat="33.469804" lon="126.340347">
         <ele>10</ele>
      </rtept>
      <rtept lat="33.470116" lon="126.3406">
         <ele>10</ele>
      </rtept>
      <rtept lat="33.470421" lon="126.340974">
         <ele>10</ele>
      </rtept>
      <rtept lat="33.47085" lon="126.341744">
         <ele>10</ele>
      </rtept>
      <rtept lat="33.47103" lon="126.342105">
         <ele>10</ele>
      </rtept>
      <rtept lat="33.471205" lon="126.342815">
         <ele>14.08771</ele>
      </rtept>
      <rtept lat="33.47154" lon="126.343555">
         <ele>11.66172</ele>
      </rtept>
      <rtept lat="33.471725" lon="126.344378">
         <ele>10</ele>
      </rtept>
      <rtept lat="33.471893" lon="126.344958">
         <ele>10</ele>
      </rtept>
      <rtept lat="33.471994" lon="126.345242">
         <ele>10</ele>
      </rtept>
      <rtept lat="33.472026" lon="126.345506">
         <ele>10</ele>
      </rtept>
      <rtept lat="33.472033" lon="126.346018">
         <ele>10</ele>
      </rtept>
      <rtept lat="33.472111" lon="126.346222">
         <ele>10</ele>
      </rtept>
      <rtept lat="33.472235" lon="126.346381">
         <ele>10</ele>
      </rtept>
      <rtept lat="33.472468" lon="126.346493">
         <ele>10</ele>
      </rtept>
      <rtept lat="33.472664" lon="126.346632">
         <ele>10</ele>
      </rtept>
      <rtept lat="33.473022" lon="126.34712">
         <ele>10</ele>
      </rtept>
      <rtept lat="33.473093" lon="126.34741">
         <ele>10</ele>
      </rtept>
      <rtept lat="33.473085" lon="126.347756">
         <ele>10</ele>
      </rtept>
      <rtept lat="33.473038" lon="126.348045">
         <ele>10</ele>
      </rtept>
      <rtept lat="33.472983" lon="126.348251">
         <ele>10</ele>
      </rtept>
      <rtept lat="33.472983" lon="126.348633">
         <ele>10</ele>
      </rtept>
      <rtept lat="33.473006" lon="126.349063">
         <ele>10</ele>
      </rtept>
      <rtept lat="33.472983" lon="126.34952">
         <ele>10</ele>
      </rtept>
      <rtept lat="33.473006" lon="126.350109">
         <ele>10</ele>
      </rtept>
      <rtept lat="33.472843" lon="126.350577">
         <ele>10</ele>
      </rtept>
      <rtept lat="33.472612" lon="126.351051">
         <ele>10</ele>
      </rtept>
      <rtept lat="33.472703" lon="126.351297">
         <ele>10</ele>
      </rtept>
      <rtept lat="33.473345" lon="126.352043">
         <ele>10</ele>
      </rtept>
      <rtept lat="33.47377" lon="126.352124">
         <ele>10</ele>
      </rtept>
      <rtept lat="33.473936" lon="126.352188">
         <ele>10</ele>
      </rtept>
      <rtept lat="33.474168" lon="126.352392">
         <ele>10</ele>
      </rtept>
      <rtept lat="33.474504" lon="126.352446">
         <ele>10</ele>
      </rtept>
      <rtept lat="33.47492" lon="126.352365">
         <ele>10</ele>
      </rtept>
      <rtept lat="33.475104" lon="126.352488">
         <ele>10</ele>
      </rtept>
      <rtept lat="33.475256" lon="126.352644">
         <ele>10</ele>
      </rtept>
      <rtept lat="33.475153" lon="126.3528">
         <ele>10</ele>
      </rtept>
      <rtept lat="33.475802" lon="126.352891">
         <ele>10</ele>
      </rtept>
      <rtept lat="33.476137" lon="126.352998">
         <ele>10</ele>
      </rtept>
      <rtept lat="33.47663" lon="126.353105">
         <ele>10</ele>
      </rtept>
      <rtept lat="33.477345" lon="126.353588">
         <ele>10</ele>
      </rtept>
      <rtept lat="33.477592" lon="126.353856">
         <ele>11.00759</ele>
      </rtept>
      <rtept lat="33.478124" lon="126.355069">
         <ele>16.46756</ele>
      </rtept>
      <rtept lat="33.478384" lon="126.355514">
         <ele>16.24284</ele>
      </rtept>
      <rtept lat="33.478634" lon="126.356394">
         <ele>16.15102</ele>
      </rtept>
      <rtept lat="33.478867" lon="126.356866">
         <ele>19.62398</ele>
      </rtept>
      <rtept lat="33.479099" lon="126.357853">
         <ele>16.05872</ele>
      </rtept>
      <rtept lat="33.479314" lon="126.358255">
         <ele>16.01671</ele>
      </rtept>
      <rtept lat="33.479305" lon="126.358759">
         <ele>15.75487</ele>
      </rtept>
      <rtept lat="33.479329" lon="126.358832">
         <ele>15.9821</ele>
      </rtept>
      <rtept lat="33.479417" lon="126.359103">
         <ele>15.66788</ele>
      </rtept>
      <rtept lat="33.47938" lon="126.359565">
         <ele>15.2892</ele>
      </rtept>
      <rtept lat="33.479454" lon="126.359843">
         <ele>15.65905</ele>
      </rtept>
      <rtept lat="33.479434" lon="126.360316">
         <ele>17.21672</ele>
      </rtept>
      <rtept lat="33.479302" lon="126.360882">
         <ele>11.30934</ele>
      </rtept>
      <rtept lat="33.478757" lon="126.362561">
         <ele>10</ele>
      </rtept>
      <rtept lat="33.478663" lon="126.363199">
         <ele>12.528</ele>
      </rtept>
      <rtept lat="33.478313" lon="126.364211">
         <ele>16.30004</ele>
      </rtept>
      <rtept lat="33.478278" lon="126.36441">
         <ele>16.57987</ele>
      </rtept>
      <rtept lat="33.478266" lon="126.364764">
         <ele>16.31067</ele>
      </rtept>
      <rtept lat="33.478291" lon="126.36512">
         <ele>14.72372</ele>
      </rtept>
      <rtept lat="33.478423" lon="126.365794">
         <ele>10.95475</ele>
      </rtept>
      <rtept lat="33.478383" lon="126.366361">
         <ele>10.61579</ele>
      </rtept>
      <rtept lat="33.478327" lon="126.366723">
         <ele>10.96486</ele>
      </rtept>
      <rtept lat="33.478355" lon="126.366945">
         <ele>10.30903</ele>
      </rtept>
      <rtept lat="33.478317" lon="126.367119">
         <ele>10.63456</ele>
      </rtept>
      <rtept lat="33.478195" lon="126.367424">
         <ele>11.66963</ele>
      </rtept>
      <rtept lat="33.478165" lon="126.36755">
         <ele>12.02927</ele>
      </rtept>
      <rtept lat="33.478161" lon="126.368144">
         <ele>12.04599</ele>
      </rtept>
      <rtept lat="33.47811" lon="126.36835">
         <ele>12.65863</ele>
      </rtept>
      <rtept lat="33.478172" lon="126.368779">
         <ele>12.11</ele>
      </rtept>
      <rtept lat="33.478281" lon="126.369293">
         <ele>10</ele>
      </rtept>
      <rtept lat="33.478358" lon="126.369414">
         <ele>10</ele>
      </rtept>
      <rtept lat="33.478506" lon="126.36947">
         <ele>10</ele>
      </rtept>
      <rtept lat="33.478624" lon="126.369554">
         <ele>10</ele>
      </rtept>
      <rtept lat="33.478958" lon="126.370133">
         <ele>10</ele>
      </rtept>
      <rtept lat="33.479285" lon="126.370655">
         <ele>10</ele>
      </rtept>
      <rtept lat="33.479491" lon="126.370939">
         <ele>10</ele>
      </rtept>
      <rtept lat="33.479737" lon="126.37147">
         <ele>10</ele>
      </rtept>
      <rtept lat="33.47997" lon="126.371765">
         <ele>10</ele>
      </rtept>
      <rtept lat="33.480365" lon="126.372161">
         <ele>10</ele>
      </rtept>
      <rtept lat="33.480413" lon="126.372205">
         <ele>10</ele>
      </rtept>
      <rtept lat="33.480525" lon="126.372473">
         <ele>10</ele>
      </rtept>
      <rtept lat="33.480753" lon="126.373464">
         <ele>10</ele>
      </rtept>
      <rtept lat="33.481213" lon="126.373834">
         <ele>10</ele>
      </rtept>
      <rtept lat="33.48171" lon="126.374397">
         <ele>10</ele>
      </rtept>
      <rtept lat="33.481836" lon="126.374612">
         <ele>10</ele>
      </rtept>
      <rtept lat="33.482319" lon="126.375539">
         <ele>10</ele>
      </rtept>
      <rtept lat="33.482637" lon="126.375883">
         <ele>10</ele>
      </rtept>
      <rtept lat="33.483121" lon="126.376328">
         <ele>10</ele>
      </rtept>
      <rtept lat="33.483363" lon="126.376589">
         <ele>10</ele>
      </rtept>
      <rtept lat="33.483611" lon="126.376827">
         <ele>10</ele>
      </rtept>
      <rtept lat="33.48384" lon="126.377144">
         <ele>10</ele>
      </rtept>
      <rtept lat="33.483876" lon="126.377225">
         <ele>10</ele>
      </rtept>
      <rtept lat="33.483781" lon="126.377298">
         <ele>10</ele>
      </rtept>
      <rtept lat="33.483723" lon="126.377504">
         <ele>10</ele>
      </rtept>
      <rtept lat="33.483656" lon="126.377625">
         <ele>10</ele>
      </rtept>
      <rtept lat="33.483555" lon="126.377699">
         <ele>10</ele>
      </rtept>
      <rtept lat="33.483376" lon="126.377776">
         <ele>10</ele>
      </rtept>
      <rtept lat="33.48318" lon="126.377859">
         <ele>10</ele>
      </rtept>
      <rtept lat="33.483008" lon="126.377908">
         <ele>10</ele>
      </rtept>
      <rtept lat="33.482621" lon="126.377955">
         <ele>10</ele>
      </rtept>
      <rtept lat="33.482557" lon="126.37792">
         <ele>10</ele>
      </rtept>
      <rtept lat="33.482529" lon="126.377886">
         <ele>10</ele>
      </rtept>
      <rtept lat="33.482411" lon="126.377699">
         <ele>10</ele>
      </rtept>
      <rtept lat="33.482326" lon="126.377711">
         <ele>10</ele>
      </rtept>
      <rtept lat="33.481927" lon="126.377882">
         <ele>10</ele>
      </rtept>
      <rtept lat="33.481705" lon="126.37796">
         <ele>10</ele>
      </rtept>
      <rtept lat="33.481501" lon="126.378082">
         <ele>10</ele>
      </rtept>
      <rtept lat="33.481574" lon="126.378334">
         <ele>10</ele>
      </rtept>
      <rtept lat="33.481618" lon="126.378558">
         <ele>10</ele>
      </rtept>
      <rtept lat="33.481628" lon="126.378791">
         <ele>10</ele>
      </rtept>
      <rtept lat="33.481582" lon="126.378905">
         <ele>10</ele>
      </rtept>
      <rtept lat="33.481467" lon="126.379032">
         <ele>10</ele>
      </rtept>
      <rtept lat="33.481418" lon="126.379217">
         <ele>10</ele>
      </rtept>
      <rtept lat="33.481475" lon="126.379706">
         <ele>10</ele>
      </rtept>
      <rtept lat="33.481504" lon="126.37996" />
      <rtept lat="33.481659" lon="126.38036" />
      <rtept lat="33.481688" lon="126.380603" />
      <rtept lat="33.480044" lon="126.381041" />
      <rtept lat="33.478595" lon="126.381334">
         <ele>20</ele>
      </rtept>
      <rtept lat="33.477842" lon="126.381451">
         <ele>20</ele>
      </rtept>
      <rtept lat="33.477758" lon="126.381323">
         <ele>20</ele>
      </rtept>
      <rtept lat="33.47747" lon="126.381294">
         <ele>20</ele>
      </rtept>
      <rtept lat="33.477168" lon="126.381313">
         <ele>20</ele>
      </rtept>
      <rtept lat="33.476901" lon="126.381362">
         <ele>20</ele>
      </rtept>
      <rtept lat="33.476796" lon="126.381448">
         <ele>20</ele>
      </rtept>
      <rtept lat="33.476721" lon="126.381359">
         <ele>20</ele>
      </rtept>
      <rtept lat="33.476104" lon="126.381409">
         <ele>30</ele>
      </rtept>
      <rtept lat="33.475975" lon="126.381291">
         <ele>30</ele>
      </rtept>
      <rtept lat="33.475921" lon="126.381176">
         <ele>30</ele>
      </rtept>
      <rtept lat="33.475824" lon="126.381209">
         <ele>30</ele>
      </rtept>
      <rtept lat="33.475835" lon="126.381269">
         <ele>30</ele>
      </rtept>
      <rtept lat="33.475754" lon="126.381284">
         <ele>30</ele>
      </rtept>
      <rtept lat="33.475574" lon="126.381254">
         <ele>30</ele>
      </rtept>
      <rtept lat="33.474715" lon="126.381431">
         <ele>35.14216</ele>
      </rtept>
      <rtept lat="33.474687" lon="126.38147">
         <ele>35.57133</ele>
      </rtept>
      <rtept lat="33.474703" lon="126.381682">
         <ele>36.93913</ele>
      </rtept>
      <rtept lat="33.47461" lon="126.38182">
         <ele>41.85439</ele>
      </rtept>
      <rtept lat="33.474762" lon="126.382135">
         <ele>40.8973</ele>
      </rtept>
      <rtept lat="33.474775" lon="126.382209">
         <ele>42.03286</ele>
      </rtept>
      <rtept lat="33.474856" lon="126.382296">
         <ele>42.46027</ele>
      </rtept>
      <rtept lat="33.475005" lon="126.382454">
         <ele>42.92093</ele>
      </rtept>
      <rtept lat="33.474625" lon="126.382495">
         <ele>50.64906</ele>
      </rtept>
      <rtept lat="33.474279" lon="126.382576">
         <ele>55.45878</ele>
      </rtept>
      <rtept lat="33.474252" lon="126.382788">
         <ele>61.24549</ele>
      </rtept>
      <rtept lat="33.474327" lon="126.383202">
         <ele>72.47935</ele>
      </rtept>
      <rtept lat="33.474334" lon="126.383625">
         <ele>84.55245</ele>
      </rtept>
      <rtept lat="33.474096" lon="126.383584">
         <ele>85.62965</ele>
      </rtept>
      <rtept lat="33.473857" lon="126.383686">
         <ele>89.14877</ele>
      </rtept>
      <rtept lat="33.473706" lon="126.383789">
         <ele>91.03361</ele>
      </rtept>
      <rtept lat="33.473641" lon="126.383952">
         <ele>94.0459</ele>
      </rtept>
      <rtept lat="33.473237" lon="126.384054">
         <ele>89.16691</ele>
      </rtept>
      <rtept lat="33.473095" lon="126.383892">
         <ele>84.68334</ele>
      </rtept>
      <rtept lat="33.473071" lon="126.383945">
         <ele>85.25597</ele>
      </rtept>
      <rtept lat="33.473063" lon="126.384476">
         <ele>93.12408</ele>
      </rtept>
      <rtept lat="33.473015" lon="126.384548">
         <ele>92.73191</ele>
      </rtept>
      <rtept lat="33.472921" lon="126.384572">
         <ele>89.14393</ele>
      </rtept>
      <rtept lat="33.472578" lon="126.384037">
         <ele>74.28644</ele>
      </rtept>
      <rtept lat="33.472555" lon="126.384364">
         <ele>77.70462</ele>
      </rtept>
      <rtept lat="33.472559" lon="126.384737">
         <ele>81.02776</ele>
      </rtept>
      <rtept lat="33.472485" lon="126.384952">
         <ele>79.57563</ele>
      </rtept>
      <rtept lat="33.472259" lon="126.385102">
         <ele>72.92754</ele>
      </rtept>
      <rtept lat="33.472047" lon="126.385113">
         <ele>67.307</ele>
      </rtept>
      <rtept lat="33.471923" lon="126.385169">
         <ele>64.58769</ele>
      </rtept>
      <rtept lat="33.471758" lon="126.385173">
         <ele>60.85919</ele>
      </rtept>
      <rtept lat="33.471572" lon="126.385113">
         <ele>62.0527</ele>
      </rtept>
      <rtept lat="33.471397" lon="126.385162">
         <ele>60</ele>
      </rtept>
      <rtept lat="33.471081" lon="126.385444">
         <ele>60</ele>
      </rtept>
      <rtept lat="33.470938" lon="126.385388">
         <ele>60</ele>
      </rtept>
      <rtept lat="33.47074" lon="126.385436">
         <ele>60</ele>
      </rtept>
      <rtept lat="33.470555" lon="126.385592">
         <ele>60</ele>
      </rtept>
      <rtept lat="33.470228" lon="126.386139">
         <ele>60</ele>
      </rtept>
      <rtept lat="33.470051" lon="126.386124">
         <ele>60</ele>
      </rtept>
      <rtept lat="33.469686" lon="126.386475">
         <ele>60</ele>
      </rtept>
      <rtept lat="33.469489" lon="126.386842">
         <ele>60</ele>
      </rtept>
      <rtept lat="33.469353" lon="126.387108" />
      <rtept lat="33.469262" lon="126.387211" />
      <rtept lat="33.468976" lon="126.387069" />
      <rtept lat="33.468739" lon="126.386988" />
      <rtept lat="33.468461" lon="126.386933" />
      <rtept lat="33.468543" lon="126.387246" />
      <rtept lat="33.468166" lon="126.387202" />
      <rtept lat="33.468026" lon="126.387243">
         <ele>60</ele>
      </rtept>
      <rtept lat="33.467946" lon="126.387308">
         <ele>60</ele>
      </rtept>
      <rtept lat="33.46781" lon="126.387462">
         <ele>60</ele>
      </rtept>
      <rtept lat="33.46772" lon="126.387607">
         <ele>60</ele>
      </rtept>
      <rtept lat="33.467614" lon="126.387727">
         <ele>60</ele>
      </rtept>
      <rtept lat="33.467593" lon="126.387831">
         <ele>60</ele>
      </rtept>
      <rtept lat="33.467602" lon="126.38817">
         <ele>60</ele>
      </rtept>
      <rtept lat="33.467586" lon="126.388295">
         <ele>60</ele>
      </rtept>
      <rtept lat="33.467555" lon="126.388388">
         <ele>60</ele>
      </rtept>
      <rtept lat="33.467664" lon="126.388705">
         <ele>60</ele>
      </rtept>
      <rtept lat="33.467724" lon="126.388935">
         <ele>60</ele>
      </rtept>
      <rtept lat="33.467731" lon="126.389257">
         <ele>60</ele>
      </rtept>
      <rtept lat="33.467698" lon="126.389355">
         <ele>60</ele>
      </rtept>
      <rtept lat="33.467316" lon="126.389399">
         <ele>60</ele>
      </rtept>
      <rtept lat="33.467223" lon="126.389435">
         <ele>60</ele>
      </rtept>
      <rtept lat="33.467186" lon="126.38948">
         <ele>60</ele>
      </rtept>
      <rtept lat="33.467211" lon="126.389682">
         <ele>60</ele>
      </rtept>
      <rtept lat="33.467198" lon="126.389764">
         <ele>60</ele>
      </rtept>
      <rtept lat="33.467145" lon="126.38991">
         <ele>70</ele>
      </rtept>
      <rtept lat="33.466707" lon="126.38998">
         <ele>70</ele>
      </rtept>
      <rtept lat="33.466571" lon="126.38988">
         <ele>70</ele>
      </rtept>
      <rtept lat="33.466372" lon="126.389666">
         <ele>70</ele>
      </rtept>
      <rtept lat="33.466061" lon="126.389488">
         <ele>70</ele>
      </rtept>
      <rtept lat="33.465694" lon="126.389381">
         <ele>70</ele>
      </rtept>
      <rtept lat="33.46539" lon="126.38922">
         <ele>70</ele>
      </rtept>
      <rtept lat="33.465178" lon="126.389454">
         <ele>70</ele>
      </rtept>
      <rtept lat="33.465043" lon="126.389636">
         <ele>70</ele>
      </rtept>
      <rtept lat="33.464887" lon="126.38977">
         <ele>70</ele>
      </rtept>
      <rtept lat="33.46477" lon="126.389819">
         <ele>70</ele>
      </rtept>
      <rtept lat="33.464704" lon="126.389828">
         <ele>70</ele>
      </rtept>
      <rtept lat="33.464668" lon="126.390032">
         <ele>70</ele>
      </rtept>
      <rtept lat="33.464612" lon="126.390135">
         <ele>70</ele>
      </rtept>
      <rtept lat="33.464504" lon="126.390205">
         <ele>70</ele>
      </rtept>
      <rtept lat="33.464451" lon="126.390295">
         <ele>70</ele>
      </rtept>
      <rtept lat="33.464418" lon="126.390595">
         <ele>70</ele>
      </rtept>
      <rtept lat="33.464462" lon="126.390673">
         <ele>70</ele>
      </rtept>
      <rtept lat="33.464547" lon="126.390756">
         <ele>70</ele>
      </rtept>
      <rtept lat="33.464587" lon="126.39094">
         <ele>70</ele>
      </rtept>
      <rtept lat="33.464632" lon="126.391096">
         <ele>70</ele>
      </rtept>
      <rtept lat="33.464644" lon="126.391279">
         <ele>70</ele>
      </rtept>
      <rtept lat="33.464697" lon="126.391445">
         <ele>70</ele>
      </rtept>
      <rtept lat="33.464802" lon="126.391606">
         <ele>70</ele>
      </rtept>
      <rtept lat="33.464841" lon="126.391738">
         <ele>70</ele>
      </rtept>
      <rtept lat="33.464883" lon="126.39213">
         <ele>70</ele>
      </rtept>
      <rtept lat="33.464888" lon="126.392422">
         <ele>80</ele>
      </rtept>
      <rtept lat="33.46492" lon="126.392638">
         <ele>80</ele>
      </rtept>
      <rtept lat="33.464718" lon="126.392686">
         <ele>80</ele>
      </rtept>
      <rtept lat="33.46432" lon="126.392831">
         <ele>80</ele>
      </rtept>
      <rtept lat="33.464136" lon="126.392926">
         <ele>80</ele>
      </rtept>
      <rtept lat="33.464177" lon="126.393077">
         <ele>80</ele>
      </rtept>
      <rtept lat="33.464185" lon="126.393254">
         <ele>80</ele>
      </rtept>
      <rtept lat="33.46432" lon="126.393423">
         <ele>80</ele>
      </rtept>
      <rtept lat="33.46419" lon="126.393617">
         <ele>85.07397</ele>
      </rtept>
      <rtept lat="33.463995" lon="126.393776">
         <ele>90</ele>
      </rtept>
      <rtept lat="33.463922" lon="126.393864">
         <ele>90</ele>
      </rtept>
      <rtept lat="33.463864" lon="126.394006">
         <ele>90</ele>
      </rtept>
      <rtept lat="33.463793" lon="126.39404">
         <ele>90</ele>
      </rtept>
      <rtept lat="33.463662" lon="126.394064">
         <ele>90</ele>
      </rtept>
      <rtept lat="33.463523" lon="126.394117">
         <ele>90</ele>
      </rtept>
      <rtept lat="33.463435" lon="126.394223">
         <ele>92.52342</ele>
      </rtept>
      <rtept lat="33.463369" lon="126.394351">
         <ele>93.99195</ele>
      </rtept>
      <rtept lat="33.463355" lon="126.394492">
         <ele>95.1998</ele>
      </rtept>
      <rtept lat="33.463014" lon="126.39446">
         <ele>97.41454</ele>
      </rtept>
      <rtept lat="33.462871" lon="126.394509">
         <ele>100</ele>
      </rtept>
      <rtept lat="33.462716" lon="126.394378">
         <ele>100</ele>
      </rtept>
      <rtept lat="33.462166" lon="126.394275">
         <ele>100</ele>
      </rtept>
      <rtept lat="33.461656" lon="126.39445">
         <ele>100</ele>
      </rtept>
      <rtept lat="33.461321" lon="126.394469">
         <ele>110</ele>
      </rtept>
      <rtept lat="33.461097" lon="126.394453">
         <ele>110</ele>
      </rtept>
      <rtept lat="33.460994" lon="126.394357">
         <ele>110</ele>
      </rtept>
      <rtept lat="33.460647" lon="126.394286">
         <ele>110</ele>
      </rtept>
      <rtept lat="33.460529" lon="126.394328">
         <ele>110</ele>
      </rtept>
      <rtept lat="33.46031" lon="126.394314">
         <ele>110</ele>
      </rtept>
      <rtept lat="33.460215" lon="126.394428">
         <ele>110</ele>
      </rtept>
      <rtept lat="33.459973" lon="126.394442">
         <ele>110</ele>
      </rtept>
      <rtept lat="33.459672" lon="126.394774">
         <ele>120</ele>
      </rtept>
      <rtept lat="33.459554" lon="126.394859">
         <ele>120</ele>
      </rtept>
      <rtept lat="33.459123" lon="126.395086">
         <ele>120</ele>
      </rtept>
      <rtept lat="33.458941" lon="126.395243">
         <ele>120</ele>
      </rtept>
      <rtept lat="33.458727" lon="126.395419">
         <ele>120</ele>
      </rtept>
      <rtept lat="33.458693" lon="126.395591">
         <ele>120</ele>
      </rtept>
      <rtept lat="33.458833" lon="126.395818">
         <ele>120</ele>
      </rtept>
      <rtept lat="33.458938" lon="126.395853">
         <ele>120</ele>
      </rtept>
      <rtept lat="33.459168" lon="126.39599">
         <ele>120</ele>
      </rtept>
      <rtept lat="33.459503" lon="126.396119">
         <ele>120</ele>
      </rtept>
      <rtept lat="33.45957" lon="126.396255">
         <ele>110</ele>
      </rtept>
      <rtept lat="33.459447" lon="126.397006">
         <ele>110</ele>
      </rtept>
      <rtept lat="33.45949" lon="126.397163">
         <ele>110</ele>
      </rtept>
      <rtept lat="33.460004" lon="126.397328">
         <ele>110</ele>
      </rtept>
      <rtept lat="33.460561" lon="126.39742">
         <ele>110</ele>
      </rtept>
      <rtept lat="33.460639" lon="126.397461">
         <ele>110</ele>
      </rtept>
      <rtept lat="33.460769" lon="126.397662">
         <ele>110</ele>
      </rtept>
      <rtept lat="33.460945" lon="126.397769">
         <ele>110</ele>
      </rtept>
      <rtept lat="33.460594" lon="126.397961">
         <ele>110</ele>
      </rtept>
      <rtept lat="33.460398" lon="126.397978">
         <ele>110</ele>
      </rtept>
      <rtept lat="33.460277" lon="126.39804">
         <ele>110</ele>
      </rtept>
      <rtept lat="33.460168" lon="126.398388">
         <ele>110</ele>
      </rtept>
      <rtept lat="33.460035" lon="126.398556">
         <ele>110</ele>
      </rtept>
      <rtept lat="33.459627" lon="126.398748">
         <ele>110</ele>
      </rtept>
      <rtept lat="33.459433" lon="126.398945">
         <ele>110</ele>
      </rtept>
      <rtept lat="33.459302" lon="126.399144">
         <ele>120</ele>
      </rtept>
      <rtept lat="33.459197" lon="126.399264">
         <ele>120</ele>
      </rtept>
      <rtept lat="33.458996" lon="126.399359">
         <ele>120</ele>
      </rtept>
      <rtept lat="33.458885" lon="126.399392">
         <ele>120</ele>
      </rtept>
      <rtept lat="33.458751" lon="126.399468">
         <ele>120</ele>
      </rtept>
      <rtept lat="33.458571" lon="126.399682">
         <ele>120</ele>
      </rtept>
      <rtept lat="33.458446" lon="126.399802">
         <ele>120</ele>
      </rtept>
      <rtept lat="33.458289" lon="126.399853">
         <ele>120</ele>
      </rtept>
      <rtept lat="33.457796" lon="126.399948">
         <ele>120</ele>
      </rtept>
      <rtept lat="33.457271" lon="126.400433">
         <ele>120</ele>
      </rtept>
      <rtept lat="33.456854" lon="126.400846">
         <ele>120</ele>
      </rtept>
      <rtept lat="33.456544" lon="126.400955">
         <ele>120</ele>
      </rtept>
      <rtept lat="33.456304" lon="126.401072">
         <ele>120</ele>
      </rtept>
      <rtept lat="33.456169" lon="126.40116">
         <ele>120</ele>
      </rtept>
      <rtept lat="33.455911" lon="126.401257">
         <ele>120</ele>
      </rtept>
      <rtept lat="33.455653" lon="126.401271">
         <ele>120</ele>
      </rtept>
      <rtept lat="33.455388" lon="126.40123">
         <ele>120</ele>
      </rtept>
      <rtept lat="33.455011" lon="126.401304">
         <ele>120</ele>
      </rtept>
      <rtept lat="33.455306" lon="126.401736">
         <ele>120</ele>
      </rtept>
      <rtept lat="33.455847" lon="126.402811">
         <ele>118.0911</ele>
      </rtept>
      <rtept lat="33.456147" lon="126.403739">
         <ele>123.2931</ele>
      </rtept>
      <rtept lat="33.456264" lon="126.404451">
         <ele>129.7063</ele>
      </rtept>
      <rtept lat="33.456142" lon="126.404777">
         <ele>134.2798</ele>
      </rtept>
      <rtept lat="33.455982" lon="126.40512">
         <ele>138.0338</ele>
      </rtept>
      <rtept lat="33.455867" lon="126.405303">
         <ele>139.9418</ele>
      </rtept>
      <rtept lat="33.455713" lon="126.4055">
         <ele>141.51</ele>
      </rtept>
      <rtept lat="33.455568" lon="126.405572">
         <ele>143.1371</ele>
      </rtept>
      <rtept lat="33.455285" lon="126.405669">
         <ele>146.5944</ele>
      </rtept>
      <rtept lat="33.45516" lon="126.406169">
         <ele>147.0667</ele>
      </rtept>
      <rtept lat="33.454978" lon="126.406733">
         <ele>148.9483</ele>
      </rtept>
      <rtept lat="33.454901" lon="126.407256">
         <ele>149.4653</ele>
      </rtept>
      <rtept lat="33.45489" lon="126.407438">
         <ele>151.1044</ele>
      </rtept>
      <rtept lat="33.453607" lon="126.407568">
         <ele>160</ele>
      </rtept>
      <rtept lat="33.45325" lon="126.407879">
         <ele>160</ele>
      </rtept>
      <rtept lat="33.453153" lon="126.408021">
         <ele>160</ele>
      </rtept>
      <rtept lat="33.452978" lon="126.408394">
         <ele>160</ele>
      </rtept>
      <rtept lat="33.452867" lon="126.408523" />
      <rtept lat="33.452644" lon="126.408646" />
      <rtept lat="33.452546" lon="126.408735" />
      <rtept lat="33.453064" lon="126.409298" />
      <rtept lat="33.453153" lon="126.409421" />
      <rtept lat="33.453232" lon="126.409582" />
      <rtept lat="33.453274" lon="126.409712" />
      <rtept lat="33.453343" lon="126.410395">
         <ele>170</ele>
      </rtept>
      <rtept lat="33.453378" lon="126.41048">
         <ele>170</ele>
      </rtept>
      <rtept lat="33.453536" lon="126.410677">
         <ele>170</ele>
      </rtept>
      <rtept lat="33.453615" lon="126.410744">
         <ele>170</ele>
      </rtept>
      <rtept lat="33.4537" lon="126.410787">
         <ele>170</ele>
      </rtept>
      <rtept lat="33.453652" lon="126.411032">
         <ele>170</ele>
      </rtept>
      <rtept lat="33.453641" lon="126.411239">
         <ele>170</ele>
      </rtept>
      <rtept lat="33.45351" lon="126.411315">
         <ele>170</ele>
      </rtept>
      <rtept lat="33.453152" lon="126.411445">
         <ele>170</ele>
      </rtept>
      <rtept lat="33.452823" lon="126.411926">
         <ele>170</ele>
      </rtept>
      <rtept lat="33.452735" lon="126.411991">
         <ele>170</ele>
      </rtept>
      <rtept lat="33.452633" lon="126.412183">
         <ele>170</ele>
      </rtept>
      <rtept lat="33.452681" lon="126.412353">
         <ele>170</ele>
      </rtept>
      <rtept lat="33.452625" lon="126.412693">
         <ele>170</ele>
      </rtept>
      <rtept lat="33.452433" lon="126.41315">
         <ele>170</ele>
      </rtept>
      <rtept lat="33.452754" lon="126.413335">
         <ele>170</ele>
      </rtept>
      <rtept lat="33.45267" lon="126.413798">
         <ele>170</ele>
      </rtept>
      <rtept lat="33.452666" lon="126.414087">
         <ele>170</ele>
      </rtept>
      <rtept lat="33.452697" lon="126.414201">
         <ele>170</ele>
      </rtept>
      <rtept lat="33.453294" lon="126.414433">
         <ele>164.7282</ele>
      </rtept>
      <rtept lat="33.45346" lon="126.41453">
         <ele>162.7381</ele>
      </rtept>
      <rtept lat="33.453426" lon="126.414672">
         <ele>164.0621</ele>
      </rtept>
      <rtept lat="33.453307" lon="126.414855">
         <ele>167.0964</ele>
      </rtept>
      <rtept lat="33.452931" lon="126.415518">
         <ele>170</ele>
      </rtept>
      <rtept lat="33.452843" lon="126.415729">
         <ele>170</ele>
      </rtept>
      <rtept lat="33.452809" lon="126.415876">
         <ele>170</ele>
      </rtept>
      <rtept lat="33.452619" lon="126.416192">
         <ele>170</ele>
      </rtept>
      <rtept lat="33.452395" lon="126.416287">
         <ele>170</ele>
      </rtept>
      <rtept lat="33.451851" lon="126.416132">
         <ele>170</ele>
      </rtept>
      <rtept lat="33.451689" lon="126.416227">
         <ele>180</ele>
      </rtept>
      <rtept lat="33.451828" lon="126.41662">
         <ele>180</ele>
      </rtept>
      <rtept lat="33.45176" lon="126.416691">
         <ele>180</ele>
      </rtept>
      <rtept lat="33.451854" lon="126.416822">
         <ele>180</ele>
      </rtept>
      <rtept lat="33.452268" lon="126.416996">
         <ele>170</ele>
      </rtept>
      <rtept lat="33.45242" lon="126.417023">
         <ele>170</ele>
      </rtept>
      <rtept lat="33.452778" lon="126.417018">
         <ele>170</ele>
      </rtept>
      <rtept lat="33.452972" lon="126.416983">
         <ele>170</ele>
      </rtept>
      <rtept lat="33.453022" lon="126.417051">
         <ele>170</ele>
      </rtept>
      <rtept lat="33.453404" lon="126.417095">
         <ele>170</ele>
      </rtept>
      <rtept lat="33.454026" lon="126.41759">
         <ele>160</ele>
      </rtept>
      <rtept lat="33.45407" lon="126.417686">
         <ele>160</ele>
      </rtept>
      <rtept lat="33.454054" lon="126.417784">
         <ele>160</ele>
      </rtept>
      <rtept lat="33.453938" lon="126.417796">
         <ele>164.8053</ele>
      </rtept>
      <rtept lat="33.453774" lon="126.417887">
         <ele>170</ele>
      </rtept>
      <rtept lat="33.453631" lon="126.418009">
         <ele>170</ele>
      </rtept>
      <rtept lat="33.453575" lon="126.418198">
         <ele>170</ele>
      </rtept>
      <rtept lat="33.45357" lon="126.418434">
         <ele>170</ele>
      </rtept>
      <rtept lat="33.453604" lon="126.418751">
         <ele>170</ele>
      </rtept>
      <rtept lat="33.453721" lon="126.41893">
         <ele>170</ele>
      </rtept>
      <rtept lat="33.453818" lon="126.419078">
         <ele>170</ele>
      </rtept>
      <rtept lat="33.45408" lon="126.419029">
         <ele>170</ele>
      </rtept>
      <rtept lat="33.454139" lon="126.41908">
         <ele>170</ele>
      </rtept>
      <rtept lat="33.45421" lon="126.419373">
         <ele>170</ele>
      </rtept>
      <rtept lat="33.454326" lon="126.419432">
         <ele>166.2666</ele>
      </rtept>
      <rtept lat="33.454956" lon="126.419312">
         <ele>160</ele>
      </rtept>
      <rtept lat="33.454894" lon="126.419371">
         <ele>160</ele>
      </rtept>
      <rtept lat="33.454811" lon="126.419574">
         <ele>160</ele>
      </rtept>
      <rtept lat="33.454729" lon="126.420084">
         <ele>160</ele>
      </rtept>
      <rtept lat="33.454602" lon="126.420331">
         <ele>163.1287</ele>
      </rtept>
      <rtept lat="33.454452" lon="126.420704">
         <ele>164.8735</ele>
      </rtept>
      <rtept lat="33.453853" lon="126.421369">
         <ele>170</ele>
      </rtept>
      <rtept lat="33.453566" lon="126.421774">
         <ele>170</ele>
      </rtept>
      <rtept lat="33.453385" lon="126.422146">
         <ele>170</ele>
      </rtept>
      <rtept lat="33.453187" lon="126.42236">
         <ele>170</ele>
      </rtept>
      <rtept lat="33.452917" lon="126.422534">
         <ele>170</ele>
      </rtept>
      <rtept lat="33.452538" lon="126.42283">
         <ele>180</ele>
      </rtept>
      <rtept lat="33.452289" lon="126.423098">
         <ele>180</ele>
      </rtept>
      <rtept lat="33.45221" lon="126.423274">
         <ele>180</ele>
      </rtept>
      <rtept lat="33.452209" lon="126.423604">
         <ele>180</ele>
      </rtept>
      <rtept lat="33.452128" lon="126.423986">
         <ele>180</ele>
      </rtept>
      <rtept lat="33.452069" lon="126.424451">
         <ele>180</ele>
      </rtept>
      <rtept lat="33.45204" lon="126.424831">
         <ele>190</ele>
      </rtept>
      <rtept lat="33.452096" lon="126.425127">
         <ele>190</ele>
      </rtept>
      <rtept lat="33.452031" lon="126.425439">
         <ele>190</ele>
      </rtept>
      <rtept lat="33.45218" lon="126.425591">
         <ele>190</ele>
      </rtept>
      <rtept lat="33.452319" lon="126.425771">
         <ele>190</ele>
      </rtept>
      <rtept lat="33.452584" lon="126.426045">
         <ele>180</ele>
      </rtept>
      <rtept lat="33.452637" lon="126.425987">
         <ele>180</ele>
      </rtept>
      <rtept lat="33.452717" lon="126.426112">
         <ele>180</ele>
      </rtept>
      <rtept lat="33.452764" lon="126.426223">
         <ele>180</ele>
      </rtept>
      <rtept lat="33.452795" lon="126.426368">
         <ele>185.0039</ele>
      </rtept>
      <rtept lat="33.452777" lon="126.426799">
         <ele>190</ele>
      </rtept>
      <rtept lat="33.452875" lon="126.426987">
         <ele>190</ele>
      </rtept>
      <rtept lat="33.453088" lon="126.427304">
         <ele>190</ele>
      </rtept>
      <rtept lat="33.453484" lon="126.427446">
         <ele>190</ele>
      </rtept>
      <rtept lat="33.453556" lon="126.427587">
         <ele>190</ele>
      </rtept>
      <rtept lat="33.453679" lon="126.42768">
         <ele>190</ele>
      </rtept>
      <rtept lat="33.453815" lon="126.427649">
         <ele>190</ele>
      </rtept>
      <rtept lat="33.453916" lon="126.427667">
         <ele>190</ele>
      </rtept>
      <rtept lat="33.454165" lon="126.427726">
         <ele>190</ele>
      </rtept>
      <rtept lat="33.454453" lon="126.427837">
         <ele>190</ele>
      </rtept>
      <rtept lat="33.454813" lon="126.428179">
         <ele>190</ele>
      </rtept>
      <rtept lat="33.454839" lon="126.42824">
         <ele>190</ele>
      </rtept>
      <rtept lat="33.454941" lon="126.428555" />
      <rtept lat="33.45536" lon="126.428817">
         <ele>180</ele>
      </rtept>
      <rtept lat="33.455388" lon="126.429091">
         <ele>180</ele>
      </rtept>
      <rtept lat="33.455432" lon="126.429226">
         <ele>180</ele>
      </rtept>
      <rtept lat="33.455535" lon="126.429276">
         <ele>180</ele>
      </rtept>
      <rtept lat="33.455674" lon="126.429403">
         <ele>180</ele>
      </rtept>
      <rtept lat="33.455753" lon="126.429499">
         <ele>180</ele>
      </rtept>
      <rtept lat="33.455817" lon="126.429717">
         <ele>180</ele>
      </rtept>
      <rtept lat="33.456109" lon="126.430261">
         <ele>180</ele>
      </rtept>
      <rtept lat="33.455983" lon="126.430305">
         <ele>180</ele>
      </rtept>
      <rtept lat="33.455865" lon="126.430314">
         <ele>180</ele>
      </rtept>
      <rtept lat="33.455804" lon="126.430599">
         <ele>180</ele>
      </rtept>
      <rtept lat="33.45583" lon="126.430836">
         <ele>180</ele>
      </rtept>
      <rtept lat="33.45588" lon="126.430907">
         <ele>183.9431</ele>
      </rtept>
      <rtept lat="33.456217" lon="126.430785">
         <ele>180</ele>
      </rtept>
      <rtept lat="33.45629" lon="126.430832">
         <ele>180</ele>
      </rtept>
      <rtept lat="33.456445" lon="126.430991">
         <ele>183.3941</ele>
      </rtept>
      <rtept lat="33.456533" lon="126.431107">
         <ele>184.1613</ele>
      </rtept>
      <rtept lat="33.456612" lon="126.431299">
         <ele>185.4974</ele>
      </rtept>
      <rtept lat="33.456718" lon="126.431418">
         <ele>186.0893</ele>
      </rtept>
      <rtept lat="33.456896" lon="126.431377">
         <ele>184.9939</ele>
      </rtept>
      <rtept lat="33.457051" lon="126.431365">
         <ele>184.0131</ele>
      </rtept>
      <rtept lat="33.457125" lon="126.431415">
         <ele>183.819</ele>
      </rtept>
      <rtept lat="33.457316" lon="126.431407">
         <ele>180</ele>
      </rtept>
      <rtept lat="33.457305" lon="126.431623">
         <ele>183.5048</ele>
      </rtept>
      <rtept lat="33.457242" lon="126.431817">
         <ele>184.8573</ele>
      </rtept>
      <rtept lat="33.457206" lon="126.432066">
         <ele>186.1429</ele>
      </rtept>
      <rtept lat="33.457302" lon="126.432143">
         <ele>185.5544</ele>
      </rtept>
      <rtept lat="33.457342" lon="126.432276">
         <ele>185.6454</ele>
      </rtept>
      <rtept lat="33.457435" lon="126.432357">
         <ele>185.0657</ele>
      </rtept>
      <rtept lat="33.457575" lon="126.432389">
         <ele>183.8951</ele>
      </rtept>
      <rtept lat="33.457834" lon="126.432486">
         <ele>180</ele>
      </rtept>
      <rtept lat="33.457943" lon="126.432908">
         <ele>178.8983</ele>
      </rtept>
      <rtept lat="33.457971" lon="126.433017">
         <ele>179.5353</ele>
      </rtept>
      <rtept lat="33.458035" lon="126.433127">
         <ele>178.9297</ele>
      </rtept>
      <rtept lat="33.458055" lon="126.433236">
         <ele>177.8857</ele>
      </rtept>
      <rtept lat="33.458068" lon="126.433544">
         <ele>175.2753</ele>
      </rtept>
      <rtept lat="33.458214" lon="126.433799">
         <ele>170.9025</ele>
      </rtept>
      <rtept lat="33.458391" lon="126.433951">
         <ele>171.9097</ele>
      </rtept>
      <rtept lat="33.458568" lon="126.43416">
         <ele>166.2892</ele>
      </rtept>
      <rtept lat="33.458675" lon="126.434176">
         <ele>165.3746</ele>
      </rtept>
      <rtept lat="33.458811" lon="126.434056">
         <ele>164.6071</ele>
      </rtept>
      <rtept lat="33.458964" lon="126.433974">
         <ele>163.6001</ele>
      </rtept>
      <rtept lat="33.459013" lon="126.433932">
         <ele>163.378</ele>
      </rtept>
      <rtept lat="33.459131" lon="126.433886">
         <ele>162.5795</ele>
      </rtept>
      <rtept lat="33.459308" lon="126.434405">
         <ele>160</ele>
      </rtept>
      <rtept lat="33.459257" lon="126.434506">
         <ele>160</ele>
      </rtept>
      <rtept lat="33.459244" lon="126.434718">
         <ele>160</ele>
      </rtept>
      <rtept lat="33.459241" lon="126.434943">
         <ele>160</ele>
      </rtept>
      <rtept lat="33.459279" lon="126.435165">
         <ele>160</ele>
      </rtept>
      <rtept lat="33.459269" lon="126.435418">
         <ele>160</ele>
      </rtept>
      <rtept lat="33.459208" lon="126.435766">
         <ele>160</ele>
      </rtept>
      <rtept lat="33.459157" lon="126.435903">
         <ele>160</ele>
      </rtept>
      <rtept lat="33.459611" lon="126.436223">
         <ele>160</ele>
      </rtept>
      <rtept lat="33.459882" lon="126.436273">
         <ele>160</ele>
      </rtept>
      <rtept lat="33.46018" lon="126.4363">
         <ele>160</ele>
      </rtept>
      <rtept lat="33.460334" lon="126.436213">
         <ele>160</ele>
      </rtept>
      <rtept lat="33.460595" lon="126.436134">
         <ele>160</ele>
      </rtept>
      <rtept lat="33.460928" lon="126.438914">
         <ele>160</ele>
      </rtept>
   </rte>
</gpx>