<?xml version="1.0" encoding="utf-8"?>
<kml xmlns:gx="http://www.google.com/kml/ext/2.2" xmlns="http://www.opengis.net/kml/2.2">
  <Document>
    <Style id="base_track_style">
      <LineStyle>
        <color>7f00ffff</color>
        <width>4</width>
      </LineStyle>
    </Style>
    <Folder><Placemark>
  <styleUrl>#base_track_style</styleUrl>
  <name>route</name>
  <MultiGeometry>
    <LineString>
      <coordinates>126.558634,33.247453,56.64956
126.558634,33.247523,57.66937
126.556609,33.247524,39.24117
126.55659,33.247524,39.09549
126.5565,33.247448,37.23307
126.556462,33.247383,35.90731
126.556464,33.247339,35.19987
126.556528,33.247229,33.88449
126.55651,33.247238,33.88683
126.556375,33.24731,34.12506
126.555869,33.24751,35.23844
126.555433,33.247657,36.20957
126.554596,33.247829,40
126.554204,33.247864,40
126.554174,33.247758,40
126.554107,33.247663,40
126.554082,33.247561,40
126.554031,33.247425,40
126.553989,33.247393,40
126.553852,33.247343,40
126.553882,33.247235,40
126.553864,33.247162,40
126.553869,33.247108,40
126.55393,33.246972,40
126.553933,33.246924,40
126.553898,33.246865,40
126.55381,33.2468,40
126.553676,33.246746,40
126.553553,33.246674,40
126.553482,33.246573,40
126.553368,33.24611,50
126.553458,33.245978,50
126.553596,33.245842,50
126.554109,33.246132,40
126.554229,33.246138,40
126.554393,33.246029,40
126.554509,33.245894,40
126.554582,33.245775,40
126.554585,33.245676,40
126.554558,33.245634,40
126.554176,33.245461,50
126.554221,33.24519,50
126.554274,33.245026,50
126.554326,33.244966,50
126.554381,33.244935,50
126.554594,33.244871,50
126.554652,33.244833,50
126.554679,33.244762,50
126.554728,33.244725,50
126.554952,33.244679,50
126.555049,33.244607,50
126.555103,33.244505,50
126.555289,33.244472,50
126.555399,33.244503,50
126.555614,33.244623,50
126.555635,33.24467,50
126.555595,33.244705,50
126.555551,33.244807,50
126.555547,33.244875,50
126.555576,33.245006,46.44553
126.555628,33.245078,45.75987
126.555671,33.24509,45.62932
126.555773,33.245078,45.74118
126.555895,33.245034,46.19745
126.556038,33.245009,46.50227
126.556247,33.245063,46.0336
126.556285,33.24498,46.96272
126.556245,33.244851,50
126.556162,33.244791,50
126.556015,33.244723,50
126.556063,33.244658,50
126.556079,33.24458,50
126.556099,33.244554,50
126.556176,33.244524,50
126.556251,33.244516,50
126.556119,33.244102,50
126.556008,33.243753,60
126.555099,33.243914,50
126.555069,33.243854,60
126.555006,33.243872,55.06923
126.555041,33.243859,60
126.554866,33.24374,60
126.554082,33.242548,60
126.554009,33.242438,60
126.55389,33.242365,60
126.553897,33.242357,60
126.55372,33.242286,60
126.553532,33.242216,57.63086
126.552676,33.242231,54.78143
126.552677,33.242265,55.58061
126.552544,33.242329,55.91301
126.551583,33.242672,59.83322
126.550866,33.242796,60.43336
126.550766,33.242843,61.63418
126.550619,33.242949,64.86236
126.550424,33.24325,74.43043
126.550274,33.243745,88.405
126.549997,33.244046,96.76917
126.549916,33.244088,98.48659
126.549127,33.244497,113.5863
126.548586,33.244639,119.3544
126.547353,33.244733,128.2037
126.545962,33.244561,117.5
126.545799,33.244371,114.5994
126.546078,33.244252,118.7199
126.547257,33.244258,128.3248
126.547552,33.244222,129.4077
126.547844,33.243444,108.3573
126.547812,33.242685,79.13269
126.54836,33.241717,46.94744
126.548443,33.241569,43.049
126.548237,33.241484,43.05828
126.547567,33.241103,40.36943
126.547622,33.241028,38.12865
126.547654,33.240969,36.95647
126.547733,33.240934,36.01593
126.547776,33.24085,34.32237
126.547809,33.24077,32.7471
126.547832,33.240599,29.62098
126.548002,33.2405,26.95693
126.548077,33.240363,24.23047
126.548192,33.240246,21.47549
126.54832,33.240117,18.30369
126.547387,33.239345,13.01032
126.547405,33.239058,10
126.547439,33.238535,10
126.546962,33.238844,10
126.546733,33.239103,10
126.546735,33.239247,10
126.546736,33.239345,10
126.54683,33.239542,11.38926
126.547123,33.239668,14.92048
126.547018,33.240001,18.32209
126.546776,33.240208,19.52452
126.546769,33.240387,23.8526
126.546184,33.240292,18.43343
126.545818,33.239982,11.90502
126.545769,33.23994,11.06315
126.545513,33.239947,11.0881
126.545271,33.240021,12.54999
126.544969,33.240336,17.87445
126.54483,33.240344,18.14076
126.544581,33.240266,16.82298
126.544329,33.240041,13.12722
126.544191,33.239946,11.21256
126.544044,33.239689,12.09182
126.543775,33.239401,10
126.543554,33.238988,10
126.543548,33.238977,0
126.543439,33.239022,10
126.543308,33.239455,10
126.543076,33.239666,10
126.543026,33.239904,11.80942
126.542888,33.23996,11.15022
126.540332,33.242012,27.11316
126.539025,33.242188,27.94868
126.53836,33.241757,19.68884
126.536922,33.241147,15.71686
126.534347,33.239747,15.22684
126.533296,33.239514,15.68093
126.531823,33.239669,12.69499
126.53173,33.239679,12.86949
126.529668,33.239661,11.28516
126.529241,33.23955,10
126.528294,33.239715,10
126.527844,33.240182,11.7809
126.526135,33.240607,10
126.522865,33.240989,10
126.522825,33.241255,11.91156
126.522458,33.241366,13.73223
126.522393,33.241528,16.37746
126.521838,33.241524,15.59526
126.521428,33.241707,17.23545
126.521042,33.241456,11.62435
126.519971,33.241147,11.79273
126.519153,33.239697,10
126.518791,33.238922,10
126.518209,33.238405,10
126.518145,33.238207,10
126.518136,33.237758,10
126.518025,33.237552,10
126.517637,33.23733,10
126.517307,33.237212,10
126.516896,33.237257,10
126.516856,33.237342,10
126.516686,33.237558,10
126.516443,33.237646,10
126.516257,33.237651,10
126.515851,33.237487,10
126.51549,33.237301,10
126.515292,33.237196,10
126.515292,33.237092,10
126.5151,33.236288,10
126.514898,33.235673,10
126.513805,33.234819,10
126.513745,33.234647,10
126.513647,33.234444,10
126.513697,33.234261,10
126.513689,33.234148,10
126.513623,33.23401,10
126.5133,33.233901,10
126.513197,33.233831,10
126.512929,33.233488,10
126.512454,33.233001,10
126.512047,33.232942,10
126.511584,33.232968,10
126.511493,33.232831,10
126.510967,33.232545,10
126.51031,33.232186,0
126.508345,33.230959,0
126.508078,33.230787,0
126.507506,33.230819,0
126.506692,33.230817,0
126.506174,33.23093,0
126.505729,33.231142,0
126.504714,33.23124,0
126.504242,33.230971,0
126.503532,33.2311,0
126.50291,33.231423,0
126.502504,33.231743,0
126.501388,33.231653,0
126.500828,33.231405,0
126.500573,33.231473,0
126.500251,33.23185,0
126.500337,33.232102,0
126.499734,33.232249,0
126.498962,33.232659,0
126.497998,33.233171,0
126.49722,33.233171,0
126.496882,33.233143,0
126.496067,33.232927,0
126.495745,33.232514,0
126.494907,33.231993,0
126.494627,33.231818,0
126.493833,33.231836,0
126.49334,33.232482,0
126.492374,33.232859,0
126.492074,33.232715,0
126.491647,33.232927,10
126.49111,33.232837,10
126.490979,33.23268,10
126.490507,33.2325,10
126.490101,33.232648,10
126.488712,33.233153,10
126.487725,33.23362,10
126.487491,33.233924,10
126.48686,33.233489,10
126.486736,33.233458,10
126.48662,33.23345,10
126.486121,33.233563,10
126.485611,33.233637,10
126.485185,33.233762,20
126.484849,33.233768,20
126.483364,33.233646,20
126.482801,33.233381,20
126.482504,33.232913,20
126.481175,33.232568,20
126.481023,33.232356,20
126.480377,33.232485,20
126.479489,33.232663,0
126.479395,33.232183,0
126.479305,33.231837,0
126.479129,33.231007,20
126.479043,33.230779,20
126.478878,33.23048,20
126.478632,33.23019,20
126.478509,33.23008,17.14514
126.4783,33.229932,15.72262
126.477819,33.229626,10
126.476945,33.229219,10
126.476423,33.228999,10
126.476317,33.228943,10
126.476256,33.228896,10
126.476179,33.228801,10
126.475997,33.228675,10
126.475782,33.228548,10
126.475506,33.228417,10
126.475417,33.228347,10
126.475233,33.228113,10
126.475013,33.227728,10
126.474866,33.227367,10
126.47477,33.227241,10
126.474627,33.227141,10
126.474501,33.227097,10
126.47241,33.226705,10
126.471411,33.22639,10
126.471342,33.22638,10
126.471177,33.2264,10
126.470852,33.226597,10
126.470673,33.226611,10
126.470436,33.226823,10
126.47014,33.22702,0
126.469973,33.227185,0
126.469849,33.22734,0
126.469686,33.227665,0
126.469597,33.227804,0
126.469416,33.228007,0
126.469,33.228365,0
126.468861,33.228517,0
126.468848,33.228623,0
126.468911,33.228664,0
126.467566,33.230065,0
126.46547,33.231328,0
126.465104,33.231448,0
126.464922,33.231484,0
126.464437,33.231645,0
126.464226,33.231629,0
126.464145,33.231603,0
126.464059,33.231638,0
126.46393,33.23173,0
126.463682,33.231706,0
126.463051,33.231995,0
126.462946,33.232059,0
126.462817,33.23221,0
126.462705,33.23239,0
126.462828,33.232771,0
126.463091,33.233142,10
126.463344,33.233393,10
126.463423,33.233573,10
126.463447,33.233764,10
126.463436,33.233926,10
126.463598,33.234067,10
126.463572,33.234246,10
126.463454,33.234355,10
126.463287,33.23426,10
126.463249,33.234537,10
126.463113,33.235139,10
126.46214,33.237687,12.00301
126.460727,33.239317,17.46704
126.459372,33.239805,15.2605
126.458605,33.240013,15.40808
126.458042,33.241133,25.11967
126.458109,33.241416,28.22009
126.458943,33.241133,36.76074
126.459758,33.241115,37.26107
126.460427,33.241201,40
126.460581,33.241286,40
126.460842,33.24143,50
126.460321,33.241848,40
126.460128,33.242407,44.8073
126.460167,33.242601,46.15077
126.460189,33.242604,46.31104
126.460488,33.243296,50
126.459789,33.243509,50
126.459256,33.243578,50
126.45864,33.243551,47.43189
126.457357,33.243888,50
126.457142,33.243958,50
126.457141,33.243956,50
126.457411,33.243873,50
</coordinates>
    </LineString>
  </MultiGeometry>
</Placemark></Folder>
  </Document>
</kml>