<?xml version="1.0" encoding="utf-8"?>
<kml xmlns:gx="http://www.google.com/kml/ext/2.2" xmlns="http://www.opengis.net/kml/2.2">
  <Document>
    <Style id="base_track_style">
      <LineStyle>
        <color>7f00ffff</color>
        <width>4</width>
      </LineStyle>
    </Style>
    <Folder><Placemark>
  <styleUrl>#base_track_style</styleUrl>
  <name>route</name>
  <MultiGeometry>
    <LineString>
      <coordinates>126.457129,33.243884,50
126.457159,33.24395,50
126.457093,33.244017,50
126.456851,33.243842,50
126.456432,33.243751,50
126.45596,33.243648,50
126.455798,33.243676,50
126.455344,33.243997,50
126.454661,33.244144,50
126.454023,33.244626,50
126.45361,33.245034,50
126.452985,33.245326,50
126.452773,33.245579,50
126.452633,33.245828,50
126.452668,33.246234,50
126.452257,33.24653,53.48338
126.451987,33.246671,55.79626
126.451693,33.246778,58.1279
126.451403,33.246096,51.40027
126.451226,33.246075,51.28455
126.450979,33.24601,49.5465
126.450738,33.245462,41.83971
126.450874,33.245389,40.96327
126.450775,33.245214,40
126.450521,33.245197,40
126.450461,33.245211,40
126.450361,33.245274,40.94997
126.450165,33.245463,42.13849
126.450056,33.245604,44.61615
126.449885,33.245877,49.29776
126.449764,33.245941,49.37471
126.449147,33.245907,50
126.449149,33.245836,50
126.449154,33.245568,48.37898
126.448979,33.245568,49.37482
126.448368,33.245683,50
126.448221,33.245738,50
126.448024,33.245728,50
126.447763,33.245669,50
126.447513,33.245613,50
126.447271,33.245495,49.89312
126.447135,33.245268,46.92465
126.446883,33.245316,48.05984
126.446478,33.245313,48.80219
126.446278,33.245354,50
126.445972,33.245451,50
126.445136,33.245584,56.62353
126.44495,33.24554,57.83493
126.44474,33.245385,58.51686
126.444481,33.245322,59.58903
126.444358,33.24531,60
126.444364,33.245005,58.55196
126.444339,33.244882,57.47757
126.444299,33.244835,57.28783
126.443982,33.244475,54.53647
126.443859,33.244181,49.57137
126.443612,33.24381,43.45447
126.443409,33.243619,40.45639
126.443267,33.243331,35.68649
126.443261,33.243181,33.74633
126.443307,33.242989,31.18905
126.443393,33.242674,30
126.443343,33.242318,30
126.443492,33.242108,20
126.44354,33.241936,20
126.443393,33.241605,20
126.443275,33.241341,20
126.443269,33.241053,20
126.443217,33.240974,20
126.443159,33.240884,20
126.442686,33.239827,10
126.442742,33.239623,10
126.442756,33.239382,10
126.442745,33.239326,10
126.442958,33.239129,10
126.443109,33.238949,10
126.443235,33.238887,10
126.443364,33.238887,10
126.44347,33.238858,10
126.443484,33.238854,10
126.443522,33.23862,10
126.442831,33.237858,10
126.442848,33.237689,10
126.442482,33.237355,10
126.442317,33.237311,10
126.442205,33.2373,10
126.442154,33.237295,0
126.441918,33.237387,0
126.441778,33.237474,0
126.441506,33.237687,10
126.4414,33.238008,10
126.441349,33.238236,10
126.441275,33.238327,10
126.440981,33.238452,10
126.440818,33.238446,10
126.440691,33.238413,10
126.440567,33.238351,10
126.440322,33.23816,10
126.439891,33.238191,10
126.439684,33.238297,10
126.439577,33.238391,10
126.439517,33.238467,10
126.439501,33.238487,10
126.439371,33.238473,10
126.439269,33.238578,10
126.439287,33.238856,10
126.439166,33.23896,10
126.438852,33.239098,10
126.438575,33.239116,10
126.438128,33.239106,10
126.437689,33.239096,12.4931
126.437202,33.238973,15.32182
126.436894,33.238869,20
126.436694,33.238887,20
126.436687,33.238639,20
126.436716,33.238309,10
126.436759,33.238127,10
126.436739,33.238059,10
126.436599,33.237848,10
126.436496,33.237692,10
126.436159,33.237007,10
126.435858,33.237002,10
126.435542,33.236845,10
126.435048,33.236772,10
126.434501,33.235991,10
126.433965,33.235458,10
126.432968,33.235346,10
126.432172,33.235256,10
126.431658,33.235603,10
126.43115,33.23589,10
126.430279,33.236329,10
126.430056,33.236402,10
126.42957,33.236407,10
126.429354,33.236389,10
126.428817,33.236218,10
126.428599,33.236174,10
126.428335,33.236196,10
126.42789,33.236401,10
126.427687,33.236623,10
126.427485,33.23689,10
126.42734,33.237159,10
126.426676,33.237684,12.52726
126.42658,33.237737,13.35965
126.426493,33.237754,13.75282
126.426422,33.237732,13.65268
126.426279,33.237704,13.53373
126.426121,33.237738,13.85659
126.425877,33.237822,14.20253
126.425643,33.237796,13.06006
126.424831,33.237864,10.81698
126.42478,33.237885,10.88896
126.424024,33.238572,13.87216
126.423863,33.23869,13.6529
126.42378,33.238792,13.85465
126.423739,33.238886,14.36889
126.423754,33.239137,17.00618
126.423722,33.239268,18.04886
126.423404,33.239633,18.24443
126.423324,33.239683,17.82125
126.422523,33.23995,11.97762
126.422421,33.24001,11.42732
126.421014,33.241436,10
126.420913,33.241522,10
126.420828,33.24155,10
126.420757,33.241597,10
126.420729,33.241675,10
126.420647,33.24168,10
126.420579,33.241713,10
126.420546,33.241751,10
126.42055,33.241911,10
126.42046,33.241955,10
126.420174,33.242183,10
126.419973,33.242286,10
126.419758,33.242423,10
126.419492,33.242525,10
126.419425,33.242612,10
126.4194,33.24269,10
126.419581,33.242899,10
126.419972,33.242681,10
126.420068,33.242799,10
126.420131,33.243019,10
126.420553,33.243573,15.34543
126.420292,33.243732,14.8006
126.419861,33.244183,13.51628
126.419297,33.244609,10.18219
126.418664,33.245015,10
126.418617,33.245045,10
126.418638,33.245256,12.01019
126.41873,33.245368,13.22848
126.4188,33.245421,13.94149
126.41885,33.245432,14.28484
126.418841,33.245458,14.42066
126.418501,33.245699,15.24794
126.41845,33.245918,20
126.418344,33.245993,20
126.41833,33.246294,20
126.418342,33.246344,20
126.418312,33.246379,20
126.418042,33.246148,20
126.417889,33.245882,20
126.417767,33.245553,17.81982
126.417726,33.245281,15.77162
126.417667,33.245074,14.3388
126.417621,33.245033,14.20618
126.417524,33.244868,13.23129
126.417545,33.244722,10
126.417176,33.244545,10
126.416675,33.244305,10
126.416364,33.244234,10
126.416253,33.244226,10
126.416222,33.244192,10
126.416126,33.244169,10
126.415917,33.244147,10
126.41595,33.243826,10
126.415877,33.243563,10
126.415844,33.24354,10
126.415666,33.243488,10
126.415474,33.243497,10
126.415278,33.243568,10
126.415082,33.243617,10
126.415042,33.243656,10
126.414984,33.243826,10
126.41486,33.243922,10
126.414669,33.244006,10
126.414561,33.244265,10
126.414531,33.244398,10
126.414408,33.24441,10
126.41417,33.244336,10
126.41391,33.244337,10
126.41357,33.244492,10
126.413437,33.24493,10.1431
126.41307,33.245229,13.88345
126.412623,33.245226,14.10002
126.412063,33.245223,14.55003
126.411397,33.245252,14.20642
126.410966,33.245193,12.27442
126.410107,33.245044,11.81888
126.409206,33.244946,11.16905
126.408525,33.244924,11.90112
126.407749,33.244873,13.88837
126.407265,33.244754,15.45421
126.406894,33.244551,15.24441
126.406728,33.244451,16.67491
126.406537,33.244516,23.18812
126.406496,33.244645,25.15229
126.406399,33.244754,26.89213
126.406244,33.24487,28.83087
126.406045,33.244927,29.6651
126.405935,33.245446,34.67193
126.405945,33.245516,35.27475
126.405967,33.24567,36.51613
126.406148,33.246177,40
126.406167,33.246368,41.38891
126.406588,33.246918,48.096
126.406714,33.24712,50.10111
126.406751,33.247275,50.83398
126.406765,33.247859,53.76932
126.406901,33.248256,57.2086
126.407101,33.248613,60
126.40738,33.249055,60
126.407491,33.249376,60
126.407471,33.250207,60
126.407489,33.250207,60
126.410635,33.250275,70
126.411038,33.250302,70
126.411439,33.25038,70
126.411816,33.250589,70
126.41193,33.250697,70
126.4121,33.250909,70
126.412693,33.252183,80
126.414127,33.255176,100
126.412656,33.255809,110
126.41193,33.256081,110
126.408942,33.256949,110
126.407918,33.257266,100
126.406668,33.257755,100
126.406099,33.257999,100
126.405547,33.258184,100
126.405366,33.25807,100
126.403304,33.257176,90
126.402564,33.256832,90
126.402198,33.25656,90
126.401872,33.256186,90
126.401702,33.255921,87.51111
126.400642,33.253978,83.67025
126.399859,33.252459,70
126.399606,33.252021,64.11963
126.399456,33.251838,60
126.399146,33.251543,60
126.398876,33.251368,60
126.398163,33.250839,60
126.398152,33.25055,60
126.398044,33.250199,60
126.39806,33.249805,55.02761
126.398135,33.249704,50
126.398007,33.249567,50
126.397975,33.249329,50
126.397885,33.249187,50
126.397926,33.249051,50
126.397853,33.248653,50
126.397788,33.248544,50
126.397583,33.248368,50
126.397406,33.248161,40
126.397358,33.247901,40
126.397183,33.24769,40
126.397139,33.247457,40
126.397033,33.247224,40
126.397049,33.247116,40
126.39701,33.247001,40
126.396896,33.24677,40
126.396712,33.246207,40
126.396092,33.245947,40
126.395296,33.245915,40
126.395164,33.245828,40
126.394781,33.244836,40
126.394422,33.244935,40
126.394153,33.245151,40
126.394056,33.244958,40
126.39366,33.24475,40
126.393152,33.244799,40
126.392821,33.244635,40
126.39247,33.244702,40
126.392282,33.244704,40
126.391979,33.244416,40
126.391559,33.244263,40
126.391142,33.243816,30
126.390533,33.243289,30
126.3902,33.243218,30
126.389712,33.242804,30
126.389238,33.242756,30
126.388678,33.242436,30
126.388558,33.242058,30
126.388501,33.241702,30
126.388523,33.241229,20
126.38869,33.240791,20
126.389032,33.240666,20
126.389556,33.240151,20
126.390177,33.239999,10
126.390483,33.239788,10
126.390568,33.23963,10
126.390624,33.238967,10
126.391043,33.238506,10
126.391084,33.238479,10
126.391263,33.23836,0
126.390544,33.237941,0
126.390121,33.237662,0
126.389798,33.237567,0
126.389503,33.237505,0
126.389204,33.237385,0
126.38907,33.237347,0
126.389005,33.237221,0
126.388857,33.237041,0
126.388637,33.236691,0
126.388534,33.236587,0
126.388336,33.236452,0
126.387448,33.236114,0
126.387238,33.235993,0
126.387032,33.235908,10
126.386863,33.235807,10
126.386691,33.235666,10
126.386262,33.235531,10
126.386048,33.235405,10
126.385916,33.235298,10
126.385177,33.234782,10
126.38485,33.234466,10
126.384608,33.23404,10
126.384449,33.233938,10
126.384295,33.233759,10
126.384141,33.233653,10
126.384001,33.233626,10
126.383566,33.233817,10
126.383384,33.233927,10
126.383006,33.233938,10
126.382884,33.234017,10
126.38266,33.234227,10
126.382427,33.23438,10
126.382207,33.234477,10
126.381871,33.234528,10
126.381698,33.234528,10
126.381535,33.234618,10
126.381194,33.234716,10
126.380895,33.234751,10
126.380409,33.234731,10
126.380152,33.23479,10
126.379429,33.234767,10.23253
126.378943,33.234591,13.05969
126.378695,33.234431,13.28703
126.378476,33.234313,13.50934
126.378281,33.234082,12.91028
126.378205,33.234001,10
126.378158,33.233774,10
126.377986,33.233657,10
126.377631,33.233501,10
126.377411,33.233548,10
126.37729,33.233599,10
126.376771,33.233716,10
126.376575,33.233821,10
126.376304,33.233899,10
126.376108,33.233977,10
126.375921,33.234134,10
126.375651,33.234153,10
126.375356,33.234071,10
126.375076,33.233915,10
126.374969,33.233681,10
126.374833,33.233481,10
126.374436,33.233345,10
126.374086,33.233251,10
126.373614,33.233142,10
126.373227,33.233091,10
126.372924,33.233027,10
126.372675,33.232917,10
126.37225,33.23277,10
126.371855,33.232502,10
126.371707,33.232363,10
126.371113,33.232218,10
126.370795,33.232105,10
126.370472,33.231937,10
126.370219,33.231778,10
126.36964,33.231729,10
126.369464,33.231698,10
126.36932,33.2317,10
126.369246,33.231731,10
126.369169,33.231793,10
126.369098,33.23203,10
126.368818,33.232472,10
126.368599,33.232829,0
126.368297,33.232929,0
126.3681,33.233021,0
126.367961,33.232873,0
126.367493,33.232267,0
126.367428,33.232221,0
126.367243,33.23203,0
126.367151,33.231989,0
126.366886,33.231968,0
126.36582,33.232051,0
126.365551,33.232113,0
126.365144,33.232376,0
126.364701,33.232633,0
126.364267,33.23304,0
126.364187,33.233185,0
126.36406,33.233847,0
126.364037,33.23396,0
126.363937,33.234035,0
126.363786,33.234087,0
126.363567,33.234112,0
126.363472,33.234149,0
126.363361,33.234254,0
126.363225,33.23452,0
126.363139,33.234587,0
126.363028,33.234628,0
126.362966,33.234708,0
126.3628,33.235017,0
126.362738,33.235221,0
126.362726,33.235365,0
126.362758,33.235541,0
126.363019,33.235646,0
126.362924,33.235985,0
126.362897,33.235994,0
126.362581,33.236101,0
126.36206,33.236209,0
126.36198,33.236254,0
126.361953,33.236422,0
126.362039,33.23655,0
126.36231,33.236752,0
126.362498,33.23702,0
126.362414,33.237133,0
126.3619,33.237398,0
126.36162,33.237294,0
</coordinates>
    </LineString>
  </MultiGeometry>
</Placemark></Folder>
  </Document>
</kml>