<?xml version="1.0" encoding="utf-8"?>
<kml xmlns:gx="http://www.google.com/kml/ext/2.2" xmlns="http://www.opengis.net/kml/2.2">
  <Document>
    <Style id="base_track_style">
      <LineStyle>
        <color>7f00ffff</color>
        <width>4</width>
      </LineStyle>
    </Style>
    <Folder><Placemark>
  <styleUrl>#base_track_style</styleUrl>
  <name>route</name>
  <MultiGeometry>
    <LineString>
      <coordinates>126.438967,33.460913,0
126.438971,33.460941,0
126.440592,33.460978,160
126.440977,33.460945,160
126.44139,33.460933,156.2632
126.443026,33.460958,150
126.44356,33.460942,150
126.443903,33.460901,150
126.444439,33.460809,150
126.444531,33.461041,150
126.444597,33.46108,150
126.444666,33.461028,150
126.444989,33.460916,150
126.446012,33.460496,150
126.446247,33.460429,150
126.446477,33.46033,0
126.44671,33.460253,0
126.446824,33.460262,0
126.446995,33.460316,0
126.447392,33.460493,150
126.44809,33.46095,150
126.44816,33.461017,150
126.44821,33.461123,150
126.448267,33.461407,150
126.448363,33.461702,150
126.448223,33.461823,150
126.448046,33.462248,140
126.447869,33.462473,140
126.447603,33.462729,140
126.447445,33.462912,140
126.447241,33.463005,140
126.447131,33.463055,140
126.446953,33.463289,140
126.446684,33.464089,140
126.446664,33.464306,130
126.446664,33.464564,130
126.446485,33.464737,130
126.446152,33.464862,130
126.445843,33.465032,126.6742
126.445725,33.465215,124.1164
126.445745,33.465429,121.6813
126.445562,33.465988,113.3732
126.445497,33.466341,110
126.445542,33.466799,104.512
126.445537,33.467212,100
126.445677,33.467742,100
126.445733,33.468163,100
126.445728,33.468432,100
126.445677,33.46872,100
126.445541,33.469035,100
126.445527,33.469285,100
126.445621,33.469822,90
126.445656,33.470321,90
126.445642,33.4705,90
126.445599,33.470808,90
126.445157,33.471643,90
126.444945,33.472319,80
126.444726,33.472601,80
126.444456,33.472912,80
126.44417,33.473479,70
126.444088,33.473759,70
126.444004,33.474316,70
126.443948,33.474866,60
126.443951,33.475055,60
126.443894,33.475587,60
126.443823,33.475779,60
126.443618,33.475941,60
126.443466,33.476148,60
126.443466,33.476384,60
126.443413,33.47667,60
126.443423,33.477314,50
126.443394,33.477506,50
126.44337,33.477668,50
126.443372,33.47781,50
126.443333,33.477915,50
126.442255,33.477656,50
126.441924,33.477635,50
126.441722,33.477885,50
126.441599,33.478097,50
126.44152,33.4783,50
126.4414,33.47832,50
126.441052,33.478293,50
126.441013,33.47832,50
126.440973,33.478413,50
126.440956,33.478524,50
126.440969,33.478631,50
126.440929,33.478779,50
126.440625,33.478916,50
126.440454,33.478985,50
126.440563,33.47922,50
126.44074,33.47945,50
126.440836,33.479624,50
126.441059,33.479844,50
126.441188,33.480357,50
126.44123,33.480729,40
126.441065,33.480796,40
126.440949,33.480861,40
126.440881,33.480921,40
126.440784,33.481224,40
126.44055,33.481435,40
126.44043,33.48156,40
126.440279,33.481761,40
126.440198,33.48193,40
126.439973,33.48223,40
126.439967,33.482341,40
126.440051,33.482616,40
126.439997,33.482962,40
126.439934,33.483128,40
126.439994,33.483379,40
126.440084,33.483591,30
126.440095,33.48369,30
126.439908,33.484186,30
126.439534,33.484605,30
126.439435,33.484883,30
126.43937,33.485063,30
126.439296,33.485634,30
126.439306,33.485855,30
126.439357,33.486048,30
126.438934,33.486341,30
126.438823,33.486367,30
126.438553,33.486368,20
126.438408,33.486395,20
126.438277,33.48644,20
126.437925,33.48663,20
126.437769,33.486691,20
126.437433,33.486777,20
126.437203,33.486797,20
126.437087,33.486965,20
126.437011,33.487033,20
126.436934,33.487069,20
126.436948,33.487133,20
126.436818,33.487552,20
126.436642,33.488043,10
126.436754,33.488429,10
126.436708,33.488586,10
126.436526,33.488891,10
126.436022,33.489301,10
126.435737,33.489538,10
126.435164,33.490189,10
126.435146,33.490351,10
126.434909,33.491205,10
126.434788,33.492145,10
126.434888,33.492211,10
126.435087,33.492196,10
126.435574,33.492393,10
126.436306,33.492674,0
126.436583,33.492902,0
126.436397,33.493345,0
126.436293,33.493409,0
126.436165,33.493462,0
126.435938,33.493729,0
126.435969,33.493922,0
126.435965,33.494082,0
126.435949,33.494123,0
126.436705,33.494253,0
126.436993,33.494262,0
126.436996,33.494367,0
126.436785,33.494571,0
126.43647,33.494696,0
126.436357,33.494833,0
126.436317,33.49499,0
126.436515,33.495234,0
126.43699,33.495688,0
126.437315,33.495805,0
126.437583,33.495775,0
126.43818,33.495554,0
126.438333,33.495518,0
126.438379,33.495507,0
126.438642,33.495527,0
126.439112,33.495697,0
126.439797,33.495918,0
126.440365,33.495984,0
126.440902,33.496124,0
126.441206,33.496392,0
126.441278,33.496491,0
126.441343,33.496478,0
126.441389,33.496369,0
126.441415,33.496178,0
126.441481,33.496104,0
126.442653,33.496773,10
126.443489,33.49719,10
126.444401,33.497431,10
126.445308,33.497696,10
126.445648,33.497764,10
126.446057,33.497786,10
126.446492,33.497854,10
126.446809,33.497843,10
126.447132,33.49774,10
126.447253,33.497967,10
126.447373,33.49808,10
126.447982,33.497992,10
126.448218,33.497958,0
126.448491,33.497863,0
126.448752,33.497741,0
126.449361,33.497411,10
126.449582,33.497267,10
126.449673,33.49719,10
126.450106,33.496942,10
126.45047,33.49686,10
126.450767,33.496844,10
126.451008,33.49686,10
126.451973,33.497092,10
126.452531,33.4972,10
126.452544,33.497232,10
126.453057,33.497593,10
126.453167,33.497794,10
126.453207,33.497917,10
126.453326,33.498077,10
126.453469,33.49821,10
126.453628,33.498398,10
126.453788,33.498373,10
126.454008,33.498466,10
126.454174,33.498749,10
126.454326,33.49897,10
126.45439,33.499106,0
126.454365,33.499236,0
126.454517,33.499333,0
126.454609,33.499366,0
126.454617,33.49954,0
126.454914,33.499611,0
126.455105,33.499702,0
126.455247,33.500053,0
126.455286,33.500156,0
126.455281,33.500208,0
126.455236,33.500181,0
126.454697,33.500001,0
126.454648,33.500209,0
126.45461,33.500296,0
126.454626,33.500396,0
126.454667,33.500518,0
126.454705,33.500579,0
126.454775,33.500692,0
126.456009,33.502012,0
126.457059,33.503185,0
126.457377,33.503333,0
126.457526,33.503384,0
126.457695,33.503413,0
126.459619,33.503604,0
126.459775,33.503606,0
126.459922,33.503582,0
126.461003,33.503231,0
126.462219,33.502831,0
126.462613,33.502748,0
126.462766,33.502732,0
126.463165,33.502728,0
126.46331,33.503419,0
126.463464,33.504465,0
126.463592,33.505579,0
126.463693,33.506264,0
126.464311,33.506301,0
126.4652,33.506302,0
126.465845,33.506324,0
126.46592,33.506327,0
126.465931,33.5064,0
126.465923,33.506623,0
126.466201,33.506628,0
126.466458,33.506587,0
126.466601,33.506576,0
126.466731,33.506626,0
126.466759,33.50664,0
126.466804,33.506703,0
126.466823,33.506916,10
126.466805,33.50705,10
126.466965,33.507299,10
126.466961,33.507476,10
126.466905,33.507749,12.29361
126.466886,33.507983,11.41546
126.467143,33.508162,13.17848
126.467493,33.508181,18.35421
126.467979,33.50817,27.09864
126.468015,33.508145,27.57968
126.468189,33.508026,29.60068
126.468525,33.507566,27.35141
126.468544,33.507196,21.10744
126.46846,33.506725,13.66777
126.468726,33.506663,15.02834
126.468824,33.5066,14.91479
126.468861,33.506472,13.7632
126.469381,33.506424,15.23003
126.470377,33.508371,17.81935
126.470557,33.508634,14.14696
126.470679,33.508763,11.8673
126.470994,33.508938,10
126.471663,33.509111,10
126.472115,33.509228,10
126.473452,33.509508,10
126.473696,33.509532,10
126.473935,33.509534,10
126.47482,33.509426,10
126.474963,33.509378,10
126.475385,33.509184,10
126.476144,33.508805,10
126.476332,33.508752,10
126.477268,33.508775,10
126.477626,33.50886,10
126.478019,33.509066,10
126.47819,33.50913,10
126.478521,33.509214,10
126.479824,33.509466,10
126.48,33.509528,10
126.480499,33.509803,10
126.480909,33.510066,10
126.481123,33.510182,10
126.481321,33.510253,10
126.48178,33.510378,10
126.482654,33.510568,10
126.483228,33.51073,10
126.483405,33.510799,10
126.483476,33.510848,10
126.483635,33.51104,10
126.483783,33.511355,10
126.483991,33.512269,10
126.484202,33.512913,10
126.484425,33.513695,0
126.484761,33.514475,0
126.485134,33.515152,10
126.485298,33.515489,10
126.48549,33.516037,10
126.485559,33.516161,10
126.486254,33.516938,10
126.487479,33.517969,10
126.487681,33.518171,10
126.488716,33.518665,10
126.489232,33.518877,10
126.489695,33.519005,10
126.490007,33.519063,10
126.490924,33.519147,10
126.491307,33.519224,0
126.492075,33.519474,0
126.492734,33.519552,0
126.493905,33.51992,0
126.495165,33.520269,0
126.496334,33.520334,0
126.496723,33.520271,0
126.498781,33.519775,0
126.498948,33.5197,0
126.499157,33.519562,0
126.499333,33.519342,0
126.499704,33.518777,0
126.499814,33.518559,0
126.499888,33.51837,0
126.500025,33.517933,0
126.500123,33.517748,10
126.500191,33.517682,10
126.500529,33.517468,10
126.500678,33.517415,10
126.501844,33.517258,10
126.502117,33.517267,10
126.502847,33.517221,0
126.50303,33.51717,0
126.504013,33.516822,10
126.504313,33.516749,10
126.504457,33.516742,10
126.505072,33.516825,10
126.505412,33.516806,10
126.505608,33.51675,10
126.505825,33.51666,10
126.506412,33.516357,10
126.506612,33.516322,10
126.50728,33.516369,10
126.50787,33.516342,10
126.508037,33.51631,10
126.508184,33.516264,10
126.508385,33.516133,10
126.508713,33.515998,10
126.508959,33.51594,10
126.510073,33.515756,10
126.51047,33.51565,10
126.510672,33.515674,10
126.511079,33.51557,10
126.511288,33.515549,10
126.511571,33.515659,10
126.511981,33.515782,10
126.512143,33.515748,10
126.512187,33.515712,10
126.512588,33.515712,10
126.512745,33.515661,10
126.512806,33.515626,10
126.512887,33.515538,10
126.513049,33.515313,10
126.513126,33.515237,10
126.513804,33.515118,10
126.513905,33.514971,10
126.514147,33.514884,10
126.514665,33.514842,10
126.514742,33.515321,10
126.514794,33.515481,10
126.514815,33.515629,10
126.514862,33.515794,10
126.514956,33.515998,10
126.514809,33.516032,10
126.514988,33.516446,10
126.515171,33.516847,0
126.515394,33.51705,0
126.515522,33.517105,0
126.515644,33.51712,0
126.515728,33.517096,0
126.515783,33.517029,0
126.515889,33.516545,0
126.515973,33.516309,0
126.516569,33.516399,0
126.516488,33.516733,0
126.516807,33.51676,0
126.516863,33.516439,0
126.517563,33.516537,0
126.517901,33.516585,0
126.517912,33.516514,0
126.518076,33.515431,0
126.518109,33.515377,0
126.518597,33.514573,0
126.519001,33.514738,0
126.519183,33.514812,0
126.519574,33.514926,0
126.519636,33.514944,0
126.519891,33.514518,10
126.520073,33.514302,10
126.520253,33.514141,10
126.520336,33.514079,10
126.521212,33.514116,10
126.521338,33.514105,10
126.521209,33.513724,10
126.521116,33.512851,10
126.521136,33.512853,0
126.521159,33.512698,0
126.521147,33.512636,0
126.521322,33.512221,0
126.521434,33.512118,0
126.521528,33.511988,0
126.521658,33.511881,0
126.521795,33.511808,0
126.521885,33.511739,0
126.521926,33.511696,0
126.521992,33.511211,0
126.522566,33.511379,0
126.523154,33.511378,20
126.523216,33.511378,20
126.52345,33.51205,20
126.52347,33.512189,20
126.523462,33.512505,20
126.524527,33.512453,0
</coordinates>
    </LineString>
  </MultiGeometry>
</Placemark></Folder>
  </Document>
</kml>