<?xml version="1.0" encoding="utf-8"?>
<kml xmlns:gx="http://www.google.com/kml/ext/2.2" xmlns="http://www.opengis.net/kml/2.2">
  <Document>
    <Style id="base_track_style">
      <LineStyle>
        <color>7f00ffff</color>
        <width>4</width>
      </LineStyle>
    </Style>
    <Folder><Placemark>
  <styleUrl>#base_track_style</styleUrl>
  <name>route</name>
  <MultiGeometry>
    <LineString>
      <coordinates>126.256268,33.332924,0
126.256354,33.332919,120
126.256375,33.333166,120
126.256325,33.333562,120
126.256256,33.333848,120
126.256009,33.333844,120
126.25573,33.333826,125.5208
126.255595,33.33379,130
126.255405,33.33367,132.9025
126.255358,33.333583,132.643
126.254784,33.333691,136.4146
126.2546,33.33405,141.5313
126.254487,33.334227,140.4005
126.254436,33.334414,140.7795
126.254545,33.334926,133.841
126.254636,33.335422,130.0214
126.253948,33.336225,130.3466
126.254122,33.336537,130
126.254063,33.336663,130
126.253681,33.336782,130
126.253263,33.336798,130
126.252783,33.337087,130
126.252062,33.337095,130
126.251684,33.337161,130
126.250848,33.337265,130
126.250589,33.337299,130
126.249932,33.337512,123.027
126.249886,33.337629,120
126.250117,33.338218,120
126.250344,33.338597,120
126.250647,33.339155,120
126.251077,33.339749,110
126.249833,33.339952,110
126.248884,33.340136,110
126.247957,33.340316,110
126.248022,33.340507,110
126.248113,33.340626,110
126.248395,33.340904,110
126.24843,33.34105,110
126.248374,33.341194,110
126.248068,33.341512,110
126.248014,33.341635,110
126.248099,33.341847,110
126.248186,33.342434,110
126.248298,33.342793,110
126.248395,33.342968,110
126.248611,33.343273,110
126.248603,33.34351,100
126.248626,33.344049,100
126.24861,33.344274,100
126.248447,33.344566,100
126.248093,33.345043,100
126.247851,33.345307,100
126.247769,33.345568,100
126.247941,33.346151,100
126.248209,33.346474,100
126.248703,33.346626,100
126.249046,33.346644,100
126.249293,33.3465,100
126.249475,33.346554,100
126.249411,33.346707,100
126.248907,33.347038,100
126.248274,33.347298,100
126.248091,33.347316,100
126.247952,33.347388,100
126.247898,33.347639,100
126.247683,33.348015,100
126.247565,33.348163,100
126.247572,33.348184,100
126.247612,33.348314,0
126.247762,33.34856,0
126.247762,33.34858,0
126.247648,33.348529,0
126.247421,33.348487,0
126.247171,33.348356,0
126.247011,33.348374,0
126.246639,33.348122,0
126.245717,33.34727,0
126.245361,33.347158,0
126.24479,33.346823,90
126.244612,33.346885,90
126.244428,33.346843,90
126.244164,33.346531,90
126.244,33.346431,90
126.243751,33.346385,90
126.243665,33.346354,90
126.243508,33.346299,85.11539
126.24278,33.345469,80
126.242385,33.345212,80
126.24205,33.344747,74.75696
126.241817,33.344626,73.20084
126.241109,33.344572,70
126.240932,33.344451,70
126.240405,33.344089,64.34072
126.240348,33.344012,60
126.240301,33.343948,60
126.240291,33.343901,60
126.240265,33.343777,60
126.240109,33.343743,60
126.239935,33.343699,60
126.239469,33.343403,60
126.239257,33.343213,60
126.238738,33.342949,60
126.238391,33.342885,60
126.237924,33.342847,60
126.23794,33.34298,60
126.237932,33.343111,60
126.23787,33.343311,60
126.23794,33.343434,60
126.23819,33.343614,60
126.238254,33.343682,60
126.238266,33.343736,60
126.238221,33.34388,60
126.238282,33.34402,60
126.23824,33.344105,60
126.238227,33.344258,60
126.237919,33.344797,60
126.237789,33.344934,60
126.237724,33.345051,60
126.237746,33.345272,60
126.237674,33.345323,60
126.237624,33.345359,0
126.23748,33.345703,60
126.23748,33.345927,60
126.237716,33.345999,60
126.237942,33.346124,60
126.237824,33.346258,60
126.237438,33.346568,60
126.237305,33.346586,60
126.236963,33.346485,60
126.236758,33.34694,60
126.236963,33.347535,60
126.236918,33.347598,60
126.23663,33.34784,60
126.236558,33.347973,60
126.236454,33.348164,70
126.236125,33.348509,70
126.235821,33.348638,70
126.235697,33.348951,70
126.235646,33.349124,70
126.235635,33.349259,70
126.235499,33.349446,70
126.235346,33.349767,70
126.235428,33.350139,70
126.235714,33.350305,70
126.235907,33.350394,70
126.235965,33.350434,70
126.236206,33.350673,70
126.236349,33.350745,70
126.236666,33.350854,70
126.237075,33.35104,70
126.237391,33.351091,70
126.23762,33.351134,0
126.237802,33.351125,0
126.237931,33.351169,0
126.238166,33.351193,0
126.238467,33.351519,0
126.238553,33.35195,0
126.238725,33.352299,0
126.23851,33.352416,0
126.238113,33.352469,0
126.237759,33.352577,0
126.237341,33.352864,70
126.236901,33.353383,70
126.236558,33.353957,70
126.236321,33.354141,70
126.236317,33.354253,70
126.23629,33.354299,70
126.236093,33.354363,70
126.235699,33.355086,70
126.235699,33.355364,70
126.235324,33.355964,70
126.235195,33.356296,70
126.235324,33.356654,70
126.23538,33.356719,70
126.235759,33.356804,70
126.235823,33.356945,70
126.235902,33.35696,70
126.235976,33.357094,60
126.235824,33.357399,60
126.235978,33.35773,60
126.236107,33.357882,60
126.236418,33.358034,60
126.237083,33.358536,60
126.236944,33.358742,60
126.236483,33.359137,60
126.235979,33.359321,60
126.235403,33.359771,60
126.235296,33.359839,60
126.234538,33.360114,60
126.234453,33.360188,60
126.234382,33.360331,60
126.234326,33.360328,60
126.234147,33.360361,60
126.233844,33.36046,60
126.233638,33.360499,60
126.232996,33.360496,60
126.232618,33.360537,50
126.232573,33.360659,50
126.232148,33.361198,50
126.23209,33.361333,50
126.231805,33.361959,50
126.231547,33.36221,50
126.230999,33.363484,50
126.230757,33.363808,50
126.230289,33.364308,40
126.230417,33.364397,40
126.230238,33.364592,40
126.229949,33.365182,40
126.229816,33.365382,40
126.229641,33.365542,40
126.229056,33.365992,40
126.228198,33.366704,40
126.226997,33.367656,40
126.226732,33.367949,40
126.226558,33.368254,40
126.226501,33.368401,40
126.226494,33.368519,40
126.226441,33.368653,40
126.226338,33.37014,40
126.226292,33.370286,40
126.226235,33.370371,40
126.22606,33.370527,0
126.225317,33.371061,30
126.225274,33.370842,30
126.225072,33.370987,30
126.224304,33.37153,30
126.224191,33.371577,30
126.223554,33.371667,30
126.222076,33.371818,30
126.221693,33.371809,30
126.220972,33.371716,20
126.220076,33.371602,20
126.219729,33.371608,20
126.219616,33.371622,20
126.219647,33.371788,20
126.219397,33.37182,20
126.219265,33.371854,20
126.219041,33.371935,0
126.218858,33.372089,0
126.218576,33.372527,0
126.218396,33.372615,0
126.217969,33.372675,0
126.217769,33.372734,0
126.217577,33.372848,0
126.217474,33.372995,0
126.217358,33.373262,0
126.217236,33.373466,0
126.217096,33.373565,10
126.216652,33.373704,10
126.216486,33.373874,10
126.216098,33.374136,10
126.215685,33.374306,10
126.21542,33.37446,10
126.215308,33.374525,10
126.216355,33.3749,10
126.216238,33.375067,10
126.215137,33.37466,10
126.215075,33.374637,0
126.214724,33.37478,0
126.214004,33.374736,0
126.213845,33.374752,0
126.213578,33.374854,0
126.213576,33.374983,0
126.2136,33.375025,0
126.213622,33.375062,0
126.213687,33.375374,0
126.213758,33.375545,0
126.213811,33.375933,0
126.213883,33.376149,0
126.21394,33.37639,0
126.213934,33.376571,0
126.213931,33.376643,0
126.214038,33.376989,0
126.214134,33.377133,0
126.214281,33.377233,0
126.214404,33.377279,0
126.214452,33.37732,0
126.214692,33.377622,0
126.214837,33.377755,0
126.214916,33.377788,0
126.21508,33.377788,0
126.215163,33.37782,0
126.21537,33.377933,0
126.215496,33.377963,0
126.21571,33.378004,0
126.215934,33.377979,0
126.216132,33.37809,0
126.216416,33.379017,0
126.216387,33.37906,0
126.216044,33.379575,0
126.215581,33.380198,0
126.215128,33.380419,0
126.215103,33.380432,0
126.2151,33.380632,0
126.214971,33.381008,0
126.214971,33.381537,0
126.215164,33.38194,0
126.215615,33.382038,0
126.216387,33.383257,0
126.216602,33.383669,0
126.216752,33.383794,0
126.217106,33.38383,0
126.218394,33.383767,0
126.218705,33.383803,0
126.218694,33.384251,0
126.218898,33.384547,0
126.219359,33.384735,0
126.219488,33.384941,0
126.219595,33.385183,0
126.221009,33.386254,0
126.221506,33.386626,0
126.221913,33.387475,0
126.222191,33.387844,0
126.222252,33.387922,0
126.222366,33.388144,0
126.222378,33.388449,0
126.222421,33.388656,0
126.222424,33.388788,0
126.222266,33.389541,0
126.222295,33.390086,0
126.223794,33.389769,0
126.224375,33.389694,0
126.22465,33.389621,0
126.225644,33.389448,0
126.22567,33.389395,0
126.225678,33.389168,0
126.22571,33.389097,0
126.225845,33.389052,0
126.225908,33.389131,0
126.226048,33.389169,0
126.226357,33.389205,0
126.22642,33.389171,0
126.226588,33.389168,0
126.226641,33.389213,0
126.22693,33.3893,0
126.227126,33.389304,0
126.227382,33.389356,0
126.22754,33.389518,0
126.227644,33.389508,0
126.228298,33.389338,0
126.228546,33.389518,0
126.22877,33.38968,0
126.228814,33.389863,0
126.229073,33.390197,0
126.229319,33.389933,0
126.229504,33.389679,0
126.22967,33.389208,0
126.229904,33.388879,0
126.230018,33.388756,0
126.23018,33.388442,0
126.230527,33.388675,0
126.231156,33.388996,0
126.231956,33.389085,0
126.232985,33.389064,0
126.23355,33.389077,0
126.234487,33.389348,0
126.234964,33.389622,0
126.23521,33.389808,0
126.235619,33.390118,0
126.235883,33.390491,0
126.235883,33.391438,0
126.236629,33.392135,0
126.23718,33.392735,0
126.237963,33.393451,0
126.238028,33.393756,0
126.238424,33.393926,0
126.239379,33.394087,0
126.240135,33.394392,0
126.240356,33.394481,0
126.241268,33.394923,0
126.241973,33.395455,0
126.242292,33.396224,0
126.242597,33.396623,0
126.242788,33.39667,0
126.242954,33.396813,0
126.242998,33.397051,0
126.243207,33.397521,0
126.243314,33.397895,0
126.243376,33.398111,0
126.243322,33.398212,0
126.243239,33.398245,0
126.243198,33.398366,0
126.243199,33.398486,0
126.243314,33.398557,0
126.244094,33.398524,0
126.244267,33.398589,0
126.244356,33.398663,0
126.244472,33.398646,0
126.244588,33.398736,0
126.244701,33.398976,0
126.244921,33.398938,0
126.245401,33.39891,0
126.245583,33.398916,0
126.245801,33.398989,0
126.245919,33.399004,0
126.246087,33.39895,0
126.246477,33.398888,0
126.246898,33.3992,0
126.246478,33.398886,0
126.246086,33.398949,0
126.245919,33.399003,0
126.245832,33.398992,0
126.245919,33.399003,0
126.246086,33.398949,0
126.246478,33.398886,0
126.246825,33.399157,0
126.248165,33.399955,0
126.249228,33.400357,0
126.250087,33.400794,0
126.250665,33.40129,0
126.251106,33.401767,0
126.251158,33.401824,0
126.251296,33.402054,0
126.250961,33.402239,0
126.250827,33.402673,0
126.250727,33.402799,0
126.250812,33.403159,0
126.250894,33.403555,0
126.251374,33.403963,0
126.251465,33.404268,0
126.251062,33.404612,0
126.251347,33.404702,0
126.251491,33.404662,0
126.251689,33.405319,0
126.251746,33.405308,0
126.251868,33.405489,0
126.251964,33.405527,0
126.252252,33.405611,0
126.252262,33.405742,0
126.252292,33.405834,0
126.252371,33.406072,0
126.252421,33.406109,0
126.252795,33.406196,0
126.253235,33.405941,0
126.253596,33.405614,0
126.25379,33.405438,0
126.254356,33.405763,0
126.254101,33.406146,0
126.253433,33.406973,0
126.253449,33.406974,0
126.254399,33.407005,0
126.254286,33.407187,0
126.253901,33.407808,0
126.253876,33.407899,0
126.253927,33.407985,0
126.254473,33.408507,0
126.257287,33.411197,0
126.258683,33.412566,0
126.259522,33.41345,0
126.26033,33.414245,0
126.26136,33.415186,0
126.261619,33.415406,0
126.261741,33.41549,0
126.261854,33.415538,0
126.261933,33.415572,0
126.262384,33.415663,0
126.262548,33.415729,0
126.262681,33.415819,0
126.262995,33.416326,0
126.263053,33.41642,0
126.263066,33.416502,0
126.263082,33.4166,0
126.2628,33.417541,0
126.26246,33.418523,0
126.262443,33.418572,0
126.262432,33.418603,0
126.262412,33.418653,0
</coordinates>
    </LineString>
  </MultiGeometry>
</Placemark></Folder>
  </Document>
</kml>