<?xml version="1.0" encoding="utf-8"?>
<kml xmlns:gx="http://www.google.com/kml/ext/2.2" xmlns="http://www.opengis.net/kml/2.2">
  <Document>
    <Style id="base_track_style">
      <LineStyle>
        <color>7f00ffff</color>
        <width>4</width>
      </LineStyle>
    </Style>
    <Folder><Placemark>
  <styleUrl>#base_track_style</styleUrl>
  <name>route</name>
  <MultiGeometry>
    <LineString>
      <coordinates>126.550126,33.421903,584.0182
126.55015,33.421628,587.7246
126.550122,33.421374,591.1871
126.549924,33.42123,592.4516
126.549504,33.42103,593.1617
126.549409,33.420829,595.4461
126.549418,33.420528,600.8652
126.549177,33.419998,605.0891
126.54852,33.419204,611.7233
126.548371,33.419024,613.8835
126.548147,33.418057,627.1934
126.548062,33.416925,643.2218
126.547873,33.416473,647.8482
126.547744,33.415922,654.0735
126.548002,33.415435,660
126.548645,33.415076,663.6984
126.549074,33.414539,671.4548
126.549332,33.413708,685.6437
126.548989,33.413314,693.467
126.548748,33.412734,703.2468
126.548293,33.412375,710.2729
126.548236,33.412266,712.0823
126.54801,33.411831,721.0892
126.54777,33.411551,726.1621
126.547272,33.411258,738.5447
126.5468,33.411215,744.7381
126.5465,33.411028,751.2749
126.545796,33.410663,760.3677
126.545538,33.410369,765.744
126.545212,33.410355,764.322
126.54468,33.410212,764.7982
126.544405,33.409946,768.2304
126.544371,33.409373,776.7895
126.544019,33.408986,783.0348
126.543392,33.408406,791.5737
126.543049,33.407897,796.4621
126.542706,33.407697,796.8132
126.542268,33.407575,794.9669
126.542096,33.407317,798.3117
126.542011,33.406787,806.7267
126.541925,33.40597,815.3882
126.542002,33.404881,825.1646
126.542002,33.40443,831.3849
126.541496,33.403864,833.6606
126.540569,33.403082,843.5958
126.540071,33.402989,837.5006
126.539865,33.402796,837.8221
126.539762,33.402416,842.0699
126.540002,33.401814,854.326
126.540234,33.401119,870.6044
126.540311,33.400575,885.0836
126.539891,33.400109,900.5405
126.539453,33.399278,925.1572
126.539367,33.398317,950.6806
126.539258,33.398028,957.3971
126.538809,33.396834,983.0745
126.538311,33.395229,1016.25
126.538054,33.394548,1038.084
126.537728,33.392864,1094.568
126.537831,33.392362,1111.389
126.537916,33.391187,1147.794
126.537882,33.390098,1174.69
126.537573,33.388729,1205.032
126.536964,33.3863,1263.103
126.536251,33.38521,1290.278
126.535239,33.383906,1319.478
126.534535,33.38268,1348.491
126.533994,33.381613,1378.26
126.533711,33.380846,1395.906
126.533196,33.380258,1414.351
126.531548,33.378581,1448.885
126.531152,33.378058,1459.959
126.531252,33.377746,1468.087
126.5312,33.377505,1473.01
126.530784,33.376968,1484.291
126.530605,33.376374,1497.197
126.530355,33.376108,1510.35
126.530243,33.375341,1533.257
126.52996,33.374474,1544.019
126.529763,33.374101,1547.286
126.529823,33.373807,1534.683
126.529763,33.372815,1515.239
126.529642,33.372703,1518.043
126.529713,33.372532,1515.616
126.529689,33.371623,1525.656
126.530029,33.371023,1538.03
126.53032,33.370766,1543.883
126.530405,33.370589,1548.202
126.530795,33.370141,1558.287
126.531126,33.369478,1571.944
126.531303,33.36929,1575.505
126.531712,33.369213,1581.876
126.532101,33.369283,1591.796
126.532384,33.369229,1603.217
126.532573,33.369265,1611.149
126.532861,33.369352,1623.745
126.532932,33.369462,1626.398
126.532912,33.369886,1626.888
126.533101,33.369945,1635.147
126.53324,33.369896,1639.654
126.53378,33.369487,1661.865
126.533945,33.369186,1674.121
126.533965,33.3686,1694.245
126.533879,33.368428,1696.902
126.533694,33.368059,1701.298
126.534157,33.36693,1759.799
126.534149,33.366529,1773.753
126.533981,33.366181,1778.204
126.533967,33.36562,1791.681
126.534159,33.364998,1812.841
126.534332,33.364939,1820.74
126.534415,33.364857,1825.521
126.53453,33.364228,1846.865
126.534632,33.36405,1854.191
126.534683,33.363761,1861.428
126.53457,33.36355,1861.029
126.53478,33.363481,1866.37
126.534962,33.363452,1870.823
126.53507,33.363309,1874.23
126.535251,33.363266,1879.05
126.535386,33.363138,1882.821
126.535627,33.36304,1888.936
126.53579,33.362867,1893.219
126.535815,33.362583,1895.538
126.535958,33.362366,1899.945
126.535783,33.36181,1896.71
126.535748,33.361635,1895.957
126.53578,33.361505,1896.874
126.535788,33.361327,1896.972
126.535602,33.360931,1893.232
126.535675,33.360807,1893.926
126.535602,33.360931,1893.232
126.535678,33.361113,1894.511
126.535701,33.361027,1894.787
126.535723,33.360947,1894.934
126.536206,33.36086,1896.61
126.536619,33.360895,1894.11
126.536848,33.360851,1889.944
126.537062,33.360864,1885.655
126.53773,33.361015,1873.263
126.538011,33.36112,1867.797
126.538187,33.361266,1865.677
126.538402,33.361499,1862.627
126.538709,33.361539,1851.087
126.538816,33.361604,1847.696
126.539056,33.361665,1838.621
126.539184,33.361785,1835.245
126.539222,33.36182,1834.252
126.539366,33.361888,1829.536
126.539816,33.362321,1816.487
126.540037,33.362584,1809.272
126.540324,33.362771,1800.185
126.54057,33.362873,1792.642
126.540662,33.363039,1790.153
126.540764,33.363107,1787.126
126.541011,33.363184,1780.669
126.541154,33.363301,1776.887
126.541571,33.363434,1766.659
126.54176,33.36358,1762.477
126.542002,33.363651,1757.602
126.542124,33.363707,1755.491
126.542362,33.363815,1751.707
126.54252,33.363835,1749.066
126.5428,33.363779,1743.987
126.542964,33.363776,1741.242
126.54322,33.363873,1737.534
126.543414,33.363907,1734.45
126.543626,33.363877,1730.636
126.543795,33.363906,1728.096
126.544209,33.364162,1723.126
126.544463,33.36424,1719.768
126.544674,33.364361,1717.243
126.544805,33.364377,1715.451
126.544988,33.364301,1712.551
126.545247,33.364427,1709.431
126.545767,33.364597,1702.278
126.546162,33.364619,1695.808
126.546325,33.364748,1693.127
126.546399,33.364783,1691.816
126.546638,33.364894,1687.294
126.546841,33.364911,1683.318
126.54771,33.365159,1666.842
126.54804,33.36532,1659.576
126.54821,33.365343,1657.116
126.548306,33.365443,1654.618
126.548444,33.365521,1651.409
126.548667,33.365557,1646.802
126.54896,33.365668,1640.145
126.549244,33.365902,1632.21
126.549437,33.366026,1627.199
126.549604,33.366092,1623.423
126.549859,33.366194,1617.659
126.550004,33.366354,1613.056
126.550131,33.366449,1609.595
126.550326,33.366505,1605.095
126.550567,33.366673,1598.037
126.550774,33.366884,1590.658
126.550907,33.366951,1586.809
126.551137,33.367003,1581.007
126.551421,33.367208,1572.099
126.55169,33.367276,1565.728
126.55193,33.367386,1559.531
126.552169,33.367596,1552.357
126.55228,33.367634,1550.207
126.552522,33.367717,1544.581
126.55272,33.367815,1540.032
126.552823,33.368104,1536.232
126.553066,33.368425,1531.043
126.553254,33.368496,1528.568
126.553421,33.368614,1526.555
126.553701,33.36893,1523.152
126.55392,33.369074,1519.333
126.554033,33.369184,1519.149
126.554212,33.36922,1516.941
126.554448,33.369182,1514.221
126.554917,33.369202,1508.496
126.55515,33.369302,1505.33
126.555442,33.369458,1501.135
126.556363,33.36969,1490.222
126.556717,33.369735,1486.48
126.556973,33.369922,1484.299
126.557167,33.370018,1482.707
126.557283,33.370112,1478.069
126.557476,33.370196,1479.622
126.557943,33.370304,1473.924
126.558117,33.370284,1471.487
126.558254,33.370225,1469.289
126.55838,33.370093,1466.442
126.558721,33.37004,1460.111
126.559319,33.370163,1450.178
126.559661,33.370282,1445.262
126.559899,33.370344,1441.642
126.560136,33.370543,1438.001
126.560575,33.370792,1431.147
126.560898,33.370848,1426.149
126.561161,33.371028,1419.201
126.561296,33.371079,1417.682
126.561433,33.371081,1415.011
126.561598,33.371084,1411.704
126.56194,33.370929,1406.313
126.562218,33.370945,1399.757
126.562688,33.371134,1390
126.562913,33.371129,1382.057
126.563195,33.371059,1376.845
126.563422,33.371052,1372.124
126.56401,33.371187,1358.748
126.564367,33.371154,1351.124
126.564562,33.371209,1346.897
126.56486,33.371227,1340.859
126.565088,33.371325,1336.78
126.56535,33.371585,1332.135
126.565591,33.37191,1327.299
126.565699,33.372042,1324.815
126.565882,33.372148,1321.262
126.566045,33.372197,1318.358
126.566159,33.372261,1315.879
126.566348,33.37249,1309.942
126.566443,33.372565,1307.296
126.566658,33.372688,1302.143
126.566869,33.372861,1296.285
126.567116,33.37289,1292.421
126.567523,33.372844,1288.03
126.567714,33.372781,1287.219
126.56793,33.372761,1285.659
126.568133,33.372783,1283.678
126.568301,33.372831,1281.722
126.568365,33.372892,1280.036
126.568553,33.373211,1272.05
126.569013,33.373657,1260.422
126.569308,33.373877,1254.521
126.569359,33.373965,1252.104
126.569341,33.374111,1248.543
126.569265,33.374327,1244.236
126.569273,33.37447,1241.281
126.569237,33.3748,1235.758
126.569269,33.374916,1233.578
126.569434,33.375216,1227.552
126.569514,33.375577,1222.17
126.569671,33.375814,1218.143
126.569836,33.37595,1215.498
126.570027,33.376182,1211.773
126.570325,33.376369,1207.15
126.570831,33.376628,1199.179
126.570883,33.376712,1197.684
126.57094,33.376908,1195.135
126.571258,33.37741,1187.094
126.571502,33.377668,1182.598
126.571752,33.378159,1181.144
126.571855,33.378213,1177.852
126.57218,33.378273,1174.544
126.572577,33.378129,1170
126.57282,33.377961,1170
126.572953,33.37795,1167.541
126.573344,33.377835,1164.414
126.573556,33.377806,1162.562
126.573784,33.377846,1160
126.574301,33.378052,1155.835
126.574573,33.378124,1153.564
126.575126,33.378214,1150
126.575321,33.378388,1150
126.575573,33.378481,1145.545
126.575754,33.378686,1143.875
126.575877,33.37893,1140
126.575886,33.379192,1140
126.576011,33.379617,1140
126.57611,33.379741,1140
126.576318,33.379874,1137.332
126.576702,33.380037,1133.417
126.576981,33.380297,1130
126.577311,33.380438,1126.813
126.57775,33.380511,1122.723
126.578191,33.380549,1120
126.578542,33.380715,1116.362
126.578861,33.380758,1114.115
126.57909,33.380679,1110
126.579463,33.380735,1110
126.580129,33.380753,1104.406
126.580333,33.380672,1102.527
126.580549,33.380469,1100
126.580994,33.380269,1095.426
126.58112,33.380171,1093.921
126.581427,33.380232,1090
126.581632,33.380181,1090
126.58177,33.380115,1090
126.582062,33.380116,1090
126.582397,33.380037,1085.506
126.582694,33.379711,1080
126.583046,33.379389,1080
126.583283,33.379196,1080
126.583506,33.379096,1080
126.583958,33.378967,1070
126.584218,33.378767,1070
126.584401,33.378712,1070
126.584787,33.378712,1070
126.585518,33.378875,1065.036
126.586701,33.379307,1056.177
126.58763,33.379427,1050
126.588368,33.379413,1040
126.588655,33.379489,1040
126.589017,33.37954,1040
126.589317,33.379615,1040
126.589511,33.379757,1036.215
126.589698,33.379806,1034.725
126.58992,33.379819,1030
126.59029,33.38,1030
126.590559,33.380027,1030
126.590944,33.379935,1025.073
126.591188,33.379979,1023.008
126.591483,33.379964,1020
126.591774,33.379922,1020
126.592132,33.380061,1015.288
126.592278,33.380188,1013.771
126.592517,33.380226,1010
126.592975,33.380223,1007.943
126.593389,33.380351,1004.075
126.593568,33.380337,1002.555
126.593815,33.380345,999.5141
126.594039,33.380462,997.5732
126.594091,33.380623,996.6259
126.594259,33.380763,994.3475
126.594495,33.380843,991.3699
126.594633,33.38086,989.6982
126.594841,33.380792,987.3439
126.595148,33.380781,983.5706
126.595929,33.380917,973.5639
126.596832,33.3812,961.8015
126.597005,33.381284,959.441
126.597286,33.381506,954.9253
126.597457,33.381573,952.3986
126.597723,33.381849,947.3654
126.598228,33.382217,937.8063
126.598693,33.382473,929.5074
126.598913,33.382541,926.0426
126.599145,33.38253,922.4758
126.599341,33.382689,920.6249
126.599588,33.382717,916.2687
126.599767,33.382847,914.1775
126.600169,33.382874,909.3398
126.600636,33.382863,902.97
126.601146,33.382754,895.3021
126.602238,33.382702,880.3401
126.602645,33.38256,874.8967
126.603251,33.382609,867.4863
126.603438,33.382596,865.4016
126.603645,33.382496,863.2637
126.60415,33.382583,857.9443
126.604892,33.382666,850
126.605397,33.382817,846.4806
126.605612,33.382838,844.7725
126.605859,33.382818,842.911
126.606495,33.382623,840
126.607034,33.382365,840
126.607594,33.382344,830
126.607929,33.38243,830
126.608266,33.382604,830
126.608545,33.382617,830
126.608967,33.382544,830
126.609472,33.382545,830
126.610153,33.382377,820
126.610317,33.382408,820
126.610801,33.382734,820
126.611955,33.383178,820
126.612835,33.383547,810
126.614411,33.384054,800
126.614565,33.384064,800
126.614741,33.384017,800
126.61491,33.38402,800
126.614983,33.384046,800
126.615265,33.384217,800
126.615525,33.384293,790
126.615841,33.384272,790
126.616168,33.384161,790
126.616894,33.384201,783.8997
126.617399,33.384138,779.3886
126.617577,33.384137,777.5777
126.617799,33.384236,774.9813
126.618112,33.384425,771.0472
126.618435,33.384727,766.863
126.618623,33.384795,764.9586
126.619018,33.384841,760
126.619646,33.384931,756.403
</coordinates>
    </LineString>
  </MultiGeometry>
</Placemark></Folder>
  </Document>
</kml>