<?xml version="1.0" encoding="utf-8"?>
<kml xmlns:gx="http://www.google.com/kml/ext/2.2" xmlns="http://www.opengis.net/kml/2.2">
  <Document>
    <Style id="base_track_style">
      <LineStyle>
        <color>7f00ffff</color>
        <width>4</width>
      </LineStyle>
    </Style>
    <Folder><Placemark>
  <styleUrl>#base_track_style</styleUrl>
  <name>route</name>
  <MultiGeometry>
    <LineString>
      <coordinates>126.951356,33.492683,0
126.951895,33.492768,0
126.952265,33.492489,0
126.954136,33.491956,0
126.954419,33.492842,10
126.954934,33.493069,10
126.954727,33.494052,10
126.95432,33.4944,10
126.954921,33.494524,10
126.956726,33.494464,20
126.957176,33.494687,25.4678
126.956779,33.495426,25.385
126.956985,33.495688,30
126.957652,33.495078,30
126.957989,33.494522,30
126.959905,33.493387,27.89673
126.961153,33.492964,40.95732
126.961833,33.49301,55.23814
126.962463,33.492773,59.43393
126.964344,33.493301,81.76369
126.964525,33.493204,85.25494
126.964304,33.493043,84.5191
126.964598,33.49316,86.76508
126.965277,33.492812,98.04603
126.965757,33.49351,87.74647
126.965894,33.494598,78.6069
126.965751,33.4956,72.73625
126.965387,33.496273,70
126.964244,33.497262,70
126.96539,33.497986,54.33887
126.965202,33.498087,54.97684
126.965642,33.498496,42.08278
126.966061,33.498345,38.66805
126.966423,33.498978,26.59865
126.966929,33.499083,20.06394
126.96824,33.500395,10
126.967994,33.500979,10
126.966846,33.502173,10
126.966614,33.502624,10
126.965799,33.503234,20
126.965226,33.505687,20
126.962814,33.509697,20
126.958821,33.512347,10
126.95756,33.513606,10
126.957192,33.513734,10
126.957335,33.51417,10
126.957235,33.514977,10
126.957608,33.515866,10
126.958437,33.516981,10
126.958673,33.517453,10
126.958654,33.517837,10
126.959117,33.518216,10
126.958716,33.518448,10
126.958407,33.518361,10
126.957895,33.518781,10
126.957013,33.518751,10
126.955799,33.519899,10
126.955476,33.519704,10
126.955248,33.519758,10
126.954789,33.519409,10
126.953939,33.519521,10
126.953373,33.519295,10
126.953014,33.518855,10
126.952893,33.518357,10
126.953341,33.517614,10
126.952448,33.517238,10
126.951547,33.517195,10
126.951541,33.517037,10
126.950696,33.516616,10
126.950408,33.516134,10
126.949936,33.516057,10
126.948693,33.513855,10
126.948357,33.512953,10
126.947978,33.51299,10
126.944972,33.512224,10
126.944811,33.512067,10
126.944938,33.511859,10
126.944315,33.511345,10
126.943486,33.511191,10
126.943287,33.510931,10
126.943376,33.509545,10
126.942895,33.509513,10
126.943215,33.508955,10
126.943568,33.509012,10
126.943728,33.508366,10
126.943585,33.507982,10
126.943958,33.507274,10
126.941604,33.506496,10
126.941428,33.506114,10
126.941784,33.5054,10
126.941756,33.504894,10
126.9415,33.504669,10
126.941701,33.503868,10
126.941926,33.5036,10
126.942778,33.503301,10
126.94375,33.50224,10
126.943535,33.501742,10
126.943991,33.499587,10
126.945155,33.49968,10
126.945565,33.49957,10
126.945872,33.499272,10
126.946313,33.499393,10
126.946713,33.498942,10
126.947225,33.498859,10
126.947892,33.498382,10
126.947782,33.498076,10
126.947392,33.498148,10
126.947185,33.497873,10
126.947276,33.497394,10
126.946579,33.497537,10
126.946332,33.497284,10
126.945629,33.497439,10
126.94563,33.497118,10
126.945838,33.497075,10
126.946414,33.496396,10
126.947121,33.49624,10
126.947736,33.496549,10
126.948086,33.496195,10
126.948707,33.49646,10
126.949492,33.495734,10
126.951595,33.494735,10
126.951434,33.49435,10
126.950719,33.49384,10
126.951316,33.492736,10
</coordinates>
    </LineString>
  </MultiGeometry>
</Placemark></Folder>
  </Document>
</kml>