<?xml version="1.0" encoding="utf-8"?>
<kml xmlns:gx="http://www.google.com/kml/ext/2.2" xmlns="http://www.opengis.net/kml/2.2">
  <Document>
    <Style id="base_track_style">
      <LineStyle>
        <color>7f00ffff</color>
        <width>4</width>
      </LineStyle>
    </Style>
    <Folder><Placemark>
  <styleUrl>#base_track_style</styleUrl>
  <name>route</name>
  <MultiGeometry>
    <LineString>
      <coordinates>126.271096,33.174566,0
126.270617,33.174416,0
126.270346,33.174367,0
126.269827,33.174381,0
126.269742,33.174345,0
126.26952,33.173828,0
126.269199,33.173655,0
126.268825,33.173565,0
126.268161,33.173367,0
126.267976,33.17312,0
126.267838,33.173002,0
126.267665,33.172854,10
126.267464,33.172746,10
126.267345,33.172706,10
126.266884,33.172689,10
126.266722,33.172602,10
126.266573,33.172494,10
126.266452,33.172352,10
126.266416,33.172228,10
126.266308,33.171993,10
126.266068,33.171578,10
126.265899,33.171384,10
126.26571,33.171199,10
126.265433,33.171106,10
126.264949,33.170606,10
126.264533,33.170092,10
126.26443,33.169741,10
126.264495,33.169357,10
126.264794,33.168951,10
126.265327,33.168505,10
126.266111,33.168028,10
126.267195,33.167536,10
126.267811,33.167184,10
126.268045,33.166896,10
126.268502,33.16634,0
126.26867,33.165964,0
126.268745,33.165573,0
126.268736,33.165409,0
126.268782,33.165214,0
126.26895,33.165018,0
126.269324,33.164737,0
126.269707,33.164565,0
126.270036,33.164396,0
126.270632,33.164127,0
126.270893,33.164065,0
126.271117,33.164111,0
126.271248,33.164213,0
126.271491,33.16451,0
126.271762,33.164932,0
126.27193,33.165096,0
126.272593,33.16555,0
126.27292,33.165667,0
126.273482,33.165759,0
126.273413,33.165888,0
126.273226,33.166014,0
126.273072,33.166292,10
126.272964,33.16654,10
126.272814,33.166774,10
126.272613,33.16699,10
126.27236,33.167214,10
126.271676,33.167887,10
126.271455,33.168146,10
126.271039,33.168688,10
126.270733,33.169269,10
126.270679,33.169366,0
126.270573,33.169682,0
126.270373,33.170419,0
126.270069,33.171091,0
126.269879,33.171625,10
126.269831,33.171893,10
126.269867,33.172114,10
126.269842,33.17239,10
126.269747,33.172651,10
126.26955,33.17308,10
126.269199,33.173655,10
126.26952,33.173828,10
126.269742,33.174345,10
126.269827,33.174381,10
126.270346,33.174367,10
126.270617,33.174416,10
126.270915,33.174499,10
126.271385,33.174671,10
126.271639,33.174738,10
126.27254,33.174726,10
126.273018,33.174746,10
126.273141,33.174706,10
126.273977,33.174331,10
126.274234,33.174134,10
126.274333,33.173962,10
126.274372,33.173775,10
126.274505,33.17344,10
126.274704,33.173201,10
126.274985,33.172984,10
126.275208,33.172668,10
126.275453,33.172384,10
126.275491,33.172342,10
126.275779,33.172191,10
126.275973,33.172066,10
126.276433,33.171472,10
126.27687,33.170994,10
126.277044,33.170858,10
126.277536,33.170631,10
126.277788,33.170462,10
126.277969,33.17031,10
126.278141,33.170107,10
126.278496,33.169501,10
126.278624,33.168652,10
126.278737,33.16825,10
126.278678,33.168161,10
126.278315,33.167996,10
126.278057,33.168013,10
126.277841,33.168074,10
126.277495,33.168255,10
126.277096,33.168345,10
126.276814,33.168368,10
126.276456,33.168306,10
126.276055,33.168193,10
126.274924,33.167618,10
126.274832,33.167519,10
126.274451,33.167298,10
</coordinates>
    </LineString>
  </MultiGeometry>
</Placemark></Folder>
  </Document>
</kml>