<?xml version="1.0" encoding="utf-8"?>
<kml xmlns:gx="http://www.google.com/kml/ext/2.2" xmlns="http://www.opengis.net/kml/2.2">
  <Document>
    <Style id="base_track_style">
      <LineStyle>
        <color>7f00ffff</color>
        <width>4</width>
      </LineStyle>
    </Style>
    <Folder><Placemark>
  <styleUrl>#base_track_style</styleUrl>
  <name>route</name>
  <MultiGeometry>
    <LineString>
      <coordinates>126.641811,33.539734,0
126.641825,33.539753,0
126.641212,33.540514,0
126.642678,33.541436,0
126.642977,33.541385,0
126.643178,33.54151,0
126.643155,33.541718,0
126.64292,33.54199,0
126.643026,33.542138,0
126.643306,33.542325,0
126.643449,33.542507,0
126.643611,33.542898,0
126.643639,33.543052,0
126.643688,33.543318,0
126.643899,33.543835,10
126.644171,33.544095,10
126.644784,33.544254,10
126.645159,33.544528,10
126.64526,33.54471,10
126.645303,33.544989,10
126.645526,33.54521,10
126.645636,33.545652,10
126.645587,33.545852,10
126.645618,33.545987,10
126.645735,33.546096,10
126.646006,33.546231,10
126.64613,33.54633,10
126.646134,33.546385,10
126.645928,33.546586,10
126.645756,33.546754,10
126.645478,33.546945,10
126.645411,33.547146,10
126.645297,33.547253,10
126.645006,33.547378,10
126.644662,33.547614,10
126.644151,33.547831,10
126.643825,33.547913,10
126.643754,33.54805,10
126.643567,33.548095,10
126.643316,33.548221,10
126.643149,33.548242,10
126.642841,33.548422,10
126.642648,33.548439,10
126.642618,33.54853,10
126.642379,33.548665,10
126.642015,33.548704,10
126.64175,33.548923,10
126.64148,33.548968,10
126.641283,33.549028,10
126.641221,33.549146,10
126.641217,33.549269,10
126.641181,33.549318,10
126.641094,33.549362,10
126.641269,33.549562,10
126.64136,33.549721,10
126.641369,33.54996,10
126.641257,33.550344,10
126.641295,33.550571,10
126.641458,33.550751,10
126.64235,33.551587,10
126.642514,33.551656,10
126.64274,33.551696,10
126.642982,33.551688,10
126.643432,33.551636,10
126.643618,33.551669,10
126.64378,33.551755,10
126.643875,33.551839,10
126.64396,33.551952,10
126.643968,33.552097,10
126.643932,33.552266,10
126.643745,33.552606,10
126.643592,33.552944,10
126.643806,33.553352,10
126.644011,33.553686,10
126.64407,33.553817,10
126.644446,33.554459,10
126.644573,33.554774,10
126.644595,33.554977,10
126.64468,33.555002,10
126.644899,33.554916,10
126.645086,33.554748,10
126.64541,33.55466,10
126.645546,33.554569,10
126.645875,33.554526,10
126.646842,33.55467,10
126.646962,33.554588,10
126.647199,33.554294,10
126.647523,33.553723,10
126.648074,33.553346,10
126.649226,33.552934,10
126.649334,33.552832,10
126.649355,33.552565,10
126.649239,33.55229,10
126.648612,33.551869,10
126.64834,33.551752,10
126.64879,33.551072,10
126.648395,33.550742,10
126.64824,33.550034,10
126.647944,33.5498,10
126.647634,33.549556,0
126.647611,33.549434,0
126.647678,33.549287,0
126.64779,33.549068,0
126.648188,33.548951,0
126.64856,33.548864,0
126.649421,33.548728,0
126.649725,33.548704,0
126.650738,33.54876,0
126.650884,33.54879,0
126.650979,33.548569,0
126.651169,33.5485,0
126.651382,33.54848,0
126.65179,33.547492,0
126.651879,33.547525,0
126.652026,33.547516,0
126.652098,33.547511,0
126.652271,33.547608,0
126.652489,33.54767,0
126.653788,33.547658,0
126.653893,33.547635,0
126.654267,33.547385,0
126.654798,33.547145,0
126.654854,33.547092,0
126.654887,33.546935,0
126.654931,33.546893,0
126.655057,33.546868,0
126.655202,33.546805,0
126.655536,33.546416,0
126.655501,33.545963,10
126.655549,33.545892,10
126.655902,33.545763,10
126.656368,33.545655,10
126.656518,33.545633,10
126.656596,33.545657,10
126.656737,33.545739,10
126.657257,33.545703,10
126.657489,33.545859,10
126.657695,33.545806,10
126.658059,33.545639,10
126.658222,33.545564,10
126.65851,33.545471,10
126.65872,33.545483,10
126.659019,33.545404,10
126.659236,33.545598,10
126.659324,33.545729,10
126.65957,33.545723,10
126.659768,33.545739,10
126.660037,33.545788,10
126.66018,33.545747,10
126.660382,33.54575,10
126.66046,33.545773,10
126.660553,33.545753,10
126.660645,33.545711,10
126.660723,33.545639,10
126.660828,33.545426,10
126.660939,33.545446,10
126.660958,33.545437,10
126.661052,33.54529,10
126.661116,33.545238,10
126.661189,33.545252,10
126.661609,33.545561,10
126.661828,33.545842,10
126.662043,33.545811,10
126.662293,33.545502,10
126.662368,33.545359,10
126.662466,33.544992,10
126.662548,33.544854,10
126.662676,33.544725,10
126.663239,33.544349,10
126.663431,33.544122,10
126.66362,33.543663,10
126.663904,33.543427,10
126.664915,33.542947,10
126.665138,33.542853,10
126.665545,33.542726,10
126.66715,33.542715,10
126.668397,33.542651,10
126.668426,33.542817,10
126.668837,33.542822,10
126.669875,33.54286,0
126.669869,33.54321,0
126.669896,33.54328,0
126.669927,33.543308,0
126.670102,33.543366,0
126.670278,33.54359,0
126.670859,33.54385,0
126.671041,33.544198,0
126.671294,33.544384,0
126.671402,33.544399,0
126.671514,33.544321,0
126.671691,33.544466,0
126.672444,33.544647,10
126.672886,33.54456,10
126.673196,33.544391,10
126.673404,33.544414,10
126.673508,33.544493,10
126.673681,33.544456,10
126.673791,33.544492,10
126.674232,33.54447,10
126.674495,33.544787,10
126.674648,33.545106,10
126.674694,33.545375,10
126.674641,33.545898,10.48462
126.674674,33.546009,12.25342
126.674598,33.546239,13.83065
126.675176,33.546489,24.56173
126.676254,33.546713,46.19418
126.676801,33.547232,61.48268
126.676957,33.547309,65.00992
126.67741,33.547355,74.20845
126.677502,33.547522,74.74635
126.677479,33.547597,73.9537
126.677248,33.547963,68.26667
126.677198,33.548043,66.9406
126.677424,33.548175,71.25476
126.677537,33.548391,73.26733
126.677526,33.548528,73.10455
126.677596,33.548681,74.63772
126.677508,33.548718,72.93875
126.677522,33.548933,73.52375
126.677346,33.549237,69.13474
126.677362,33.549392,71.39834
126.677208,33.549438,68.61156
126.677198,33.549701,68.58934
126.677075,33.549781,65.78012
126.677027,33.549926,64.24456
126.677084,33.549985,65.28477
126.677354,33.550036,69.01384
126.677537,33.550154,67.63398
126.677815,33.550469,67.73427
126.677862,33.550652,69.53986
126.677878,33.550664,69.68568
126.677946,33.550714,69.54578
126.6781,33.55072,69.53433
126.677977,33.550867,66.45061
126.677965,33.550965,64.40035
126.67909,33.551028,55.88699
126.680098,33.55097,43.02762
126.680294,33.550783,42.30136
126.68053,33.550779,38.67821
126.681074,33.550271,33.9817
126.681361,33.55009,29.18257
126.681562,33.549872,29.12395
126.682055,33.549656,15.21151
126.682487,33.549268,15.36818
126.682804,33.549188,18.23327
126.683313,33.548698,14.20547
126.683482,33.548374,19.15116
126.684375,33.547922,12.20902
126.684658,33.54787,11.00023
126.68488,33.548036,10
126.68508,33.5481,10
126.685335,33.548069,10
126.68548,33.548067,10
126.685626,33.548088,10
126.685742,33.547942,10
126.685871,33.547917,10
126.685945,33.547725,10
126.685978,33.547694,10
126.686035,33.547677,10
126.686146,33.547684,10
126.686342,33.547666,10
126.68667,33.547566,10
126.686799,33.547457,10
126.687086,33.547165,10
126.687135,33.546999,10
126.687167,33.546952,10
126.687343,33.546823,10
126.687525,33.546769,10
126.687682,33.546604,10
126.687818,33.546508,10
126.688187,33.54647,10
126.68854,33.546359,10
126.688667,33.546309,10
126.688812,33.546217,10
126.688908,33.546116,10
126.688952,33.546146,10
126.689002,33.546248,10
126.688964,33.546528,10
126.688934,33.546635,10
126.68895,33.546823,10
126.688982,33.546859,10
126.689268,33.546963,10
126.689325,33.546998,10
126.689454,33.547203,10
126.689703,33.547321,10
126.689742,33.547368,10
126.689727,33.547551,10
126.689805,33.547742,10
126.689797,33.547912,10
126.689748,33.548079,10
126.689751,33.548129,10
126.689856,33.548195,10
126.69028,33.548213,10
126.690361,33.548243,10
126.690396,33.54834,10
126.690362,33.548789,10
126.690284,33.548854,10
126.69002,33.549009,10
126.689936,33.549126,10
126.689938,33.549395,10
126.689941,33.549672,0
126.690357,33.550097,0
126.690633,33.550213,0
126.691279,33.550184,0
126.691225,33.550452,0
126.691129,33.550543,0
126.691143,33.550579,0
126.691592,33.550875,0
126.691873,33.550801,0
126.692023,33.55074,0
126.692589,33.550574,0
126.692641,33.550713,0
126.692641,33.550794,0
126.69284,33.550893,0
126.692913,33.551018,0
126.693435,33.551274,0
126.693555,33.551407,0
126.693676,33.551424,0
126.693875,33.551155,0
126.693967,33.550857,0
126.694,33.550683,0
126.694122,33.550417,0
126.69416,33.550334,0
126.69427,33.550238,0
126.694561,33.550482,0
126.694612,33.550508,0
126.69468,33.550517,0
126.694805,33.550472,0
126.695146,33.550184,0
126.695263,33.550137,0
126.695477,33.550391,0
126.695602,33.550619,0
126.695815,33.550814,0
126.695824,33.551048,0
126.695954,33.551288,0
126.696019,33.551246,0
126.696115,33.551184,0
126.696625,33.551012,0
126.696824,33.55081,10
126.696967,33.550697,10
126.69704,33.550668,10
126.697473,33.550618,10
126.697542,33.550564,10
126.697839,33.550018,10
126.697993,33.549833,10
126.698168,33.549964,10
126.698278,33.549854,10
126.69855,33.550029,10
126.698649,33.54996,10
126.698758,33.549921,20
126.698982,33.549923,20
126.699038,33.549909,20
126.699091,33.549887,20
126.699218,33.549789,20
126.699261,33.549779,20
126.699547,33.549819,20
126.699769,33.549778,20
126.699933,33.549699,20
126.700244,33.549432,20
126.700392,33.549324,20
126.70069,33.549192,20
126.70097,33.549032,20
126.701038,33.548921,20
126.701101,33.548856,20
126.701338,33.548808,20
126.702115,33.548583,20
126.702255,33.548558,20
126.70249,33.548456,20
126.70263,33.548415,20
126.702889,33.548376,20
126.703146,33.548294,20
126.703333,33.548249,20
126.703406,33.548257,20
126.70355,33.5484,20
126.703613,33.548437,20
126.703687,33.548439,20
126.703777,33.548433,20
126.70426,33.548288,20
126.704443,33.548267,20
126.704504,33.548239,20
126.704533,33.548206,20
126.70457,33.548096,20
126.70465,33.548025,20
126.70484,33.547964,20
126.705008,33.547874,20
126.705193,33.547807,20
126.705419,33.547374,20
126.705968,33.547876,20
126.706149,33.547681,20
126.706508,33.547167,20
126.706543,33.546645,20
126.706892,33.546673,20
126.707044,33.546888,20
126.707359,33.547032,20
126.707582,33.547046,20
126.707817,33.54696,20
126.707874,33.547216,20
126.707976,33.547376,20
126.708189,33.547482,20
126.70849,33.547552,20
126.708775,33.547844,20
126.708886,33.547901,20
126.709104,33.547942,20
126.709333,33.548065,20
126.709386,33.548093,0
126.709592,33.548134,0
126.709627,33.548007,0
126.709672,33.547632,0
126.709714,33.547445,0
126.709803,33.547203,0
126.709981,33.546973,0
126.710173,33.546797,0
126.710653,33.546529,0
126.710678,33.546091,0
126.710553,33.545659,30
126.710628,33.545147,30
126.710574,33.544753,30
126.710608,33.544053,30
126.71056,33.543786,30
126.710728,33.543754,30
126.710915,33.543563,30
126.710983,33.543348,30
126.711171,33.543097,30
126.7111,33.542826,30
126.711386,33.542467,30
126.711426,33.542258,30
126.711797,33.542004,40
126.712213,33.542009,40
126.712398,33.541889,40
126.712379,33.541733,40
126.712443,33.541708,40
126.712731,33.541742,40
126.713555,33.541688,40
126.713956,33.541753,40
126.714205,33.541748,40
126.714315,33.541521,40
126.714261,33.54125,40
126.714472,33.541195,40
126.714726,33.540869,40
126.714944,33.540708,40
126.715218,33.54095,40
126.715329,33.540972,40
126.715462,33.540941,40
126.71584,33.540618,50
126.716137,33.54078,50
126.716327,33.540718,50
126.716394,33.540658,50
126.716359,33.540464,50
126.716394,33.540337,50
126.716609,33.540183,50
126.716692,33.540062,50
126.716764,33.539775,50
126.716842,33.539641,50
126.716873,33.539305,60
126.717028,33.53911,60
126.71708,33.538805,60
126.717505,33.538201,60
126.717548,33.537986,60
126.717675,33.537826,60
126.717862,33.53759,0
126.718157,33.53741,60
126.718237,33.537221,60
126.718502,33.537067,60
126.718712,33.536881,60
126.719185,33.536338,60
126.719322,33.535959,60
126.719454,33.535777,60
126.719854,33.535222,0
126.720969,33.534539,0
126.721052,33.534436,0
126.721277,33.534403,60
126.721686,33.534441,60
126.72188,33.534842,60
126.722069,33.534902,60
126.722654,33.534717,60
126.722912,33.534768,60
126.722985,33.534854,60
126.723869,33.534783,60
126.724314,33.535167,60
126.724631,33.535223,60
126.725082,33.535431,60
126.72552,33.535741,60
126.725629,33.535718,60
126.725732,33.535823,60
126.725905,33.535916,60
126.726141,33.536042,0
126.726185,33.536217,0
126.72639,33.536328,0
126.726607,33.536557,0
126.726677,33.536785,0
126.726485,33.537086,0
126.726499,33.537148,0
126.726781,33.537265,0
126.726835,33.537288,0
126.727101,33.53725,0
126.727502,33.53705,0
126.727932,33.53675,0
126.728098,33.536849,50
126.728158,33.536911,50
126.728257,33.536931,50
126.72833,33.536911,50
126.728411,33.536919,50
126.72859,33.536959,50
126.728683,33.537001,50
126.728794,33.537597,50
126.728929,33.537732,50
126.728962,33.537778,50
126.728976,33.537846,50
126.728842,33.538508,50
126.728942,33.538594,50
126.728984,33.538653,50
126.729003,33.538739,50
126.728975,33.538846,50
126.728994,33.53896,50
126.729024,33.539032,50
126.728863,33.539451,50
126.728741,33.539608,50
126.728745,33.539712,50
126.728902,33.539813,50
126.729057,33.539886,50
126.729142,33.539952,50
126.729232,33.54007,50
126.72926,33.540156,50
126.729199,33.54029,50
126.72918,33.540397,50
126.729136,33.540518,50
126.729164,33.540621,50
126.729247,33.540592,50
126.729788,33.540406,0
126.730108,33.540371,0
126.730302,33.540285,0
126.730375,33.540357,0
126.730623,33.540164,0
126.730965,33.540018,0
126.73134,33.540091,0
126.73191,33.539893,0
126.732037,33.539903,0
126.732089,33.539967,0
126.73218,33.540235,0
126.732545,33.540342,0
126.732553,33.54038,0
126.732855,33.540404,0
126.733347,33.540443,0
126.733528,33.540271,0
126.733707,33.540404,0
126.73381,33.540534,0
126.733823,33.540664,0
126.733811,33.541003,0
126.733837,33.541096,0
126.73401,33.541478,0
126.734075,33.541687,0
126.734155,33.541859,0
126.734232,33.541962,40
126.734558,33.541985,40
126.734733,33.542038,40
126.734809,33.542088,40
126.734896,33.542236,40
126.735339,33.542456,40
126.735689,33.542519,40
126.736131,33.542535,40
126.736442,33.542572,40
126.736589,33.54263,40
126.736721,33.542723,40
126.737298,33.543655,40
126.737338,33.543845,40
126.737339,33.54391,40
126.737251,33.544062,40
126.737297,33.544264,40
126.737296,33.544328,40
126.737061,33.544581,40
126.736999,33.545019,40
126.737048,33.545059,40
126.737196,33.545118,40
126.737291,33.545295,40
126.737327,33.545492,40
126.737397,33.545586,40
126.737522,33.545702,40
126.73779,33.545731,40
126.737871,33.54574,0
126.738008,33.545813,0
126.738094,33.546017,0
126.738104,33.546445,30
126.738204,33.54669,30
126.73925,33.547602,30
126.739418,33.547997,30
126.739649,33.548197,30
126.740158,33.548286,30
126.740264,33.548368,30
126.740406,33.548617,30
126.740808,33.548578,30
126.740757,33.548681,30
126.740464,33.548799,30
126.740158,33.549219,30
126.740385,33.549693,30
126.740607,33.549824,30
126.740674,33.549833,30
126.740871,33.549859,0
126.740948,33.549786,0
126.74121,33.549616,0
126.741287,33.549585,0
126.741642,33.549624,0
126.742061,33.549758,20
126.742127,33.549742,20
126.742203,33.549698,20
126.742476,33.549512,20
126.743153,33.549439,20
126.743416,33.54938,20
126.743484,33.549557,20
126.743573,33.549717,20
126.743603,33.549799,20
126.743609,33.549891,20
126.743586,33.550351,0
126.743519,33.550778,0
126.7436,33.551356,0
126.743591,33.551473,0
126.743814,33.551952,10
126.74389,33.552076,10
126.744177,33.552461,10
126.744327,33.552765,10
126.744042,33.552938,10
126.743892,33.553229,10
126.743528,33.553787,10
126.743523,33.553867,10
126.743383,33.554062,10
126.743292,33.554513,10
126.743082,33.554667,10
126.743016,33.555036,10
126.742909,33.555354,10
126.743131,33.555372,10
126.743109,33.555616,10
126.743048,33.555694,10
126.743,33.555799,10
126.742906,33.556072,10
126.742844,33.556128,10
126.742574,33.556272,10
126.742546,33.556354,10
126.742576,33.556544,10
126.742808,33.556604,10
126.742831,33.55663,10
126.742903,33.55671,0
126.743133,33.556787,0
126.743254,33.556937,0
126.743554,33.556934,0
126.743855,33.556993,0
126.744939,33.557461,0
</coordinates>
    </LineString>
  </MultiGeometry>
</Placemark></Folder>
  </Document>
</kml>