<?xml version="1.0" encoding="utf-8"?>
<kml xmlns:gx="http://www.google.com/kml/ext/2.2" xmlns="http://www.opengis.net/kml/2.2">
  <Document>
    <Style id="base_track_style">
      <LineStyle>
        <color>7f00ffff</color>
        <width>4</width>
      </LineStyle>
    </Style>
    <Folder><Placemark>
  <styleUrl>#base_track_style</styleUrl>
  <name>route</name>
  <MultiGeometry>
    <LineString>
      <coordinates>126.904117,33.404989,0
126.904131,33.404974,0
126.903995,33.404886,0
126.904017,33.40464,0
126.903722,33.40473,0
126.903713,33.404712,0
126.903638,33.404572,0
126.903618,33.404456,0
126.903603,33.403938,0
126.903522,33.403787,0
126.902984,33.403484,0
126.902883,33.40333,0
126.902917,33.40255,0
126.90285,33.402141,0
126.902775,33.401881,0
126.902792,33.401744,0
126.902836,33.401648,0
126.902895,33.401567,0
126.903066,33.40138,0
126.903321,33.401095,0
126.903455,33.400971,0
126.903473,33.400955,0
126.90363,33.400805,0
126.903907,33.400655,0
126.903981,33.400615,0
126.904158,33.400411,0
126.904398,33.400084,0
126.904514,33.399879,0
126.904853,33.399278,0
126.905178,33.398884,0
126.905481,33.398534,0
126.906155,33.397945,0
126.906255,33.397822,0
126.906285,33.397728,0
126.906173,33.397719,0
126.905991,33.397832,0
126.905715,33.397921,0
126.905602,33.397924,0
126.905526,33.397926,0
126.905528,33.39779,0
126.905487,33.397672,0
126.905379,33.397512,0
126.905253,33.397278,0
126.905188,33.397091,0
126.905094,33.397003,0
126.904795,33.396914,10
126.904682,33.396856,10
126.904622,33.396761,10
126.904247,33.396775,10
126.903997,33.396732,10
126.903894,33.39665,10
126.9036,33.396541,10
126.903371,33.396483,10
126.903158,33.396481,10
126.903031,33.396628,10
126.902997,33.396709,10
126.902992,33.39688,10
126.902903,33.397001,10
126.902783,33.396767,10
126.902615,33.396591,10
126.902493,33.396487,0
126.902292,33.396272,0
126.902278,33.396116,0
126.902297,33.395972,0
126.902348,33.395699,0
126.90246,33.395457,0
126.902633,33.395336,0
126.90289,33.395022,0
126.90275,33.394976,0
126.902528,33.394773,0
126.902367,33.394683,0
126.902309,33.394683,0
126.902237,33.394258,0
126.902003,33.394114,0
126.901671,33.394069,20
126.901633,33.39401,20
126.901559,33.393818,20
126.901494,33.393504,0
126.901364,33.393287,0
126.901354,33.393223,0
126.901374,33.393114,0
126.901482,33.39287,10
126.901472,33.392832,10
126.901433,33.392764,10
126.901306,33.392627,10
126.901134,33.392472,10
126.901022,33.392425,10
126.900936,33.392364,10
126.900926,33.392276,10
126.900823,33.392267,10
126.900459,33.391879,10
126.90027,33.391968,10
126.900192,33.392052,10
126.900132,33.392082,10
126.899949,33.392069,10
126.899492,33.392113,10
126.899342,33.392159,10
126.898977,33.392173,10
126.899007,33.392087,10
126.898998,33.391858,10
126.898958,33.391722,10
126.898864,33.391514,10
126.898869,33.391358,10
126.898844,33.391246,10
126.89879,33.391163,10
126.89872,33.391092,10
126.898524,33.39096,10
126.898413,33.390705,10
126.898412,33.390516,10
126.89839,33.390441,10
126.898347,33.390371,10
126.898164,33.390206,10
126.898144,33.390087,10
126.898156,33.389993,10
126.898093,33.389937,10
126.897897,33.389872,10
126.897865,33.389837,10
126.897883,33.389766,10
126.897974,33.389677,10
126.897998,33.38963,10
126.898038,33.38945,10
126.898018,33.389372,10
126.897945,33.389224,10
126.897934,33.389146,10
126.897948,33.389039,10
126.897955,33.388959,0
126.897998,33.388885,0
126.897798,33.388839,0
126.89761,33.388824,0
126.895974,33.388928,0
126.895323,33.388922,0
126.894649,33.388868,0
126.894435,33.388821,0
126.894293,33.38877,0
126.893517,33.388411,0
126.892871,33.388199,0
126.892439,33.38813,0
126.891449,33.388041,0
126.891313,33.387986,0
126.890783,33.387716,0
126.889955,33.387367,0
126.889762,33.387245,0
126.889632,33.387129,0
126.889543,33.387002,0
126.889209,33.386337,0
126.889096,33.386222,0
126.888945,33.386132,0
126.888777,33.386087,0
126.887962,33.38604,0
126.887637,33.385963,0
126.88714,33.385799,0
126.886725,33.385635,0
126.886086,33.385319,0
126.885657,33.385129,0
126.885371,33.385039,0
126.884231,33.384754,0
126.883983,33.384673,0
126.883657,33.384513,0
126.882876,33.384044,0
126.88262,33.383861,0
126.882363,33.383637,0
126.882114,33.383453,0
126.881292,33.383095,0
126.881098,33.383025,0
126.88066,33.382927,10
126.880441,33.382835,10
126.880229,33.382679,10
126.880131,33.382525,10
126.880089,33.382356,10
126.880094,33.382211,10
126.880111,33.382163,10
126.880306,33.381908,10
126.880933,33.381146,10
126.881074,33.380954,10
126.881159,33.380786,10
126.881185,33.380661,10
126.881178,33.380508,10
126.881009,33.379875,10
126.88079,33.379513,10
126.880691,33.379387,10
126.880357,33.379145,10
126.880145,33.37897,10
126.879616,33.37842,10
126.877833,33.376998,10
126.876459,33.376066,10
126.876254,33.376009,10
126.876138,33.376002,10
126.875956,33.376024,10
126.875917,33.375928,10
126.875795,33.375813,10
126.874957,33.375108,10
126.874477,33.374536,10
126.873899,33.373882,0
126.873951,33.37381,0
126.873486,33.373459,0
126.873353,33.373305,0
126.872855,33.372868,0
126.872385,33.372633,0
126.872111,33.372787,0
126.871795,33.372716,0
126.871471,33.372584,0
126.871147,33.372341,0
126.87089,33.372075,0
126.870687,33.37181,0
126.870687,33.371494,0
126.87086,33.371117,0
126.87075,33.371009,0
126.870722,33.370991,0
126.870704,33.370847,0
126.871049,33.370865,0
126.871242,33.370816,0
126.871567,33.370788,0
126.871748,33.370721,0
126.872003,33.370529,0
126.872068,33.370462,0
126.87219,33.370287,0
126.872256,33.370136,0
126.872377,33.36961,0
126.872386,33.369043,0
126.872371,33.3689,0
126.87228,33.368495,0
126.872178,33.368255,0
126.871912,33.367855,0
126.871414,33.367262,0
126.871102,33.36665,0
126.871017,33.366588,0
126.870927,33.366559,0
126.870851,33.366559,0
126.87066,33.366637,0
126.870272,33.366515,0
126.869859,33.366308,0
126.869353,33.36584,0
126.869068,33.365608,0
126.868983,33.365561,0
126.869013,33.365526,0
126.868882,33.365439,0
126.868575,33.365236,0
126.868353,33.365145,0
126.868032,33.364912,0
126.86774,33.364756,0
126.867391,33.364467,10
126.867112,33.364076,10
126.867077,33.363966,10
126.867033,33.363678,10
126.867001,33.363339,10
126.867002,33.363189,10
126.867164,33.362687,10
126.867283,33.362435,10
126.867239,33.362343,10
126.867125,33.361756,10
126.867087,33.361558,10
126.867054,33.361172,10
126.867148,33.360728,10
126.867304,33.360131,10
126.8674,33.359853,10
126.867415,33.359393,10
126.867458,33.359187,10
126.867577,33.358624,10
126.868206,33.357138,10
126.868206,33.355998,10
126.86824,33.355274,10
126.86794,33.354715,10
126.867502,33.353969,10
126.866981,33.353365,10
126.866902,33.352727,10
126.865871,33.35204,10
126.865485,33.351696,10
126.864641,33.350675,10
126.863633,33.349416,10
126.863242,33.349313,10
126.86272,33.349274,10
126.862209,33.349049,10
126.861803,33.348843,10
126.861423,33.348763,10
126.861173,33.348489,10
126.86106,33.348488,10
126.86014,33.348379,10
126.859514,33.34803,10
126.858921,33.348099,10
126.858788,33.347982,10
126.858039,33.347614,10
126.857857,33.347997,10
126.857717,33.348127,10
126.857524,33.348535,10
126.857465,33.348835,10
126.857326,33.348988,10
126.856966,33.349077,10
126.856757,33.349252,10
126.856483,33.349221,10
126.85629,33.348956,10
126.856092,33.348826,10
126.855711,33.348728,10
126.855577,33.348665,10
126.855427,33.348481,10
126.855378,33.348284,10
126.855303,33.347702,10
126.854912,33.347419,10
126.854772,33.347289,10
126.854668,33.3471,10
126.854472,33.346915,0
126.85448,33.346804,0
126.854418,33.346728,0
126.853885,33.346568,0
126.85386,33.346215,0
126.854124,33.345549,0
126.854336,33.345231,10
126.854392,33.345101,10
126.854414,33.345049,10
126.854416,33.344833,10
126.854482,33.344613,10
126.854484,33.34438,10
126.854437,33.344238,10
126.854365,33.344144,10
126.854088,33.343932,10
126.854057,33.343866,10
126.85405,33.343658,10
126.854004,33.343368,10
126.853967,33.343191,10
126.85389,33.343064,10
126.853926,33.343047,10
126.853856,33.342978,10
126.853606,33.342818,10
126.853173,33.342843,10
126.853115,33.342806,10
126.852899,33.342584,10
126.853225,33.342475,10
126.853376,33.342405,10
126.853467,33.342328,10
126.853618,33.342164,10
126.853773,33.34188,10
126.853848,33.341808,10
126.85409,33.341816,10
126.854174,33.341798,10
126.854347,33.341637,10
126.854513,33.341581,10
126.854758,33.34146,10
126.855049,33.341254,10
126.85516,33.341198,10
126.855282,33.341098,10
126.855178,33.340692,10
126.855091,33.340054,0
126.854984,33.339841,0
126.854943,33.339801,0
126.855257,33.339523,0
126.855313,33.339365,0
126.855316,33.33935,0
126.854965,33.33923,0
126.85468,33.339312,0
126.854532,33.339326,0
126.85352,33.339279,0
126.85323,33.339229,0
126.853111,33.339212,0
126.852781,33.339035,0
126.852584,33.33891,0
126.852122,33.338599,0
126.852038,33.33846,0
126.851986,33.338419,0
126.85145,33.338118,0
126.851277,33.337975,0
126.851203,33.33791,0
126.850642,33.337685,0
126.850362,33.337492,0
126.850276,33.337263,0
126.850294,33.337058,0
126.850302,33.336969,0
126.850079,33.336919,0
126.84975,33.337064,0
126.849644,33.337095,0
126.849382,33.336717,0
126.849102,33.3368,0
126.849011,33.336827,0
126.849175,33.336599,0
126.848882,33.336395,0
126.848561,33.336289,0
126.84798,33.336156,0
126.847544,33.336002,0
126.846989,33.33568,0
126.845951,33.334325,0
126.845908,33.3342,0
126.845693,33.334014,0
126.845484,33.333898,0
126.84511,33.333692,0
126.844523,33.333449,0
126.844168,33.333253,0
126.843887,33.333036,0
126.843755,33.332822,0
126.843567,33.332363,0
126.843117,33.332121,0
126.842556,33.331895,0
126.842319,33.331436,0
126.842071,33.331073,0
126.842034,33.330787,0
126.841974,33.330561,0
126.841865,33.330336,0
126.841698,33.330056,0
126.841183,33.330038,0
126.841004,33.329944,0
126.840667,33.32993,0
126.840419,33.330025,0
126.840156,33.330095,0
126.839943,33.330092,0
126.839714,33.330007,0
126.839503,33.329928,0
126.839333,33.329776,0
126.837762,33.329751,0
126.837134,33.329505,0
126.836818,33.329178,0
126.8367,33.328847,0
126.83667,33.327702,0
126.836928,33.326465,0
126.837049,33.326474,0
126.837176,33.326439,0
126.837586,33.325895,0
126.837591,33.325819,0
126.837931,33.325737,0
126.83801,33.325733,0
126.838096,33.325762,0
126.839319,33.325791,0
126.839478,33.325849,0
126.839977,33.32608,0
126.840067,33.32607,0
126.840303,33.325962,0
126.841565,33.325943,0
126.842198,33.325923,0
126.842224,33.325827,0
126.842314,33.325748,0
126.842406,33.325719,0
126.842522,33.325721,0
126.842507,33.325553,0
</coordinates>
    </LineString>
  </MultiGeometry>
</Placemark></Folder>
  </Document>
</kml>