<?xml version="1.0" encoding="utf-8"?>
<kml xmlns:gx="http://www.google.com/kml/ext/2.2" xmlns="http://www.opengis.net/kml/2.2">
  <Document>
    <Style id="base_track_style">
      <LineStyle>
        <color>7f00ffff</color>
        <width>4</width>
      </LineStyle>
    </Style>
    <Folder><Placemark>
  <styleUrl>#base_track_style</styleUrl>
  <name>route</name>
  <MultiGeometry>
    <LineString>
      <coordinates>126.334948,33.240392,0
126.334434,33.240552,0
126.333934,33.240738,0
126.333602,33.240825,0
126.333271,33.240903,0
126.332714,33.240915,0
126.332462,33.241045,0
126.332135,33.241044,10
126.332029,33.241094,10
126.332006,33.241285,10
126.332191,33.241802,10
126.332194,33.241894,10
126.332199,33.242062,10.86853
126.332118,33.242118,11.77665
126.331883,33.242183,13.41546
126.331449,33.24209,14.49394
126.330837,33.242015,17.05075
126.330197,33.241719,20
126.329488,33.241309,10
126.32908,33.241648,20
126.328955,33.241751,20
126.328671,33.242357,20
126.328226,33.242393,20
126.327754,33.242186,15.0578
126.32763,33.241316,10
126.327491,33.241136,10
126.327186,33.240973,10
126.327078,33.240916,10
126.326027,33.240758,10
126.325198,33.240393,10
126.324988,33.2403,10
126.324427,33.239923,10
126.323665,33.239948,10
126.322517,33.239661,10
126.32188,33.239337,10
126.32153,33.239304,10
126.320815,33.239235,10
126.319153,33.238782,10
126.318266,33.23829,10
126.316975,33.237454,10
126.316734,33.237297,10
126.315981,33.236724,12.74704
126.31579,33.236579,14.58983
126.314679,33.236032,24.26098
126.314581,33.235861,22.4959
126.31467,33.235554,17.68727
126.314425,33.235127,13.92749
126.314486,33.234793,10
126.314309,33.23469,10
126.314278,33.234594,10
126.314414,33.234424,10
126.314269,33.233858,10
126.314085,33.233589,10
126.313947,33.233592,10
126.313797,33.233595,0
126.313781,33.233695,0
126.313546,33.233707,0
126.313065,33.233798,0
126.312338,33.233807,0
126.312045,33.233789,0
126.311484,33.233674,0
126.310686,33.233356,0
126.310608,33.233243,0
126.310125,33.232762,0
126.310702,33.232385,0
126.309996,33.231576,0
126.309954,33.231528,0
126.309206,33.230297,0
126.30861,33.228699,0
126.308489,33.228336,0
126.308472,33.228213,0
126.308313,33.22816,0
126.307912,33.227855,0
126.306918,33.228219,0
126.306539,33.228222,0
126.305998,33.228065,0
126.305824,33.228015,0
126.305285,33.227781,0
126.305081,33.228086,0
126.304909,33.228001,0
126.304454,33.227838,0
126.302564,33.227384,0
126.301569,33.227088,0
126.301254,33.226956,0
126.301015,33.226786,0
126.300499,33.226263,0
126.299989,33.225646,0
126.299897,33.225526,0
126.299818,33.225205,0
126.29956,33.224886,0
126.299176,33.224644,0
126.297947,33.223871,0
126.296614,33.222379,0
126.296125,33.221775,0
126.295057,33.22065,0
126.29463,33.22015,0
126.294642,33.219411,0
126.29471,33.218856,0
126.2942,33.218003,0
126.293967,33.21766,0
126.293669,33.217127,0
126.293754,33.216618,0
126.293634,33.216134,0
126.293996,33.215593,0
126.294161,33.215291,0
126.29422,33.215072,0
126.294192,33.214743,0
126.294059,33.214445,0
126.293962,33.214274,0
126.29338,33.213783,0
126.292911,33.213076,0
126.292432,33.212224,0
126.292213,33.211739,0
126.291798,33.210502,0
126.291673,33.210213,0
126.291571,33.209703,0
126.291502,33.209061,0
126.2915,33.208159,0
126.291329,33.207887,10
126.291264,33.207696,10
126.291131,33.207514,10
126.290923,33.207367,10
126.290722,33.207226,10
126.290059,33.206534,10
126.289876,33.206531,10
126.289359,33.206574,15.97722
126.289239,33.205444,20
126.289002,33.204711,27.73732
126.289478,33.204341,31.64033
126.289531,33.20423,33.46476
126.289769,33.203725,42.59705
126.289926,33.203589,44.47038
126.29032,33.203358,45.6968
126.290539,33.20326,44.98056
126.29112,33.203073,36.24844
126.291495,33.202868,36.1451
126.291694,33.202737,35.90847
126.292017,33.202629,35.56035
126.292292,33.202569,36.53467
126.292508,33.202503,38.83112
126.292753,33.202363,38.14907
126.292789,33.202342,37.71933
126.292837,33.202252,38.26376
126.292843,33.202012,38.57733
126.292586,33.201509,46.83432
126.292592,33.201378,47.95602
126.292658,33.201288,47.79637
126.292783,33.201203,46.41241
126.292939,33.20115,43.96066
126.293053,33.20106,37.71284
126.293125,33.200952,38.29039
126.293113,33.200809,37.77567
126.292798,33.200131,51.62134
126.292801,33.199967,51.69453
126.292957,33.199813,48.58817
126.293069,33.199703,46.03675
126.29331,33.199527,40.97213
126.293437,33.199314,38.51491
126.293608,33.198804,25.22563
126.293708,33.198658,25.2332
126.294114,33.198533,15.63609
126.294391,33.198256,15.85121
126.294417,33.198048,18.84943
126.294435,33.19791,16.77761
126.294325,33.197632,15.66681
126.293924,33.197529,17.78238
126.29373,33.197416,18.2626
126.293543,33.197309,19.2706
126.293208,33.197078,19.51664
126.29303,33.196908,19.50086
126.292966,33.196889,19.21856
126.292906,33.196908,17.79368
126.292872,33.196894,17.47155
126.29275,33.1968,17.15913
126.292702,33.196741,17.49796
126.292593,33.196675,17.46767
126.292379,33.196403,17.7543
126.292177,33.196273,16.51683
126.291872,33.196119,15.51687
126.29137,33.195927,15.33227
126.291205,33.1959,15.86585
126.291136,33.195865,15.46293
126.291019,33.195829,15.14799
126.290877,33.195855,15.84776
126.290615,33.195782,15.03997
126.290382,33.195853,15.8971
126.290274,33.195836,15.47473
126.290211,33.1958,14.82691
126.28996,33.195761,13.86329
126.289834,33.195764,13.56593
126.289785,33.19578,13.66928
126.2896,33.195767,12.96381
126.289487,33.19577,12.70325
126.289211,33.195856,13.14097
126.288919,33.196096,14.10751
126.288715,33.19622,13.87733
126.288473,33.196298,12.42766
126.288259,33.196376,11.07265
126.287977,33.196533,10.19708
126.287887,33.196641,10.19841
126.287739,33.196724,10.08213
126.287608,33.196845,10.69889
126.287542,33.197007,12.85592
126.287371,33.197238,16.00696
126.28731,33.197376,18.12037
126.28727,33.197477,19.68068
126.287289,33.197593,21.47395
126.287342,33.197756,23.72501
126.287505,33.198013,26.05763
126.287409,33.198132,24.25284
126.287409,33.19831,23.52895
126.287283,33.198705,18.61074
126.287324,33.198897,21.04966
126.287413,33.19903,20.9333
126.287385,33.199236,20.29469
126.287363,33.199275,20.23188
126.287377,33.199556,21.6541
126.287322,33.199792,22.50391
126.287167,33.2001,23.19835
126.287106,33.200284,25.06112
126.28656,33.200707,22.09377
126.286645,33.200982,30.78568
126.286759,33.20123,39.13082
126.286999,33.201581,48.47046
126.287551,33.202247,47.44577
126.28773,33.202605,48.41494
126.287954,33.203452,40.14267
126.288092,33.203819,36.86978
126.287864,33.204013,33.48859
126.287817,33.204182,31.72047
126.287808,33.204214,31.40854
126.287673,33.204399,30
126.287496,33.204719,30
126.287078,33.204974,30
126.286463,33.20514,30
126.286151,33.205288,30
126.285797,33.205495,30
126.284707,33.205714,30
126.284254,33.205661,30
126.283858,33.20585,30
126.283723,33.20604,30
126.283575,33.206182,30
126.283355,33.206194,30
126.283178,33.206117,30
126.28293,33.206069,30
126.282449,33.206046,30
126.282513,33.205489,30
126.282286,33.205453,30
126.282039,33.205471,20
126.281699,33.205394,20
126.281779,33.205641,20
126.281266,33.205718,20
126.280586,33.205683,20
126.278251,33.205407,10
126.276282,33.205149,10
126.273952,33.206479,10
126.273594,33.206758,10
126.273325,33.206785,10
126.272968,33.206663,10
126.272927,33.206527,10
126.272618,33.206193,10
126.271764,33.206663,10
126.270919,33.20888,10
126.270634,33.208851,10
126.27013,33.208799,10
126.270049,33.208908,10
126.267536,33.208935,10
126.267235,33.208642,10
126.267203,33.208445,10
126.268179,33.206805,10
126.267512,33.206595,10
126.267365,33.20669,10
126.266081,33.206717,10
126.265764,33.206833,10
126.265438,33.20722,10
126.264576,33.207353,10
126.264224,33.207304,10
126.263867,33.207945,10
126.263814,33.207998,10
126.263534,33.208278,0
126.263415,33.208691,0
126.263526,33.209093,0
126.263317,33.209722,0
126.262281,33.21065,0
126.260685,33.211318,0
126.259459,33.211232,0
126.258835,33.211189,0
126.258543,33.211237,0
126.257603,33.211284,0
126.256387,33.21126,0
126.25613,33.211279,0
126.255891,33.211321,0
126.255597,33.21144,0
126.255357,33.211608,0
126.253238,33.213584,0
126.253175,33.213663,0
126.252962,33.213968,0
126.252872,33.214208,0
126.252748,33.214812,0
126.25261,33.215603,0
126.25252,33.21592,0
126.252398,33.216117,0
126.252127,33.218975,0
126.252398,33.216117,0
126.25252,33.21592,0
126.25261,33.215603,0
126.252748,33.214812,0
126.252609,33.215602,0
126.252519,33.21592,0
126.252397,33.216117,0
126.252107,33.219167,0
126.252255,33.219172,0
126.252694,33.219186,0
126.252776,33.219164,0
</coordinates>
    </LineString>
  </MultiGeometry>
</Placemark></Folder>
  </Document>
</kml>