<?xml version="1.0" encoding="utf-8"?>
<gpx version="1.1" creator="Movescount - http://www.movescount.com" xmlns:xsi="http://www.w3.org/2001/XMLSchema-instance" xsi:schemaLocation="http://www.topografix.com/GPX/1/1 http://www.topografix.com/GPX/1/1/gpx.xsd http://www.cluetrust.com/XML/GPXDATA/1/0 http://www.cluetrust.com/Schemas/gpxdata10.xsd http://www.garmin.com/xmlschemas/TrackPointExtension/v1 http://www.garmin.com/xmlschemas/TrackPointExtensionv1.xsd" xmlns:gpxdata="http://www.cluetrust.com/XML/GPXDATA/1/0" xmlns:gpxtpx="http://www.garmin.com/xmlschemas/TrackPointExtension/v1" xmlns="http://www.topografix.com/GPX/1/1">
   <rte>
      <name>ollegil 10-1</name>
      <rtept lat="33.174566" lon="126.271096" />
      <rtept lat="33.174416" lon="126.270617" />
      <rtept lat="33.174367" lon="126.270346" />
      <rtept lat="33.174381" lon="126.269827" />
      <rtept lat="33.174345" lon="126.269742" />
      <rtept lat="33.173828" lon="126.26952" />
      <rtept lat="33.173655" lon="126.269199" />
      <rtept lat="33.173565" lon="126.268825" />
      <rtept lat="33.173367" lon="126.268161" />
      <rtept lat="33.17312" lon="126.267976" />
      <rtept lat="33.173002" lon="126.267838" />
      <rtept lat="33.172854" lon="126.267665">
         <ele>10</ele>
      </rtept>
      <rtept lat="33.172746" lon="126.267464">
         <ele>10</ele>
      </rtept>
      <rtept lat="33.172706" lon="126.267345">
         <ele>10</ele>
      </rtept>
      <rtept lat="33.172689" lon="126.266884">
         <ele>10</ele>
      </rtept>
      <rtept lat="33.172602" lon="126.266722">
         <ele>10</ele>
      </rtept>
      <rtept lat="33.172494" lon="126.266573">
         <ele>10</ele>
      </rtept>
      <rtept lat="33.172352" lon="126.266452">
         <ele>10</ele>
      </rtept>
      <rtept lat="33.172228" lon="126.266416">
         <ele>10</ele>
      </rtept>
      <rtept lat="33.171993" lon="126.266308">
         <ele>10</ele>
      </rtept>
      <rtept lat="33.171578" lon="126.266068">
         <ele>10</ele>
      </rtept>
      <rtept lat="33.171384" lon="126.265899">
         <ele>10</ele>
      </rtept>
      <rtept lat="33.171199" lon="126.26571">
         <ele>10</ele>
      </rtept>
      <rtept lat="33.171106" lon="126.265433">
         <ele>10</ele>
      </rtept>
      <rtept lat="33.170606" lon="126.264949">
         <ele>10</ele>
      </rtept>
      <rtept lat="33.170092" lon="126.264533">
         <ele>10</ele>
      </rtept>
      <rtept lat="33.169741" lon="126.26443">
         <ele>10</ele>
      </rtept>
      <rtept lat="33.169357" lon="126.264495">
         <ele>10</ele>
      </rtept>
      <rtept lat="33.168951" lon="126.264794">
         <ele>10</ele>
      </rtept>
      <rtept lat="33.168505" lon="126.265327">
         <ele>10</ele>
      </rtept>
      <rtept lat="33.168028" lon="126.266111">
         <ele>10</ele>
      </rtept>
      <rtept lat="33.167536" lon="126.267195">
         <ele>10</ele>
      </rtept>
      <rtept lat="33.167184" lon="126.267811">
         <ele>10</ele>
      </rtept>
      <rtept lat="33.166896" lon="126.268045">
         <ele>10</ele>
      </rtept>
      <rtept lat="33.16634" lon="126.268502" />
      <rtept lat="33.165964" lon="126.26867" />
      <rtept lat="33.165573" lon="126.268745" />
      <rtept lat="33.165409" lon="126.268736" />
      <rtept lat="33.165214" lon="126.268782" />
      <rtept lat="33.165018" lon="126.26895" />
      <rtept lat="33.164737" lon="126.269324" />
      <rtept lat="33.164565" lon="126.269707" />
      <rtept lat="33.164396" lon="126.270036" />
      <rtept lat="33.164127" lon="126.270632" />
      <rtept lat="33.164065" lon="126.270893" />
      <rtept lat="33.164111" lon="126.271117" />
      <rtept lat="33.164213" lon="126.271248" />
      <rtept lat="33.16451" lon="126.271491" />
      <rtept lat="33.164932" lon="126.271762" />
      <rtept lat="33.165096" lon="126.27193" />
      <rtept lat="33.16555" lon="126.272593" />
      <rtept lat="33.165667" lon="126.27292" />
      <rtept lat="33.165759" lon="126.273482" />
      <rtept lat="33.165888" lon="126.273413" />
      <rtept lat="33.166014" lon="126.273226" />
      <rtept lat="33.166292" lon="126.273072">
         <ele>10</ele>
      </rtept>
      <rtept lat="33.16654" lon="126.272964">
         <ele>10</ele>
      </rtept>
      <rtept lat="33.166774" lon="126.272814">
         <ele>10</ele>
      </rtept>
      <rtept lat="33.16699" lon="126.272613">
         <ele>10</ele>
      </rtept>
      <rtept lat="33.167214" lon="126.27236">
         <ele>10</ele>
      </rtept>
      <rtept lat="33.167887" lon="126.271676">
         <ele>10</ele>
      </rtept>
      <rtept lat="33.168146" lon="126.271455">
         <ele>10</ele>
      </rtept>
      <rtept lat="33.168688" lon="126.271039">
         <ele>10</ele>
      </rtept>
      <rtept lat="33.169269" lon="126.270733">
         <ele>10</ele>
      </rtept>
      <rtept lat="33.169366" lon="126.270679" />
      <rtept lat="33.169682" lon="126.270573" />
      <rtept lat="33.170419" lon="126.270373" />
      <rtept lat="33.171091" lon="126.270069" />
      <rtept lat="33.171625" lon="126.269879">
         <ele>10</ele>
      </rtept>
      <rtept lat="33.171893" lon="126.269831">
         <ele>10</ele>
      </rtept>
      <rtept lat="33.172114" lon="126.269867">
         <ele>10</ele>
      </rtept>
      <rtept lat="33.17239" lon="126.269842">
         <ele>10</ele>
      </rtept>
      <rtept lat="33.172651" lon="126.269747">
         <ele>10</ele>
      </rtept>
      <rtept lat="33.17308" lon="126.26955">
         <ele>10</ele>
      </rtept>
      <rtept lat="33.173655" lon="126.269199">
         <ele>10</ele>
      </rtept>
      <rtept lat="33.173828" lon="126.26952">
         <ele>10</ele>
      </rtept>
      <rtept lat="33.174345" lon="126.269742">
         <ele>10</ele>
      </rtept>
      <rtept lat="33.174381" lon="126.269827">
         <ele>10</ele>
      </rtept>
      <rtept lat="33.174367" lon="126.270346">
         <ele>10</ele>
      </rtept>
      <rtept lat="33.174416" lon="126.270617">
         <ele>10</ele>
      </rtept>
      <rtept lat="33.174499" lon="126.270915">
         <ele>10</ele>
      </rtept>
      <rtept lat="33.174671" lon="126.271385">
         <ele>10</ele>
      </rtept>
      <rtept lat="33.174738" lon="126.271639">
         <ele>10</ele>
      </rtept>
      <rtept lat="33.174726" lon="126.27254">
         <ele>10</ele>
      </rtept>
      <rtept lat="33.174746" lon="126.273018">
         <ele>10</ele>
      </rtept>
      <rtept lat="33.174706" lon="126.273141">
         <ele>10</ele>
      </rtept>
      <rtept lat="33.174331" lon="126.273977">
         <ele>10</ele>
      </rtept>
      <rtept lat="33.174134" lon="126.274234">
         <ele>10</ele>
      </rtept>
      <rtept lat="33.173962" lon="126.274333">
         <ele>10</ele>
      </rtept>
      <rtept lat="33.173775" lon="126.274372">
         <ele>10</ele>
      </rtept>
      <rtept lat="33.17344" lon="126.274505">
         <ele>10</ele>
      </rtept>
      <rtept lat="33.173201" lon="126.274704">
         <ele>10</ele>
      </rtept>
      <rtept lat="33.172984" lon="126.274985">
         <ele>10</ele>
      </rtept>
      <rtept lat="33.172668" lon="126.275208">
         <ele>10</ele>
      </rtept>
      <rtept lat="33.172384" lon="126.275453">
         <ele>10</ele>
      </rtept>
      <rtept lat="33.172342" lon="126.275491">
         <ele>10</ele>
      </rtept>
      <rtept lat="33.172191" lon="126.275779">
         <ele>10</ele>
      </rtept>
      <rtept lat="33.172066" lon="126.275973">
         <ele>10</ele>
      </rtept>
      <rtept lat="33.171472" lon="126.276433">
         <ele>10</ele>
      </rtept>
      <rtept lat="33.170994" lon="126.27687">
         <ele>10</ele>
      </rtept>
      <rtept lat="33.170858" lon="126.277044">
         <ele>10</ele>
      </rtept>
      <rtept lat="33.170631" lon="126.277536">
         <ele>10</ele>
      </rtept>
      <rtept lat="33.170462" lon="126.277788">
         <ele>10</ele>
      </rtept>
      <rtept lat="33.17031" lon="126.277969">
         <ele>10</ele>
      </rtept>
      <rtept lat="33.170107" lon="126.278141">
         <ele>10</ele>
      </rtept>
      <rtept lat="33.169501" lon="126.278496">
         <ele>10</ele>
      </rtept>
      <rtept lat="33.168652" lon="126.278624">
         <ele>10</ele>
      </rtept>
      <rtept lat="33.16825" lon="126.278737">
         <ele>10</ele>
      </rtept>
      <rtept lat="33.168161" lon="126.278678">
         <ele>10</ele>
      </rtept>
      <rtept lat="33.167996" lon="126.278315">
         <ele>10</ele>
      </rtept>
      <rtept lat="33.168013" lon="126.278057">
         <ele>10</ele>
      </rtept>
      <rtept lat="33.168074" lon="126.277841">
         <ele>10</ele>
      </rtept>
      <rtept lat="33.168255" lon="126.277495">
         <ele>10</ele>
      </rtept>
      <rtept lat="33.168345" lon="126.277096">
         <ele>10</ele>
      </rtept>
      <rtept lat="33.168368" lon="126.276814">
         <ele>10</ele>
      </rtept>
      <rtept lat="33.168306" lon="126.276456">
         <ele>10</ele>
      </rtept>
      <rtept lat="33.168193" lon="126.276055">
         <ele>10</ele>
      </rtept>
      <rtept lat="33.167618" lon="126.274924">
         <ele>10</ele>
      </rtept>
      <rtept lat="33.167519" lon="126.274832">
         <ele>10</ele>
      </rtept>
      <rtept lat="33.167298" lon="126.274451">
         <ele>10</ele>
      </rtept>
   </rte>
</gpx>