<?xml version="1.0" encoding="utf-8"?>
<kml xmlns:gx="http://www.google.com/kml/ext/2.2" xmlns="http://www.opengis.net/kml/2.2">
  <Document>
    <Style id="base_track_style">
      <LineStyle>
        <color>7f00ffff</color>
        <width>4</width>
      </LineStyle>
    </Style>
    <Folder><Placemark>
  <styleUrl>#base_track_style</styleUrl>
  <name>route</name>
  <MultiGeometry>
    <LineString>
      <coordinates>126.252792,33.219156,0
126.252694,33.219186,0
126.25211,33.219167,0
126.25208,33.219486,0
126.251744,33.219588,0
126.251265,33.219734,0
126.251212,33.219611,0
126.250501,33.219876,0
126.250479,33.219945,0
126.250433,33.220089,0
126.250401,33.220276,0
126.250114,33.220273,0
126.250044,33.220484,0
126.250072,33.220498,0
126.250056,33.220641,0
126.250048,33.220706,0
126.249743,33.220688,0
126.249424,33.220737,0
126.249171,33.220918,0
126.248995,33.220675,0
126.248926,33.220458,0
126.248873,33.220093,0
126.24884,33.220032,0
126.248812,33.219863,0
126.248701,33.219847,0
126.247832,33.219871,0
126.246891,33.220033,0
126.246824,33.220046,0
126.247029,33.220721,0
126.246356,33.220908,0
126.246464,33.221144,0
126.245895,33.221503,0
126.245775,33.221538,0
126.245616,33.221541,0
126.245457,33.221498,0
126.245217,33.221481,0
126.245135,33.221436,0
126.245054,33.22135,0
126.244955,33.221285,0
126.244806,33.221282,0
126.244679,33.221324,0
126.244594,33.221377,0
126.244523,33.221448,0
126.244487,33.221546,0
126.244473,33.221646,0
126.243946,33.222132,0
126.243358,33.222235,0
126.243277,33.222274,0
126.242955,33.22268,0
126.242729,33.222869,0
126.242558,33.223097,0
126.242219,33.223254,0
126.241943,33.223417,0
126.241773,33.223704,0
126.24173,33.22374,0
126.24149,33.223766,0
126.241331,33.223819,0
126.241249,33.223911,0
126.241228,33.224009,0
126.241274,33.224133,0
126.241292,33.224341,0
126.241331,33.224503,0
126.241348,33.224669,0
126.24138,33.224764,0
126.241617,33.225039,0
126.2416,33.225238,0
126.241649,33.225362,0
126.241723,33.225457,0
126.241805,33.225525,0
126.241842,33.225702,0
126.241862,33.2258,0
126.242381,33.225832,0
126.242438,33.226046,0
126.242462,33.226284,0
126.242822,33.226287,0
126.24289,33.226274,0
126.242982,33.226076,0
126.243096,33.226011,0
126.243432,33.225949,0
126.243663,33.225957,0
126.244017,33.225934,0
126.244369,33.225944,0
126.244701,33.226145,0
126.245458,33.226835,0
126.245461,33.226825,0
126.245588,33.22685,0
126.245995,33.226976,0
126.246333,33.227012,0
126.246618,33.226931,0
126.246907,33.226949,0
126.246988,33.226981,0
126.24717,33.227631,10
126.247352,33.227497,10
126.24765,33.22738,10
126.248136,33.227254,10
126.248241,33.227287,10
126.249539,33.229133,10
126.250833,33.228826,10
126.250934,33.228946,10
126.251459,33.229022,10
126.251687,33.22942,10
126.25198,33.229942,10
126.252012,33.230149,10
126.252456,33.230689,10
126.252619,33.231226,20
126.252895,33.231928,20
126.252979,33.232211,20
126.253301,33.233001,30
126.253377,33.233264,30
126.253526,33.23356,33.38545
126.253452,33.234357,40.13456
126.253797,33.234685,46.46812
126.253825,33.234888,48.8516
126.253629,33.235076,49.0648
126.253629,33.235459,53.41327
126.253564,33.235896,57.67784
126.253629,33.236427,63.70673
126.253442,33.237107,66.46548
126.253355,33.237596,67.13061
126.254573,33.237803,81.49713
126.254707,33.237811,83.35636
126.254663,33.23661,76.72723
126.254996,33.236391,78.14587
126.255064,33.236269,77.56272
126.255437,33.235922,77.83311
126.255674,33.235896,80.10612
126.256007,33.235754,81.54911
126.256222,33.23562,81.27489
126.256469,33.235434,79.68131
126.256789,33.235306,78.36243
126.256856,33.235315,78.59254
126.256998,33.235648,84.42473
126.257247,33.235978,90.44166
126.257502,33.236308,97.17765
126.257811,33.23641,100.3743
126.258206,33.236475,101.3853
126.258803,33.236345,98.9127
126.259132,33.236219,97.32553
126.259685,33.236168,97.51981
126.259982,33.236271,99.39604
126.260226,33.236488,103.3849
126.260402,33.236297,98.52193
126.260944,33.236531,100.1415
126.262074,33.23707,99.96242
126.262821,33.237789,101.4485
126.263307,33.238656,101.6671
126.26185,33.238664,122.109
126.261747,33.23889,125.2381
126.261626,33.239398,129.3146
126.261075,33.239351,137.1449
126.260692,33.239687,141.2197
126.259608,33.239898,148.8508
126.258305,33.239989,147.9658
126.258263,33.239992,147.4465
126.258226,33.240218,140.2086
126.258478,33.240335,138.4579
126.258459,33.240913,120.0446
126.259048,33.241015,118.2014
126.259375,33.241054,117.0807
126.259337,33.241413,108.1159
126.259739,33.242163,95.12154
126.260477,33.24253,87.73795
126.260804,33.242765,83.63448
126.261271,33.242964,80
126.261861,33.243314,74.35762
126.26229,33.243529,70
126.262869,33.243852,66.14552
126.26347,33.243987,61.99564
126.26377,33.244453,60
126.263921,33.244785,54.51622
126.264075,33.244963,50
126.264351,33.245072,50
126.264456,33.245114,50
126.264447,33.245148,50
126.264048,33.246206,50
126.26399,33.246315,50
126.263385,33.246857,50
126.263354,33.247869,40
126.263251,33.249075,40
126.26249,33.248841,40
126.262154,33.248763,40
126.262056,33.248548,40
126.261687,33.248486,40
126.261314,33.248368,40
126.260818,33.24807,40
126.260534,33.247915,40
126.260169,33.247876,40
126.259558,33.247775,50
126.257783,33.247248,50
126.256919,33.246904,50
126.256844,33.246783,50
126.256564,33.24672,50
126.256466,33.246681,50
126.256485,33.246509,50
126.256443,33.246439,50
126.256289,33.246392,50
126.255803,33.246326,50
126.255654,33.246342,50
126.255604,33.246912,50
126.256473,33.247863,50
126.256806,33.248132,50
126.256988,33.24833,50
126.25716,33.248473,50
126.257278,33.248913,50
126.257417,33.249335,50
126.257675,33.250035,40
126.257903,33.250721,40
126.258216,33.25138,40
126.258618,33.251887,40
126.258253,33.252356,40
126.257992,33.252481,40
126.258123,33.252817,40
126.25816,33.253051,40
126.258786,33.252903,40
126.259038,33.252809,40
126.258935,33.252911,40
126.258851,33.253028,40
126.258963,33.253215,40
126.259206,33.253278,40
126.259692,33.253324,40
126.259841,33.253379,40
126.260019,33.253207,40
126.260121,33.253332,40
126.260318,33.253473,40
126.26073,33.253425,40
126.26093,33.253407,40
126.261311,33.25324,40
126.261423,33.253208,40
126.261557,33.2532,40
126.261664,33.253216,40
126.261754,33.253181,40
126.261948,33.253003,40
126.262593,33.252756,40
126.262574,33.253355,40
126.262531,33.253602,40
126.262352,33.25436,40
126.262347,33.254607,40
126.262494,33.255447,40
126.262644,33.255796,40
126.262679,33.256024,40
126.262617,33.256612,40
126.262468,33.257287,40
126.262367,33.257875,40
126.262519,33.259433,40
126.262041,33.259554,40
126.261787,33.259441,40
126.260705,33.259872,40
126.260456,33.25998,40
126.258955,33.260335,40
126.258339,33.260554,40
126.258304,33.260814,40
126.257667,33.261033,40
126.256585,33.261463,40
126.256615,33.262417,40
126.256605,33.262745,40
126.256615,33.26301,40
126.256671,33.263441,40
126.25661,33.264295,50
126.256713,33.264576,50
126.257091,33.265338,50
126.257725,33.266413,50
126.257828,33.266505,50
126.258099,33.266621,50
126.258228,33.267303,50
126.258106,33.26748,50
126.258131,33.267582,50
126.258334,33.268173,50
126.258554,33.268261,50
126.258554,33.268418,50
126.258773,33.268805,50
126.258741,33.269002,50
126.259008,33.26957,50
126.259033,33.269628,50
126.258952,33.270199,60
126.258936,33.270464,60
126.258879,33.270702,60
126.259163,33.270736,60
126.259344,33.270835,60
126.259535,33.270905,60
126.259643,33.271061,60
126.259624,33.271253,60
126.259577,33.271479,60
126.25946,33.271682,60
126.259428,33.271955,60
126.259498,33.272174,60
126.25954,33.272592,60
126.259568,33.27346,70
126.259531,33.274068,70
126.259793,33.275397,70
126.259793,33.27585,70
126.259821,33.276142,70
126.259942,33.27741,80
126.259506,33.277973,80
126.25958,33.278787,80
126.259913,33.279508,80
126.260011,33.279989,80
126.260073,33.280291,80
126.259854,33.280786,80
126.259499,33.281004,80
126.259265,33.280978,80
126.258942,33.280761,80
126.258829,33.280767,80
126.258631,33.280777,80
126.258223,33.280759,80
126.258019,33.280723,80
126.257922,33.280813,80
126.257751,33.280903,80
126.257572,33.281515,80
126.257086,33.281572,80
126.257087,33.281553,80
126.257026,33.28155,80
126.256617,33.281174,80
126.256367,33.280896,80
126.256071,33.280798,80
126.255186,33.280964,80
126.254797,33.281017,80
126.254457,33.28113,80
126.254308,33.281284,80
126.254124,33.281508,80
126.254273,33.281621,80
126.254358,33.281722,80
126.25479,33.28184,80
126.255823,33.281822,80
126.25622,33.281964,80
126.256481,33.282384,80
126.256701,33.28281,80
126.256701,33.283257,80
126.256741,33.283366,80
126.25688,33.283502,80
126.25714,33.283896,90
126.257522,33.284576,90
126.257872,33.28516,90
126.258156,33.285595,90
126.257457,33.285609,90
126.256546,33.285745,90
126.254896,33.285921,90
126.254497,33.285813,90
126.254278,33.2855,90
126.254074,33.285038,90
126.253611,33.284619,90
126.253282,33.284352,90
126.253133,33.284305,90
126.252432,33.28379,80
126.251909,33.283173,80
126.251666,33.282689,80
126.251582,33.282338,80
126.251918,33.282205,80
126.252516,33.2819,80
126.252208,33.281401,80
126.251834,33.280893,80
126.251451,33.280433,80
126.250983,33.280047,80
126.249938,33.278894,70
126.249334,33.278348,70
126.249129,33.278177,70
126.248853,33.277987,70
126.248592,33.278233,70
126.248433,33.278245,70
126.248419,33.278236,70
126.248306,33.278395,70
126.248186,33.278503,70
126.248002,33.278579,70
126.247792,33.278636,70
126.247584,33.278717,70
126.246295,33.278591,70
126.246231,33.278522,70
126.246184,33.278418,70
126.246214,33.278247,70
126.246207,33.278108,70
126.246051,33.277753,70
126.24606,33.277673,70
126.246021,33.277589,70
126.245965,33.277554,70
126.245953,33.277546,70
126.245724,33.277628,70
126.245577,33.277476,70
126.245045,33.277522,70
126.244863,33.277388,70
126.244564,33.277433,70
126.244379,33.277068,70
126.244178,33.276763,70
126.243763,33.276437,70
126.242911,33.275936,70
126.241989,33.275498,60
126.241825,33.275394,60
126.241671,33.275267,60
126.241437,33.275039,60
126.241215,33.274855,60
126.241152,33.274848,60
126.241096,33.274821,60
126.241057,33.274779,60
126.241041,33.274728,60
126.240758,33.274647,60
126.240546,33.274611,60
126.24015,33.274604,60
126.236711,33.274562,50
</coordinates>
    </LineString>
  </MultiGeometry>
</Placemark></Folder>
  </Document>
</kml>