<?xml version="1.0" encoding="utf-8"?>
<gpx version="1.1" creator="Movescount - http://www.movescount.com" xmlns:xsi="http://www.w3.org/2001/XMLSchema-instance" xsi:schemaLocation="http://www.topografix.com/GPX/1/1 http://www.topografix.com/GPX/1/1/gpx.xsd http://www.cluetrust.com/XML/GPXDATA/1/0 http://www.cluetrust.com/Schemas/gpxdata10.xsd http://www.garmin.com/xmlschemas/TrackPointExtension/v1 http://www.garmin.com/xmlschemas/TrackPointExtensionv1.xsd" xmlns:gpxdata="http://www.cluetrust.com/XML/GPXDATA/1/0" xmlns:gpxtpx="http://www.garmin.com/xmlschemas/TrackPointExtension/v1" xmlns="http://www.topografix.com/GPX/1/1">
   <rte>
      <name>ollegil 21</name>
      <rtept lat="33.523025" lon="126.862767" />
      <rtept lat="33.523129" lon="126.86318" />
      <rtept lat="33.521891" lon="126.86372">
         <ele>10</ele>
      </rtept>
      <rtept lat="33.521501" lon="126.864462">
         <ele>10</ele>
      </rtept>
      <rtept lat="33.521199" lon="126.864975">
         <ele>10</ele>
      </rtept>
      <rtept lat="33.521189" lon="126.865251">
         <ele>10</ele>
      </rtept>
      <rtept lat="33.521392" lon="126.865308">
         <ele>10</ele>
      </rtept>
      <rtept lat="33.521944" lon="126.864962">
         <ele>10</ele>
      </rtept>
      <rtept lat="33.522276" lon="126.864658">
         <ele>10</ele>
      </rtept>
      <rtept lat="33.522385" lon="126.864763">
         <ele>10</ele>
      </rtept>
      <rtept lat="33.522446" lon="126.86493">
         <ele>10</ele>
      </rtept>
      <rtept lat="33.522405" lon="126.865202">
         <ele>10</ele>
      </rtept>
      <rtept lat="33.522455" lon="126.865314">
         <ele>10</ele>
      </rtept>
      <rtept lat="33.522831" lon="126.866156" />
      <rtept lat="33.52273" lon="126.866471" />
      <rtept lat="33.522749" lon="126.866731" />
      <rtept lat="33.5228" lon="126.866901" />
      <rtept lat="33.522222" lon="126.867372" />
      <rtept lat="33.521733" lon="126.867701" />
      <rtept lat="33.52194" lon="126.868452" />
      <rtept lat="33.522071" lon="126.868691" />
      <rtept lat="33.522882" lon="126.869563">
         <ele>10</ele>
      </rtept>
      <rtept lat="33.523235" lon="126.869807">
         <ele>10</ele>
      </rtept>
      <rtept lat="33.523382" lon="126.869847">
         <ele>10</ele>
      </rtept>
      <rtept lat="33.523754" lon="126.87006">
         <ele>10</ele>
      </rtept>
      <rtept lat="33.523932" lon="126.87007">
         <ele>10</ele>
      </rtept>
      <rtept lat="33.524092" lon="126.870189">
         <ele>10</ele>
      </rtept>
      <rtept lat="33.52438" lon="126.870246">
         <ele>10</ele>
      </rtept>
      <rtept lat="33.524371" lon="126.870364">
         <ele>10</ele>
      </rtept>
      <rtept lat="33.52435" lon="126.870633" />
      <rtept lat="33.524252" lon="126.870891" />
      <rtept lat="33.524193" lon="126.87117" />
      <rtept lat="33.524162" lon="126.871497" />
      <rtept lat="33.524032" lon="126.871888" />
      <rtept lat="33.524068" lon="126.872183" />
      <rtept lat="33.524149" lon="126.872489" />
      <rtept lat="33.52431" lon="126.872892" />
      <rtept lat="33.524332" lon="126.873267" />
      <rtept lat="33.524239" lon="126.873295" />
      <rtept lat="33.52414" lon="126.873411" />
      <rtept lat="33.523885" lon="126.873554" />
      <rtept lat="33.523516" lon="126.873547" />
      <rtept lat="33.523375" lon="126.873636" />
      <rtept lat="33.523203" lon="126.874054" />
      <rtept lat="33.522807" lon="126.874814" />
      <rtept lat="33.522719" lon="126.874914" />
      <rtept lat="33.52268" lon="126.875042" />
      <rtept lat="33.522669" lon="126.875194" />
      <rtept lat="33.522683" lon="126.875392" />
      <rtept lat="33.522759" lon="126.875629" />
      <rtept lat="33.522753" lon="126.875702" />
      <rtept lat="33.522743" lon="126.875829" />
      <rtept lat="33.522646" lon="126.876191" />
      <rtept lat="33.522125" lon="126.87734" />
      <rtept lat="33.522144" lon="126.877763" />
      <rtept lat="33.52232" lon="126.878189" />
      <rtept lat="33.522807" lon="126.878916" />
      <rtept lat="33.523889" lon="126.878878">
         <ele>10</ele>
      </rtept>
      <rtept lat="33.523964" lon="126.879861">
         <ele>10</ele>
      </rtept>
      <rtept lat="33.52401" lon="126.879981">
         <ele>10</ele>
      </rtept>
      <rtept lat="33.524076" lon="126.880155">
         <ele>10</ele>
      </rtept>
      <rtept lat="33.52412" lon="126.880271">
         <ele>10</ele>
      </rtept>
      <rtept lat="33.524513" lon="126.880538">
         <ele>10</ele>
      </rtept>
      <rtept lat="33.524649" lon="126.880613">
         <ele>10</ele>
      </rtept>
      <rtept lat="33.52478" lon="126.880737">
         <ele>10</ele>
      </rtept>
      <rtept lat="33.524812" lon="126.880748">
         <ele>10</ele>
      </rtept>
      <rtept lat="33.525001" lon="126.8807">
         <ele>10</ele>
      </rtept>
      <rtept lat="33.525148" lon="126.880727">
         <ele>10</ele>
      </rtept>
      <rtept lat="33.525246" lon="126.880778">
         <ele>10</ele>
      </rtept>
      <rtept lat="33.525889" lon="126.881249">
         <ele>10</ele>
      </rtept>
      <rtept lat="33.526424" lon="126.881536">
         <ele>10</ele>
      </rtept>
      <rtept lat="33.52639" lon="126.881611">
         <ele>10</ele>
      </rtept>
      <rtept lat="33.526372" lon="126.881724">
         <ele>10</ele>
      </rtept>
      <rtept lat="33.526397" lon="126.882143">
         <ele>10</ele>
      </rtept>
      <rtept lat="33.526405" lon="126.882273" />
      <rtept lat="33.526385" lon="126.882384" />
      <rtept lat="33.526503" lon="126.883014" />
      <rtept lat="33.526449" lon="126.883068" />
      <rtept lat="33.526322" lon="126.883341" />
      <rtept lat="33.5256" lon="126.883318" />
      <rtept lat="33.525407" lon="126.88355" />
      <rtept lat="33.525152" lon="126.883675" />
      <rtept lat="33.524851" lon="126.883997">
         <ele>10</ele>
      </rtept>
      <rtept lat="33.524932" lon="126.884121">
         <ele>10</ele>
      </rtept>
      <rtept lat="33.524986" lon="126.884204">
         <ele>10</ele>
      </rtept>
      <rtept lat="33.525038" lon="126.884246">
         <ele>10</ele>
      </rtept>
      <rtept lat="33.525034" lon="126.884383">
         <ele>10</ele>
      </rtept>
      <rtept lat="33.524834" lon="126.884667">
         <ele>10</ele>
      </rtept>
      <rtept lat="33.524745" lon="126.884674">
         <ele>10</ele>
      </rtept>
      <rtept lat="33.524661" lon="126.885219">
         <ele>10</ele>
      </rtept>
      <rtept lat="33.524906" lon="126.885846">
         <ele>10</ele>
      </rtept>
      <rtept lat="33.524859" lon="126.88674">
         <ele>10</ele>
      </rtept>
      <rtept lat="33.524997" lon="126.88715">
         <ele>10</ele>
      </rtept>
      <rtept lat="33.524988" lon="126.887628">
         <ele>10</ele>
      </rtept>
      <rtept lat="33.52524" lon="126.887639">
         <ele>10</ele>
      </rtept>
      <rtept lat="33.525397" lon="126.887862">
         <ele>10</ele>
      </rtept>
      <rtept lat="33.525546" lon="126.887916">
         <ele>10</ele>
      </rtept>
      <rtept lat="33.525659" lon="126.887956" />
      <rtept lat="33.526626" lon="126.888422" />
      <rtept lat="33.526711" lon="126.888386" />
      <rtept lat="33.52713" lon="126.888526" />
      <rtept lat="33.527414" lon="126.888247" />
      <rtept lat="33.527404" lon="126.888359" />
      <rtept lat="33.52728" lon="126.888945" />
      <rtept lat="33.526933" lon="126.890478" />
      <rtept lat="33.526324" lon="126.892405" />
      <rtept lat="33.526089" lon="126.892932" />
      <rtept lat="33.525984" lon="126.893093" />
      <rtept lat="33.525694" lon="126.893446" />
      <rtept lat="33.525073" lon="126.894046" />
      <rtept lat="33.524993" lon="126.894152" />
      <rtept lat="33.524507" lon="126.894946" />
      <rtept lat="33.52358" lon="126.896185" />
      <rtept lat="33.522727" lon="126.897414" />
      <rtept lat="33.522627" lon="126.897527" />
      <rtept lat="33.52235" lon="126.897961" />
      <rtept lat="33.522291" lon="126.898084" />
      <rtept lat="33.521682" lon="126.899921" />
      <rtept lat="33.521613" lon="126.900071" />
      <rtept lat="33.521517" lon="126.900228" />
      <rtept lat="33.521309" lon="126.900494" />
      <rtept lat="33.521097" lon="126.900679" />
      <rtept lat="33.52078" lon="126.900854" />
      <rtept lat="33.52044" lon="126.900931" />
      <rtept lat="33.520244" lon="126.900932" />
      <rtept lat="33.519978" lon="126.900894" />
      <rtept lat="33.519016" lon="126.900637" />
      <rtept lat="33.517763" lon="126.900336" />
      <rtept lat="33.517355" lon="126.900232" />
      <rtept lat="33.517177" lon="126.900204" />
      <rtept lat="33.515003" lon="126.900575" />
      <rtept lat="33.514814" lon="126.900559" />
      <rtept lat="33.514623" lon="126.90046" />
      <rtept lat="33.514566" lon="126.900415" />
      <rtept lat="33.514462" lon="126.90031" />
      <rtept lat="33.51441" lon="126.900232" />
      <rtept lat="33.514327" lon="126.900057" />
      <rtept lat="33.514061" lon="126.899283" />
      <rtept lat="33.513979" lon="126.899111" />
      <rtept lat="33.513846" lon="126.89889" />
      <rtept lat="33.513453" lon="126.89851" />
      <rtept lat="33.513326" lon="126.898413" />
      <rtept lat="33.513124" lon="126.898314" />
      <rtept lat="33.512819" lon="126.898231" />
      <rtept lat="33.512658" lon="126.898348" />
      <rtept lat="33.512164" lon="126.898556" />
      <rtept lat="33.509459" lon="126.899547">
         <ele>10</ele>
      </rtept>
      <rtept lat="33.509408" lon="126.899584">
         <ele>10</ele>
      </rtept>
      <rtept lat="33.509384" lon="126.899625">
         <ele>10</ele>
      </rtept>
      <rtept lat="33.509362" lon="126.899693">
         <ele>10</ele>
      </rtept>
      <rtept lat="33.509357" lon="126.899801">
         <ele>10</ele>
      </rtept>
      <rtept lat="33.509561" lon="126.900281">
         <ele>10</ele>
      </rtept>
      <rtept lat="33.509506" lon="126.900337">
         <ele>10</ele>
      </rtept>
      <rtept lat="33.508803" lon="126.90033">
         <ele>10</ele>
      </rtept>
      <rtept lat="33.508632" lon="126.900351">
         <ele>10</ele>
      </rtept>
      <rtept lat="33.508348" lon="126.900164">
         <ele>10</ele>
      </rtept>
      <rtept lat="33.508277" lon="126.900106">
         <ele>10</ele>
      </rtept>
      <rtept lat="33.508107" lon="126.900117">
         <ele>10</ele>
      </rtept>
      <rtept lat="33.507924" lon="126.900246">
         <ele>10</ele>
      </rtept>
      <rtept lat="33.5077" lon="126.900278">
         <ele>10</ele>
      </rtept>
      <rtept lat="33.507423" lon="126.900224">
         <ele>10</ele>
      </rtept>
      <rtept lat="33.507155" lon="126.899945">
         <ele>10</ele>
      </rtept>
      <rtept lat="33.50694" lon="126.899903">
         <ele>10</ele>
      </rtept>
      <rtept lat="33.506573" lon="126.900037">
         <ele>10</ele>
      </rtept>
      <rtept lat="33.506269" lon="126.900058">
         <ele>10</ele>
      </rtept>
      <rtept lat="33.506072" lon="126.900139">
         <ele>10</ele>
      </rtept>
      <rtept lat="33.505983" lon="126.900038">
         <ele>10</ele>
      </rtept>
      <rtept lat="33.505625" lon="126.899083">
         <ele>10</ele>
      </rtept>
      <rtept lat="33.504972" lon="126.899469">
         <ele>10</ele>
      </rtept>
      <rtept lat="33.504905" lon="126.899769">
         <ele>10</ele>
      </rtept>
      <rtept lat="33.504695" lon="126.899995">
         <ele>10</ele>
      </rtept>
      <rtept lat="33.504453" lon="126.900301">
         <ele>10</ele>
      </rtept>
      <rtept lat="33.504462" lon="126.900429">
         <ele>10</ele>
      </rtept>
      <rtept lat="33.504105" lon="126.90088">
         <ele>20</ele>
      </rtept>
      <rtept lat="33.503613" lon="126.900494">
         <ele>20</ele>
      </rtept>
      <rtept lat="33.503451" lon="126.900331">
         <ele>20</ele>
      </rtept>
      <rtept lat="33.5032" lon="126.900188">
         <ele>22.20414</ele>
      </rtept>
      <rtept lat="33.502936" lon="126.900091">
         <ele>25.23501</ele>
      </rtept>
      <rtept lat="33.502556" lon="126.900351">
         <ele>31.07025</ele>
      </rtept>
      <rtept lat="33.502465" lon="126.900392">
         <ele>33.26686</ele>
      </rtept>
      <rtept lat="33.502342" lon="126.900327">
         <ele>36.46628</ele>
      </rtept>
      <rtept lat="33.502217" lon="126.899993">
         <ele>39.39327</ele>
      </rtept>
      <rtept lat="33.501593" lon="126.900196">
         <ele>58.7397</ele>
      </rtept>
      <rtept lat="33.501281" lon="126.89992">
         <ele>69.45415</ele>
      </rtept>
      <rtept lat="33.500983" lon="126.899627">
         <ele>75.13052</ele>
      </rtept>
      <rtept lat="33.500556" lon="126.899513">
         <ele>78.92056</ele>
      </rtept>
      <rtept lat="33.50021" lon="126.899538">
         <ele>83.55396</ele>
      </rtept>
      <rtept lat="33.499769" lon="126.899741">
         <ele>87.60307</ele>
      </rtept>
      <rtept lat="33.499424" lon="126.900131">
         <ele>92.16718</ele>
      </rtept>
      <rtept lat="33.499315" lon="126.900603">
         <ele>99.79831</ele>
      </rtept>
      <rtept lat="33.499288" lon="126.901286">
         <ele>108.7332</ele>
      </rtept>
      <rtept lat="33.499424" lon="126.901749">
         <ele>116.8884</ele>
      </rtept>
      <rtept lat="33.499471" lon="126.902148">
         <ele>117.4502</ele>
      </rtept>
      <rtept lat="33.499085" lon="126.902896">
         <ele>116.6882</ele>
      </rtept>
      <rtept lat="33.498759" lon="126.903408">
         <ele>96.85844</ele>
      </rtept>
      <rtept lat="33.498488" lon="126.903961">
         <ele>75.34245</ele>
      </rtept>
      <rtept lat="33.49802" lon="126.904335">
         <ele>50.33794</ele>
      </rtept>
      <rtept lat="33.497654" lon="126.904807">
         <ele>30.54177</ele>
      </rtept>
      <rtept lat="33.49745" lon="126.905034">
         <ele>22.24029</ele>
      </rtept>
      <rtept lat="33.49705" lon="126.905164">
         <ele>12.91486</ele>
      </rtept>
      <rtept lat="33.496806" lon="126.905514">
         <ele>12.27448</ele>
      </rtept>
      <rtept lat="33.496359" lon="126.905969">
         <ele>12.27448</ele>
      </rtept>
      <rtept lat="33.496456" lon="126.906053">
         <ele>10</ele>
      </rtept>
      <rtept lat="33.49663" lon="126.906205">
         <ele>10</ele>
      </rtept>
      <rtept lat="33.496467" lon="126.90653">
         <ele>10</ele>
      </rtept>
      <rtept lat="33.496589" lon="126.906994">
         <ele>10</ele>
      </rtept>
      <rtept lat="33.496298" lon="126.907799">
         <ele>10</ele>
      </rtept>
      <rtept lat="33.496074" lon="126.907878">
         <ele>10</ele>
      </rtept>
      <rtept lat="33.49614" lon="126.908058">
         <ele>10</ele>
      </rtept>
      <rtept lat="33.496282" lon="126.908618">
         <ele>10</ele>
      </rtept>
      <rtept lat="33.496365" lon="126.909205">
         <ele>10</ele>
      </rtept>
      <rtept lat="33.496417" lon="126.909421">
         <ele>10</ele>
      </rtept>
      <rtept lat="33.496391" lon="126.909432">
         <ele>10</ele>
      </rtept>
      <rtept lat="33.496325" lon="126.909555">
         <ele>10</ele>
      </rtept>
      <rtept lat="33.496156" lon="126.909383">
         <ele>10</ele>
      </rtept>
      <rtept lat="33.495896" lon="126.909166">
         <ele>10</ele>
      </rtept>
      <rtept lat="33.495578" lon="126.909015">
         <ele>10</ele>
      </rtept>
      <rtept lat="33.495314" lon="126.908949">
         <ele>10</ele>
      </rtept>
      <rtept lat="33.494969" lon="126.908995">
         <ele>10</ele>
      </rtept>
      <rtept lat="33.493902" lon="126.90926">
         <ele>10</ele>
      </rtept>
      <rtept lat="33.492994" lon="126.909527">
         <ele>10</ele>
      </rtept>
      <rtept lat="33.492219" lon="126.909837">
         <ele>10</ele>
      </rtept>
      <rtept lat="33.491005" lon="126.910377">
         <ele>10</ele>
      </rtept>
      <rtept lat="33.490741" lon="126.910494" />
      <rtept lat="33.490374" lon="126.910585" />
      <rtept lat="33.489988" lon="126.910544" />
      <rtept lat="33.489543" lon="126.910475" />
      <rtept lat="33.489154" lon="126.910372" />
      <rtept lat="33.489076" lon="126.91031" />
      <rtept lat="33.488767" lon="126.90989" />
      <rtept lat="33.488039" lon="126.908721" />
      <rtept lat="33.487564" lon="126.907838" />
      <rtept lat="33.487539" lon="126.907511" />
      <rtept lat="33.487726" lon="126.906884" />
      <rtept lat="33.488094" lon="126.906156" />
      <rtept lat="33.488255" lon="126.905895" />
      <rtept lat="33.488479" lon="126.905684" />
      <rtept lat="33.488688" lon="126.905393" />
   </rte>
</gpx>