<?xml version="1.0" encoding="utf-8"?>
<kml xmlns:gx="http://www.google.com/kml/ext/2.2" xmlns="http://www.opengis.net/kml/2.2">
  <Document>
    <Style id="base_track_style">
      <LineStyle>
        <color>7f00ffff</color>
        <width>4</width>
      </LineStyle>
    </Style>
    <Folder><Placemark>
  <styleUrl>#base_track_style</styleUrl>
  <name>route</name>
  <MultiGeometry>
    <LineString>
      <coordinates>126.842505,33.325541,0
126.842566,33.325487,0
126.842611,33.325396,0
126.842605,33.325352,0
126.843207,33.325243,0
126.843875,33.32503,0
126.843921,33.325013,0
126.844734,33.325249,0
126.844788,33.32533,0
126.844875,33.325343,0
126.844879,33.325297,0
126.844842,33.32528,0
126.844832,33.325246,0
126.844897,33.325167,0
126.844946,33.325027,0
126.845011,33.324919,0
126.845052,33.324871,0
126.84523,33.324829,0
126.845382,33.3247,0
126.845542,33.324746,0
126.846869,33.324991,0
126.847007,33.325006,0
126.847016,33.324996,0
126.847316,33.324686,0
126.847316,33.324514,0
126.847352,33.324449,0
126.847289,33.32422,0
126.847311,33.324164,0
126.847272,33.324071,0
126.84717,33.323972,0
126.847087,33.323935,0
126.846981,33.323776,0
126.846891,33.323568,0
126.846698,33.323217,0
126.84667,33.32308,0
126.846713,33.32299,0
126.846734,33.322886,0
126.846801,33.322778,0
126.846905,33.322524,0
126.846934,33.322485,0
126.847048,33.322405,0
126.847093,33.322342,0
126.847287,33.321802,0
126.84732,33.321461,0
126.847094,33.321271,0
126.847,33.321246,0
126.84702,33.320884,0
126.846798,33.320856,0
126.846417,33.320932,0
126.846001,33.320932,0
126.845829,33.320895,0
126.845664,33.320732,0
126.845532,33.320718,0
126.845318,33.32082,0
126.845057,33.320596,0
126.844706,33.320383,0
126.844495,33.320282,0
126.843843,33.320016,0
126.843555,33.319838,0
126.843048,33.319467,0
126.842973,33.319287,0
126.842838,33.319163,0
126.842735,33.319006,0
126.842705,33.318888,0
126.842694,33.318723,0
126.84268,33.318667,0
126.842652,33.318648,0
126.842586,33.318037,0
126.842357,33.317254,0
126.842225,33.317065,0
126.842141,33.316975,0
126.842079,33.31694,0
126.841864,33.316729,0
126.841742,33.316646,0
126.841576,33.316566,0
126.841311,33.316491,0
126.840567,33.316454,0
126.840306,33.316427,0
126.840135,33.316397,0
126.839957,33.316335,0
126.839037,33.315806,0
126.838893,33.315736,0
126.838768,33.315692,0
126.838677,33.315678,0
126.838594,33.31564,0
126.838295,33.315436,0
126.837788,33.314939,0
126.837593,33.314831,0
126.837231,33.314675,0
126.837033,33.314588,0
126.836942,33.31453,0
126.836854,33.314427,0
126.836832,33.314357,0
126.836842,33.314215,0
126.836984,33.313971,0
126.837055,33.313784,0
126.837097,33.312702,0
126.837081,33.312623,0
126.837037,33.312529,0
126.836977,33.31245,0
126.836739,33.312246,0
126.836496,33.312092,0
126.83627,33.312025,0
126.836059,33.311991,0
126.835486,33.311956,0
126.835247,33.311902,0
126.833787,33.311071,0
126.833522,33.310942,0
126.833138,33.310792,0
126.832844,33.310651,0
126.832524,33.310398,0
126.832217,33.310224,0
126.831168,33.309809,0
126.831056,33.309752,0
126.83084,33.309582,0
126.830392,33.309057,0
126.830075,33.308733,0
126.829718,33.308519,0
126.829529,33.308381,0
126.829248,33.308049,0
126.828978,33.30769,0
126.828762,33.307485,0
126.828614,33.307373,0
126.827824,33.306932,0
126.82756,33.306848,0
126.827309,33.306807,0
126.826542,33.306812,0
126.826398,33.306786,0
126.825637,33.306551,0
126.825365,33.306496,0
126.822825,33.306061,0
126.822566,33.306031,0
126.822436,33.306036,0
126.822196,33.30607,0
126.821908,33.306181,0
126.821534,33.306467,0
126.821112,33.306651,0
126.820973,33.306755,0
126.820263,33.30756,0
126.820157,33.307653,0
126.819983,33.307755,0
126.819854,33.307806,0
126.819594,33.307852,0
126.819447,33.307851,0
126.81837,33.307614,0
126.818011,33.307562,0
126.817873,33.307558,0
126.8176,33.307588,0
126.817336,33.307653,0
126.817089,33.30776,0
126.816773,33.307936,0
126.816655,33.307975,0
126.816477,33.307999,0
126.816367,33.307997,0
126.816031,33.307942,0
126.815614,33.307844,0
126.815363,33.307754,0
126.815119,33.307565,0
126.815015,33.307462,0
126.814454,33.307032,0
126.814101,33.306797,0
126.813998,33.306744,0
126.813684,33.306632,0
126.812621,33.306323,0
126.812027,33.306035,0
126.811536,33.305754,0
126.811436,33.305683,0
126.811358,33.305597,0
126.811146,33.305189,0
126.810754,33.304575,0
126.810684,33.304492,0
126.810473,33.30431,0
126.809069,33.303488,0
126.808217,33.303031,0
126.807743,33.302884,0
126.807525,33.302851,0
126.807409,33.302849,0
126.807263,33.302872,0
126.807168,33.3029,0
126.806982,33.302999,0
126.806519,33.303381,0
126.806351,33.303541,0
126.806294,33.303639,0
126.806249,33.30377,0
126.806198,33.30424,0
126.806246,33.304326,0
126.806402,33.304529,0
126.80644,33.304636,0
126.806454,33.304865,0
126.806431,33.305149,0
126.806384,33.305356,0
126.806295,33.305517,0
126.806159,33.305687,0
126.806083,33.305876,0
126.805998,33.30589,0
126.805941,33.305945,0
126.80592,33.305966,0
126.805558,33.306105,0
126.805523,33.30609,0
126.805279,33.305842,0
126.805152,33.305604,0
126.805031,33.305295,0
126.804944,33.305174,0
126.804843,33.305088,0
126.804678,33.30499,0
126.804537,33.304947,0
126.804469,33.304967,0
126.804055,33.30479,0
126.803784,33.304697,0
126.803541,33.304631,0
126.803494,33.304647,0
126.80341,33.304567,0
126.803279,33.304485,0
126.803179,33.304351,0
126.803114,33.303971,0
126.802888,33.30401,0
126.802813,33.304006,0
126.802413,33.303902,0
126.802176,33.303876,0
126.802045,33.303882,0
126.801944,33.303924,0
126.80179,33.30407,0
126.801681,33.304097,0
126.800837,33.303981,0
126.800672,33.303958,0
126.800109,33.303785,0
126.799479,33.303681,0
126.799388,33.303634,0
126.798392,33.303462,10
126.798293,33.303492,10
126.79824,33.303393,10
126.798162,33.303353,10
126.798069,33.303337,10
126.797835,33.303357,10
126.797513,33.303424,10
126.797192,33.303551,10
126.796906,33.303691,10
126.796752,33.303738,10
126.796458,33.303768,10
126.796196,33.303818,10
126.79574,33.304088,10
126.79554,33.304243,10
126.795484,33.304326,10
126.795299,33.304287,10
126.7952,33.304368,10
126.794063,33.3049,10
126.793784,33.304872,10
126.793348,33.304552,10
126.793146,33.304491,10
126.792912,33.30417,10
126.79229,33.303837,10
126.791658,33.303617,10
126.791353,33.303656,10
126.791265,33.303697,10
126.791123,33.303859,10
126.790914,33.303985,10
126.790858,33.30408,10
126.790805,33.304127,10
126.790513,33.304125,10
126.790379,33.304104,10
126.790094,33.304152,10
126.790009,33.304124,10
126.789903,33.304085,0
126.789852,33.304082,0
126.789766,33.304092,0
126.78969,33.304132,0
126.78965,33.304159,0
126.789393,33.304447,10
126.789225,33.30451,10
126.789035,33.304639,10
126.788547,33.304792,10
126.787933,33.304844,10
126.787544,33.305001,10
126.787495,33.305045,10
126.787501,33.305123,10
126.787533,33.305203,10
126.787543,33.30535,10
126.787536,33.305535,10
126.787559,33.305843,10
126.78755,33.305968,10
126.787476,33.306052,10
126.786734,33.306507,10
126.786584,33.306568,10
126.786274,33.306591,10
126.786217,33.306569,10
126.786184,33.306444,10
126.786124,33.306416,10
126.785801,33.306447,10
126.78534,33.306391,10
126.785181,33.306344,10
126.784984,33.306232,10
126.78485,33.306246,10
126.784675,33.30631,10
126.784344,33.306368,10
126.783781,33.306384,10
126.783498,33.306432,10
126.783162,33.306555,10
126.782766,33.306652,10
126.782691,33.306686,10
126.782593,33.306735,10
126.782376,33.306909,10
126.782269,33.307014,10
126.782213,33.307151,10
126.782195,33.307256,0
126.782238,33.307523,0
126.782479,33.308624,10
126.782564,33.308716,10
126.782744,33.308984,10
126.782868,33.309112,10
126.782836,33.309186,10
126.782657,33.309411,10
126.782461,33.309539,10
126.782324,33.309818,10
126.781907,33.310059,20
126.781312,33.310363,20
126.781204,33.310457,20
126.781105,33.310785,20
126.781121,33.31088,20
126.781198,33.310988,20
126.781231,33.311093,20
126.781222,33.311157,20
126.781099,33.311416,20
126.781081,33.311656,20
126.78095,33.311803,30
126.780454,33.312114,30
126.780399,33.312394,30
126.780241,33.312562,30
126.779476,33.312916,30
126.779355,33.312913,30
126.779311,33.313123,30
126.779078,33.313441,30
126.779068,33.313525,30
126.779134,33.313755,30
126.779149,33.313926,30
126.779116,33.314449,40
126.77919,33.314877,40
126.779366,33.315839,40
126.77933,33.315973,40
126.779298,33.316073,40
126.779245,33.316127,40
126.778788,33.316115,40
126.778721,33.316144,40
126.778616,33.316274,40
126.778494,33.316679,40
126.778384,33.316872,40
126.778318,33.31703,40
126.778246,33.31728,40
126.778278,33.317462,40
126.778277,33.317585,40
126.778337,33.317826,40
126.778341,33.317839,0
126.778412,33.317855,0
126.778584,33.317936,0
126.778629,33.317989,0
126.778651,33.318088,50
126.778768,33.319823,60
126.778744,33.320071,61.67337
126.778511,33.320454,66.14787
126.778557,33.32106,73.3263
126.778205,33.321993,88.38583
126.777959,33.322364,96.01249
126.778046,33.322878,90.73458
126.777957,33.323572,91.47052
126.777884,33.323608,90.65862
126.77775,33.323626,91.96592
126.777234,33.323561,103.7517
126.777196,33.323623,103.802
126.777105,33.323997,101.3508
126.776961,33.324194,102.8549
126.776619,33.324506,107.9654
126.776253,33.324273,118.0926
126.776253,33.323758,122.7091
126.776228,33.323469,127.3895
126.77682,33.322398,134.513
126.776746,33.32212,138.4576
126.776388,33.321791,143.0295
126.77518,33.321884,149.2032
126.774433,33.322324,148.6256
126.773601,33.322814,149.7908
126.773292,33.322821,146.4049
126.772442,33.322907,143.0887
126.77179,33.3231,145.6753
126.771207,33.323036,141.3731
126.770898,33.323036,138.7897
126.770709,33.322727,132.4461
126.769644,33.321817,111.4046
126.769425,33.321413,104.6411
126.769425,33.32113,100
126.769401,33.321006,100
126.769275,33.320834,99.41257
126.768752,33.320734,100
126.767979,33.320734,95.39286
126.767602,33.320411,90
126.767035,33.32011,88.04337
126.76664,33.320181,90
126.76622,33.320346,90
126.765876,33.320389,85.38041
126.765499,33.321279,78.05424
126.764709,33.320856,75.7775
126.763774,33.320167,70
126.762718,33.319787,60
126.762538,33.319665,60
126.763035,33.31945,60
126.76425,33.319082,62.29808
126.764654,33.318987,62.53756
126.764714,33.318949,62.19673
126.764787,33.318853,60.78467
126.764955,33.318729,60.44722
126.765263,33.318582,60.94194
126.76534,33.318527,61.20171
126.765756,33.318094,55.08654
126.765817,33.317985,53.87137
126.765706,33.317884,51.9906
126.76541,33.317685,50
126.765327,33.317635,50
126.765208,33.317603,50
126.765048,33.317586,50
126.764869,33.317618,50
126.764732,33.317686,50
126.764666,33.317756,50
126.764513,33.317849,50
126.764304,33.317912,50
126.764031,33.31796,50
126.763281,33.317972,50
126.763124,33.317905,50
126.763132,33.317651,50
126.7628,33.317639,50
126.762032,33.317503,60
126.761789,33.317537,60
126.761756,33.317451,60
126.76149,33.317011,60
126.760778,33.31681,60
126.760503,33.316452,60
126.760393,33.316398,60
126.759946,33.316179,60
126.759513,33.316115,60
126.759456,33.314408,60
126.759671,33.313891,60
126.760109,33.313676,50
126.760802,33.312348,50
126.760975,33.31179,50
126.761224,33.310649,50
126.760881,33.310434,50
126.760881,33.310212,50
126.761078,33.309609,40
126.761347,33.308529,40
126.761051,33.307168,40
126.761466,33.306357,40
126.76172,33.306309,40
126.761692,33.305795,30
126.762145,33.305552,30
126.762258,33.304842,30
126.76228,33.304239,30
126.762145,33.303428,30
126.761975,33.303227,30
126.762039,33.303002,20
126.761961,33.302647,20
126.762145,33.302287,20
126.762386,33.302014,20
126.762988,33.301747,20
126.763711,33.301527,20
126.763978,33.301024,20
126.764174,33.300565,20
126.764153,33.300416,20
126.764171,33.300137,20
126.764163,33.299826,20
126.764236,33.299673,10
126.76474,33.299535,10
126.764874,33.299387,10
126.765106,33.299045,10
126.76521,33.298922,10
126.76551,33.298652,10
126.765884,33.298508,10
126.765832,33.298433,10
126.765793,33.298339,10
126.765791,33.298175,10
126.765831,33.298008,10
126.765999,33.297491,10
126.765996,33.297406,10
126.765966,33.297291,10
126.76589,33.297183,10
126.765638,33.296984,10
126.765473,33.296808,10
126.764653,33.295618,10
126.76422,33.294953,10
126.764181,33.294873,10
126.764165,33.294786,10
126.76411,33.294067,10
126.764076,33.293955,10
126.763975,33.293758,10
126.763473,33.293098,10
126.763432,33.292852,10
126.763422,33.292628,10
126.763363,33.292459,10
126.763308,33.29238,10
126.763215,33.292288,10
126.763112,33.292223,10
126.762363,33.291911,10
126.762158,33.291916,10
126.761968,33.291966,10
126.761778,33.291995,10
126.761394,33.292019,10
126.761226,33.292013,10
126.761089,33.291969,10
126.760952,33.29187,10
126.760726,33.291623,10
126.760544,33.291519,10
126.7603,33.291461,10
126.759774,33.291457,10
126.759603,33.291409,10
126.759468,33.291315,10
126.758527,33.290265,10
126.758445,33.290191,10
126.758276,33.290075,10
126.757709,33.289845,10
126.757575,33.289742,10
126.757469,33.289624,10
126.757324,33.289341,10
126.757247,33.28923,10
126.757056,33.289067,10
126.755509,33.288278,10
126.754511,33.287709,10
126.754345,33.287642,10
126.75404,33.28756,10
126.753439,33.287446,10
126.753211,33.287436,10
126.753031,33.287497,10
126.752901,33.287578,10
126.752792,33.28767,10
126.752522,33.288245,10
126.752424,33.288384,10
126.752271,33.288928,10
126.75225,33.289002,0
126.751838,33.28945,0
126.751745,33.28936,0
126.751656,33.288898,0
126.751567,33.288641,0
126.751421,33.288435,0
126.751297,33.288314,0
126.750975,33.288088,0
126.749412,33.287242,0
126.749265,33.287101,0
126.749167,33.286967,0
126.749118,33.286426,0
126.749208,33.28617,0
126.749411,33.285877,0
126.749505,33.2857,0
126.749548,33.285423,0
126.749485,33.284827,0
126.749055,33.284045,0
126.748744,33.283433,0
126.74849,33.283142,0
126.746563,33.281863,0
126.745565,33.281168,0
126.745298,33.280926,0
126.745239,33.280866,0
126.744801,33.280188,0
126.744899,33.279728,0
126.744865,33.27952,0
126.744487,33.279183,0
126.744041,33.279298,0
126.743183,33.278982,0
126.742676,33.278896,0
126.742147,33.278921,0
126.741174,33.278968,0
126.739974,33.278895,0
126.739663,33.278855,0
126.73946,33.278868,0
126.73935,33.278889,0
126.739286,33.278918,0
126.739244,33.278958,0
126.739237,33.279004,0
126.739628,33.279919,0
126.739674,33.280088,0
126.739687,33.280722,0
126.739708,33.280862,0
126.739823,33.28133,0
126.739523,33.281356,0
126.739415,33.281336,0
126.739299,33.281176,0
126.73912,33.281078,0
126.739003,33.281013,0
126.73904,33.280764,0
126.738981,33.28057,0
126.738757,33.280154,0
126.738588,33.280133,0
126.738269,33.280167,0
126.738142,33.280237,0
126.737895,33.280185,0
126.737238,33.280142,0
126.737016,33.28016,0
126.736851,33.280239,0
126.736667,33.280374,0
126.735904,33.281129,0
126.735606,33.281373,0
126.735358,33.281521,0
126.734952,33.28167,0
126.733799,33.281926,0
126.733619,33.281953,0
126.733123,33.281863,10
126.732915,33.281773,10
126.73256,33.281475,10
126.732365,33.281259,10
126.73219,33.280988,10
126.731818,33.280263,10
126.731586,33.279988,10
126.731216,33.279617,10
126.730988,33.279465,10
126.73072,33.279342,10
126.730383,33.279274,10
126.730045,33.279248,10
126.729707,33.279305,10
126.728901,33.279492,10
126.728417,33.27949,10
126.727776,33.279405,10
126.726978,33.279542,10
126.726291,33.279578,10
126.725176,33.279341,10
126.724846,33.27922,10
126.724437,33.279119,10
126.723888,33.279083,10
126.723339,33.278867,10
126.723204,33.278794,10
126.722996,33.278637,10
126.722491,33.278018,10
126.722378,33.277936,10
126.722146,33.277817,10
126.722012,33.277766,10
126.721454,33.277651,10
126.721298,33.277645,10
126.720154,33.277865,10
126.719949,33.277908,0
126.719721,33.27799,0
126.719546,33.278075,0
126.719245,33.278293,0
126.718743,33.278112,0
126.718623,33.278092,0
</coordinates>
    </LineString>
  </MultiGeometry>
</Placemark></Folder>
  </Document>
</kml>