<?xml version="1.0" encoding="utf-8"?>
<gpx version="1.1" creator="Movescount - http://www.movescount.com" xmlns:xsi="http://www.w3.org/2001/XMLSchema-instance" xsi:schemaLocation="http://www.topografix.com/GPX/1/1 http://www.topografix.com/GPX/1/1/gpx.xsd http://www.cluetrust.com/XML/GPXDATA/1/0 http://www.cluetrust.com/Schemas/gpxdata10.xsd http://www.garmin.com/xmlschemas/TrackPointExtension/v1 http://www.garmin.com/xmlschemas/TrackPointExtensionv1.xsd" xmlns:gpxdata="http://www.cluetrust.com/XML/GPXDATA/1/0" xmlns:gpxtpx="http://www.garmin.com/xmlschemas/TrackPointExtension/v1" xmlns="http://www.topografix.com/GPX/1/1">
   <rte>
      <name>ollegil 15-B</name>
      <rtept lat="33.41863" lon="126.262331" />
      <rtept lat="33.41865" lon="126.262415" />
      <rtept lat="33.418977" lon="126.262326" />
      <rtept lat="33.419753" lon="126.262113" />
      <rtept lat="33.420038" lon="126.26202" />
      <rtept lat="33.420308" lon="126.262005" />
      <rtept lat="33.421585" lon="126.261921" />
      <rtept lat="33.421784" lon="126.261922" />
      <rtept lat="33.422126" lon="126.261996" />
      <rtept lat="33.424777" lon="126.263638" />
      <rtept lat="33.424871" lon="126.263845" />
      <rtept lat="33.424894" lon="126.263965" />
      <rtept lat="33.424979" lon="126.264407" />
      <rtept lat="33.425033" lon="126.264479" />
      <rtept lat="33.425156" lon="126.26449" />
      <rtept lat="33.426104" lon="126.264254" />
      <rtept lat="33.426215" lon="126.264995">
         <ele>10</ele>
      </rtept>
      <rtept lat="33.426323" lon="126.265184">
         <ele>10</ele>
      </rtept>
      <rtept lat="33.426462" lon="126.265517">
         <ele>10</ele>
      </rtept>
      <rtept lat="33.426494" lon="126.265721">
         <ele>10</ele>
      </rtept>
      <rtept lat="33.4264" lon="126.266549">
         <ele>10</ele>
      </rtept>
      <rtept lat="33.426188" lon="126.26698">
         <ele>10</ele>
      </rtept>
      <rtept lat="33.426202" lon="126.267179">
         <ele>10</ele>
      </rtept>
      <rtept lat="33.426059" lon="126.267436">
         <ele>10</ele>
      </rtept>
      <rtept lat="33.426038" lon="126.267526">
         <ele>10</ele>
      </rtept>
      <rtept lat="33.426093" lon="126.267923">
         <ele>10</ele>
      </rtept>
      <rtept lat="33.426177" lon="126.268055">
         <ele>10</ele>
      </rtept>
      <rtept lat="33.426232" lon="126.268418">
         <ele>10</ele>
      </rtept>
      <rtept lat="33.426179" lon="126.268584">
         <ele>10</ele>
      </rtept>
      <rtept lat="33.426087" lon="126.26875">
         <ele>10</ele>
      </rtept>
      <rtept lat="33.426131" lon="126.268839">
         <ele>10</ele>
      </rtept>
      <rtept lat="33.42632" lon="126.269102">
         <ele>10</ele>
      </rtept>
      <rtept lat="33.426513" lon="126.269091">
         <ele>10</ele>
      </rtept>
      <rtept lat="33.426563" lon="126.269064">
         <ele>10</ele>
      </rtept>
      <rtept lat="33.426666" lon="126.268892">
         <ele>10</ele>
      </rtept>
      <rtept lat="33.426724" lon="126.26886">
         <ele>10</ele>
      </rtept>
      <rtept lat="33.426953" lon="126.268824">
         <ele>10</ele>
      </rtept>
      <rtept lat="33.426973" lon="126.269005">
         <ele>10</ele>
      </rtept>
      <rtept lat="33.426993" lon="126.269182">
         <ele>10</ele>
      </rtept>
      <rtept lat="33.427123" lon="126.269538">
         <ele>10</ele>
      </rtept>
      <rtept lat="33.427163" lon="126.26972">
         <ele>10</ele>
      </rtept>
      <rtept lat="33.427517" lon="126.270207">
         <ele>10</ele>
      </rtept>
      <rtept lat="33.427841" lon="126.269755">
         <ele>10</ele>
      </rtept>
      <rtept lat="33.428125" lon="126.269359">
         <ele>10</ele>
      </rtept>
      <rtept lat="33.428355" lon="126.269595">
         <ele>10</ele>
      </rtept>
      <rtept lat="33.431013" lon="126.272321">
         <ele>10</ele>
      </rtept>
      <rtept lat="33.433254" lon="126.274651">
         <ele>10</ele>
      </rtept>
      <rtept lat="33.433415" lon="126.27482">
         <ele>10</ele>
      </rtept>
      <rtept lat="33.433496" lon="126.274688">
         <ele>10</ele>
      </rtept>
      <rtept lat="33.433572" lon="126.274632">
         <ele>10</ele>
      </rtept>
      <rtept lat="33.434219" lon="126.274334">
         <ele>10</ele>
      </rtept>
      <rtept lat="33.434519" lon="126.274042">
         <ele>10</ele>
      </rtept>
      <rtept lat="33.434623" lon="126.273875">
         <ele>10</ele>
      </rtept>
      <rtept lat="33.434746" lon="126.273554">
         <ele>10</ele>
      </rtept>
      <rtept lat="33.434767" lon="126.273497">
         <ele>10</ele>
      </rtept>
      <rtept lat="33.434943" lon="126.273679">
         <ele>10</ele>
      </rtept>
      <rtept lat="33.435667" lon="126.274033">
         <ele>10</ele>
      </rtept>
      <rtept lat="33.436342" lon="126.274251">
         <ele>10</ele>
      </rtept>
      <rtept lat="33.436498" lon="126.27436">
         <ele>10</ele>
      </rtept>
      <rtept lat="33.436911" lon="126.274739">
         <ele>10</ele>
      </rtept>
      <rtept lat="33.437812" lon="126.275311">
         <ele>10</ele>
      </rtept>
      <rtept lat="33.437913" lon="126.275356">
         <ele>10</ele>
      </rtept>
      <rtept lat="33.438488" lon="126.275438">
         <ele>10</ele>
      </rtept>
      <rtept lat="33.438559" lon="126.275475">
         <ele>10</ele>
      </rtept>
      <rtept lat="33.438621" lon="126.275534">
         <ele>10</ele>
      </rtept>
      <rtept lat="33.439063" lon="126.276084">
         <ele>10</ele>
      </rtept>
      <rtept lat="33.439191" lon="126.276211">
         <ele>10</ele>
      </rtept>
      <rtept lat="33.439407" lon="126.276322">
         <ele>10</ele>
      </rtept>
      <rtept lat="33.439898" lon="126.276465">
         <ele>10</ele>
      </rtept>
      <rtept lat="33.440015" lon="126.276452">
         <ele>10</ele>
      </rtept>
      <rtept lat="33.440388" lon="126.276164">
         <ele>10</ele>
      </rtept>
      <rtept lat="33.440472" lon="126.276164">
         <ele>10</ele>
      </rtept>
      <rtept lat="33.440534" lon="126.276195">
         <ele>10</ele>
      </rtept>
      <rtept lat="33.440648" lon="126.276301">
         <ele>10</ele>
      </rtept>
      <rtept lat="33.440763" lon="126.276481">
         <ele>10</ele>
      </rtept>
      <rtept lat="33.440825" lon="126.276645">
         <ele>10</ele>
      </rtept>
      <rtept lat="33.440856" lon="126.276825">
         <ele>10</ele>
      </rtept>
      <rtept lat="33.440883" lon="126.277185">
         <ele>10</ele>
      </rtept>
      <rtept lat="33.440918" lon="126.27727">
         <ele>10</ele>
      </rtept>
      <rtept lat="33.440962" lon="126.277323">
         <ele>10</ele>
      </rtept>
      <rtept lat="33.44102" lon="126.277355">
         <ele>10</ele>
      </rtept>
      <rtept lat="33.441103" lon="126.27737">
         <ele>10</ele>
      </rtept>
      <rtept lat="33.441174" lon="126.277355">
         <ele>10</ele>
      </rtept>
      <rtept lat="33.441439" lon="126.277243">
         <ele>10</ele>
      </rtept>
      <rtept lat="33.441527" lon="126.277233">
         <ele>10</ele>
      </rtept>
      <rtept lat="33.441603" lon="126.277265">
         <ele>10</ele>
      </rtept>
      <rtept lat="33.441647" lon="126.277318">
         <ele>10</ele>
      </rtept>
      <rtept lat="33.441714" lon="126.277541">
         <ele>10</ele>
      </rtept>
      <rtept lat="33.44177" lon="126.277609">
         <ele>10</ele>
      </rtept>
      <rtept lat="33.441852" lon="126.277645">
         <ele>10</ele>
      </rtept>
      <rtept lat="33.442198" lon="126.277629">
         <ele>10</ele>
      </rtept>
      <rtept lat="33.442311" lon="126.277681">
         <ele>10</ele>
      </rtept>
      <rtept lat="33.442419" lon="126.277759">
         <ele>10</ele>
      </rtept>
      <rtept lat="33.442674" lon="126.278018" />
      <rtept lat="33.442708" lon="126.278091" />
      <rtept lat="33.442713" lon="126.278184" />
      <rtept lat="33.443012" lon="126.278211">
         <ele>10</ele>
      </rtept>
      <rtept lat="33.443328" lon="126.278141">
         <ele>10</ele>
      </rtept>
      <rtept lat="33.443364" lon="126.278928">
         <ele>10</ele>
      </rtept>
      <rtept lat="33.442945" lon="126.278949" />
      <rtept lat="33.442502" lon="126.278521">
         <ele>10</ele>
      </rtept>
      <rtept lat="33.441978" lon="126.279246">
         <ele>10</ele>
      </rtept>
      <rtept lat="33.442143" lon="126.279726">
         <ele>10</ele>
      </rtept>
      <rtept lat="33.442324" lon="126.280091">
         <ele>10</ele>
      </rtept>
      <rtept lat="33.442358" lon="126.280216">
         <ele>10</ele>
      </rtept>
      <rtept lat="33.442367" lon="126.280376">
         <ele>10</ele>
      </rtept>
      <rtept lat="33.442325" lon="126.280828">
         <ele>10</ele>
      </rtept>
      <rtept lat="33.442306" lon="126.281325">
         <ele>10</ele>
      </rtept>
      <rtept lat="33.442488" lon="126.281656">
         <ele>10</ele>
      </rtept>
      <rtept lat="33.44251" lon="126.281827">
         <ele>10</ele>
      </rtept>
      <rtept lat="33.442432" lon="126.282211">
         <ele>10</ele>
      </rtept>
      <rtept lat="33.442406" lon="126.282454">
         <ele>10</ele>
      </rtept>
      <rtept lat="33.442427" lon="126.28305">
         <ele>10</ele>
      </rtept>
      <rtept lat="33.442466" lon="126.283304">
         <ele>10</ele>
      </rtept>
      <rtept lat="33.442726" lon="126.283988">
         <ele>10</ele>
      </rtept>
      <rtept lat="33.442791" lon="126.284066">
         <ele>10</ele>
      </rtept>
      <rtept lat="33.442907" lon="126.284108">
         <ele>10</ele>
      </rtept>
      <rtept lat="33.443003" lon="126.284118">
         <ele>10</ele>
      </rtept>
      <rtept lat="33.443085" lon="126.284102">
         <ele>10</ele>
      </rtept>
      <rtept lat="33.443171" lon="126.284061">
         <ele>10</ele>
      </rtept>
      <rtept lat="33.443487" lon="126.283812">
         <ele>10</ele>
      </rtept>
      <rtept lat="33.443591" lon="126.283755">
         <ele>10</ele>
      </rtept>
      <rtept lat="33.443945" lon="126.283677">
         <ele>10</ele>
      </rtept>
      <rtept lat="33.444049" lon="126.283698">
         <ele>10</ele>
      </rtept>
      <rtept lat="33.444148" lon="126.28374">
         <ele>10</ele>
      </rtept>
      <rtept lat="33.444222" lon="126.283797">
         <ele>10</ele>
      </rtept>
      <rtept lat="33.444287" lon="126.283905">
         <ele>10</ele>
      </rtept>
      <rtept lat="33.444499" lon="126.284408">
         <ele>10</ele>
      </rtept>
      <rtept lat="33.444522" lon="126.284498">
         <ele>10</ele>
      </rtept>
      <rtept lat="33.444577" lon="126.284709">
         <ele>10</ele>
      </rtept>
      <rtept lat="33.444585" lon="126.2849">
         <ele>10</ele>
      </rtept>
      <rtept lat="33.444564" lon="126.285056">
         <ele>10</ele>
      </rtept>
      <rtept lat="33.444516" lon="126.28517">
         <ele>10</ele>
      </rtept>
      <rtept lat="33.443958" lon="126.286035">
         <ele>10</ele>
      </rtept>
      <rtept lat="33.443919" lon="126.286129">
         <ele>10</ele>
      </rtept>
      <rtept lat="33.443902" lon="126.286253">
         <ele>10</ele>
      </rtept>
      <rtept lat="33.443924" lon="126.286357">
         <ele>10</ele>
      </rtept>
      <rtept lat="33.443976" lon="126.28646">
         <ele>10</ele>
      </rtept>
      <rtept lat="33.444131" lon="126.286683">
         <ele>10</ele>
      </rtept>
      <rtept lat="33.44417" lon="126.286777">
         <ele>10</ele>
      </rtept>
      <rtept lat="33.444174" lon="126.286896">
         <ele>10</ele>
      </rtept>
      <rtept lat="33.444153" lon="126.287036">
         <ele>10</ele>
      </rtept>
      <rtept lat="33.44382" lon="126.287953">
         <ele>10</ele>
      </rtept>
      <rtept lat="33.442899" lon="126.289026">
         <ele>10</ele>
      </rtept>
      <rtept lat="33.442008" lon="126.289565">
         <ele>10</ele>
      </rtept>
      <rtept lat="33.4421" lon="126.28984">
         <ele>10</ele>
      </rtept>
      <rtept lat="33.443089" lon="126.291875">
         <ele>10</ele>
      </rtept>
      <rtept lat="33.443364" lon="126.292569">
         <ele>10</ele>
      </rtept>
      <rtept lat="33.44362" lon="126.293459">
         <ele>10</ele>
      </rtept>
      <rtept lat="33.443696" lon="126.293779">
         <ele>10</ele>
      </rtept>
      <rtept lat="33.443848" lon="126.293728">
         <ele>10</ele>
      </rtept>
      <rtept lat="33.444069" lon="126.29381">
         <ele>10</ele>
      </rtept>
      <rtept lat="33.444357" lon="126.293781">
         <ele>10</ele>
      </rtept>
      <rtept lat="33.444571" lon="126.293842">
         <ele>10</ele>
      </rtept>
      <rtept lat="33.444747" lon="126.293976">
         <ele>10</ele>
      </rtept>
      <rtept lat="33.444808" lon="126.294082">
         <ele>10</ele>
      </rtept>
      <rtept lat="33.444879" lon="126.29431">
         <ele>10</ele>
      </rtept>
      <rtept lat="33.445141" lon="126.294533">
         <ele>10</ele>
      </rtept>
      <rtept lat="33.445974" lon="126.2949">
         <ele>10</ele>
      </rtept>
      <rtept lat="33.44599" lon="126.294921">
         <ele>10</ele>
      </rtept>
      <rtept lat="33.446252" lon="126.296475">
         <ele>10</ele>
      </rtept>
      <rtept lat="33.446281" lon="126.296532">
         <ele>10</ele>
      </rtept>
      <rtept lat="33.446317" lon="126.296558">
         <ele>10</ele>
      </rtept>
      <rtept lat="33.446894" lon="126.29667">
         <ele>10</ele>
      </rtept>
      <rtept lat="33.446953" lon="126.296704">
         <ele>10</ele>
      </rtept>
      <rtept lat="33.446974" lon="126.296744">
         <ele>10</ele>
      </rtept>
      <rtept lat="33.446966" lon="126.296851">
         <ele>10</ele>
      </rtept>
      <rtept lat="33.446835" lon="126.296959">
         <ele>10</ele>
      </rtept>
      <rtept lat="33.446688" lon="126.297123">
         <ele>10</ele>
      </rtept>
      <rtept lat="33.446554" lon="126.297314">
         <ele>10</ele>
      </rtept>
      <rtept lat="33.44639" lon="126.297646">
         <ele>10</ele>
      </rtept>
      <rtept lat="33.446308" lon="126.297973">
         <ele>10</ele>
      </rtept>
      <rtept lat="33.446182" lon="126.298768">
         <ele>10</ele>
      </rtept>
      <rtept lat="33.446135" lon="126.298787">
         <ele>10</ele>
      </rtept>
      <rtept lat="33.445943" lon="126.29906">
         <ele>10</ele>
      </rtept>
      <rtept lat="33.445592" lon="126.299317">
         <ele>10</ele>
      </rtept>
      <rtept lat="33.445249" lon="126.299471">
         <ele>10</ele>
      </rtept>
      <rtept lat="33.444785" lon="126.299504">
         <ele>10</ele>
      </rtept>
      <rtept lat="33.444366" lon="126.299504">
         <ele>10</ele>
      </rtept>
      <rtept lat="33.444396" lon="126.300384">
         <ele>10</ele>
      </rtept>
      <rtept lat="33.444428" lon="126.300626">
         <ele>10</ele>
      </rtept>
      <rtept lat="33.44454" lon="126.300611">
         <ele>10</ele>
      </rtept>
      <rtept lat="33.445037" lon="126.300688">
         <ele>10</ele>
      </rtept>
      <rtept lat="33.44514" lon="126.300683">
         <ele>10</ele>
      </rtept>
      <rtept lat="33.445325" lon="126.300574">
         <ele>10</ele>
      </rtept>
      <rtept lat="33.445697" lon="126.300456">
         <ele>10</ele>
      </rtept>
      <rtept lat="33.445934" lon="126.300333">
         <ele>10</ele>
      </rtept>
      <rtept lat="33.446124" lon="126.300307">
         <ele>10</ele>
      </rtept>
      <rtept lat="33.446242" lon="126.300234">
         <ele>10</ele>
      </rtept>
      <rtept lat="33.446512" lon="126.300136">
         <ele>10</ele>
      </rtept>
      <rtept lat="33.446646" lon="126.300117">
         <ele>10</ele>
      </rtept>
      <rtept lat="33.446967" lon="126.300115">
         <ele>10</ele>
      </rtept>
      <rtept lat="33.44703" lon="126.300089">
         <ele>10</ele>
      </rtept>
      <rtept lat="33.447189" lon="126.29993">
         <ele>10</ele>
      </rtept>
      <rtept lat="33.447229" lon="126.29989">
         <ele>10</ele>
      </rtept>
      <rtept lat="33.447654" lon="126.300334">
         <ele>10</ele>
      </rtept>
      <rtept lat="33.447672" lon="126.300549">
         <ele>10</ele>
      </rtept>
      <rtept lat="33.447697" lon="126.300641">
         <ele>10</ele>
      </rtept>
      <rtept lat="33.447773" lon="126.300767">
         <ele>10</ele>
      </rtept>
      <rtept lat="33.447871" lon="126.300833">
         <ele>10</ele>
      </rtept>
      <rtept lat="33.447908" lon="126.300879">
         <ele>10</ele>
      </rtept>
      <rtept lat="33.448224" lon="126.300927">
         <ele>10</ele>
      </rtept>
      <rtept lat="33.448427" lon="126.301207">
         <ele>10</ele>
      </rtept>
      <rtept lat="33.448405" lon="126.301302">
         <ele>10</ele>
      </rtept>
      <rtept lat="33.448432" lon="126.301458">
         <ele>10</ele>
      </rtept>
      <rtept lat="33.448492" lon="126.301797">
         <ele>10</ele>
      </rtept>
      <rtept lat="33.448602" lon="126.302104">
         <ele>10</ele>
      </rtept>
      <rtept lat="33.448468" lon="126.302216">
         <ele>10</ele>
      </rtept>
      <rtept lat="33.448437" lon="126.302361">
         <ele>10</ele>
      </rtept>
      <rtept lat="33.4484" lon="126.302435">
         <ele>10</ele>
      </rtept>
      <rtept lat="33.448146" lon="126.302632">
         <ele>10</ele>
      </rtept>
      <rtept lat="33.448098" lon="126.302718">
         <ele>10</ele>
      </rtept>
      <rtept lat="33.448066" lon="126.302811">
         <ele>10</ele>
      </rtept>
      <rtept lat="33.447958" lon="126.303375">
         <ele>10</ele>
      </rtept>
      <rtept lat="33.447927" lon="126.303457">
         <ele>10</ele>
      </rtept>
      <rtept lat="33.447833" lon="126.303591">
         <ele>10</ele>
      </rtept>
      <rtept lat="33.447739" lon="126.303779">
         <ele>10</ele>
      </rtept>
      <rtept lat="33.447656" lon="126.30427">
         <ele>10</ele>
      </rtept>
      <rtept lat="33.44769" lon="126.304423">
         <ele>10</ele>
      </rtept>
      <rtept lat="33.449147" lon="126.30386">
         <ele>10</ele>
      </rtept>
      <rtept lat="33.44921" lon="126.303887">
         <ele>10</ele>
      </rtept>
      <rtept lat="33.449565" lon="126.304311">
         <ele>10</ele>
      </rtept>
      <rtept lat="33.449586" lon="126.304367">
         <ele>10</ele>
      </rtept>
      <rtept lat="33.449561" lon="126.304426">
         <ele>10</ele>
      </rtept>
      <rtept lat="33.449381" lon="126.304678">
         <ele>10</ele>
      </rtept>
      <rtept lat="33.449585" lon="126.304915">
         <ele>10</ele>
      </rtept>
      <rtept lat="33.449415" lon="126.305546">
         <ele>10</ele>
      </rtept>
      <rtept lat="33.449792" lon="126.305715">
         <ele>10</ele>
      </rtept>
      <rtept lat="33.450037" lon="126.305859">
         <ele>10</ele>
      </rtept>
      <rtept lat="33.450699" lon="126.306398">
         <ele>10</ele>
      </rtept>
      <rtept lat="33.451079" lon="126.30682">
         <ele>10</ele>
      </rtept>
      <rtept lat="33.451198" lon="126.306897">
         <ele>10</ele>
      </rtept>
      <rtept lat="33.4513" lon="126.30693">
         <ele>10</ele>
      </rtept>
      <rtept lat="33.451808" lon="126.306965">
         <ele>10</ele>
      </rtept>
      <rtept lat="33.452847" lon="126.306569">
         <ele>10</ele>
      </rtept>
      <rtept lat="33.45371" lon="126.30641">
         <ele>10</ele>
      </rtept>
      <rtept lat="33.453973" lon="126.306409">
         <ele>10</ele>
      </rtept>
      <rtept lat="33.454024" lon="126.306411">
         <ele>10</ele>
      </rtept>
      <rtept lat="33.454016" lon="126.30651">
         <ele>10</ele>
      </rtept>
      <rtept lat="33.454089" lon="126.306562">
         <ele>10</ele>
      </rtept>
      <rtept lat="33.454183" lon="126.306827">
         <ele>10</ele>
      </rtept>
      <rtept lat="33.454309" lon="126.30706">
         <ele>10</ele>
      </rtept>
      <rtept lat="33.454471" lon="126.307257">
         <ele>10</ele>
      </rtept>
      <rtept lat="33.454598" lon="126.307385">
         <ele>10</ele>
      </rtept>
      <rtept lat="33.455037" lon="126.307683">
         <ele>10</ele>
      </rtept>
      <rtept lat="33.455092" lon="126.307752">
         <ele>10</ele>
      </rtept>
      <rtept lat="33.455157" lon="126.307887">
         <ele>10</ele>
      </rtept>
      <rtept lat="33.455227" lon="126.307976">
         <ele>10</ele>
      </rtept>
      <rtept lat="33.455401" lon="126.30807">
         <ele>10</ele>
      </rtept>
      <rtept lat="33.455493" lon="126.308084">
         <ele>10</ele>
      </rtept>
      <rtept lat="33.455589" lon="126.30816">
         <ele>10</ele>
      </rtept>
      <rtept lat="33.455727" lon="126.3084">
         <ele>10</ele>
      </rtept>
      <rtept lat="33.45593" lon="126.308412">
         <ele>10</ele>
      </rtept>
      <rtept lat="33.456056" lon="126.308452">
         <ele>10</ele>
      </rtept>
      <rtept lat="33.45616" lon="126.308531">
         <ele>10</ele>
      </rtept>
      <rtept lat="33.456267" lon="126.308587">
         <ele>10</ele>
      </rtept>
      <rtept lat="33.456503" lon="126.308635">
         <ele>10</ele>
      </rtept>
      <rtept lat="33.456578" lon="126.308628">
         <ele>10</ele>
      </rtept>
      <rtept lat="33.456648" lon="126.308588">
         <ele>10</ele>
      </rtept>
      <rtept lat="33.456849" lon="126.308412">
         <ele>10</ele>
      </rtept>
      <rtept lat="33.456968" lon="126.308341">
         <ele>10</ele>
      </rtept>
      <rtept lat="33.457091" lon="126.308316">
         <ele>10</ele>
      </rtept>
      <rtept lat="33.457176" lon="126.308331">
         <ele>10</ele>
      </rtept>
      <rtept lat="33.457239" lon="126.308421">
         <ele>10</ele>
      </rtept>
      <rtept lat="33.457357" lon="126.308505">
         <ele>10</ele>
      </rtept>
      <rtept lat="33.457406" lon="126.308694">
         <ele>10</ele>
      </rtept>
      <rtept lat="33.457533" lon="126.30881">
         <ele>10</ele>
      </rtept>
      <rtept lat="33.457573" lon="126.308895">
         <ele>10</ele>
      </rtept>
      <rtept lat="33.457635" lon="126.308954">
         <ele>10</ele>
      </rtept>
      <rtept lat="33.457783" lon="126.30893">
         <ele>10</ele>
      </rtept>
      <rtept lat="33.458051" lon="126.308825">
         <ele>10</ele>
      </rtept>
      <rtept lat="33.45823" lon="126.30882">
         <ele>10</ele>
      </rtept>
      <rtept lat="33.458318" lon="126.308882">
         <ele>10</ele>
      </rtept>
      <rtept lat="33.4584" lon="126.30915">
         <ele>10</ele>
      </rtept>
      <rtept lat="33.458384" lon="126.309296">
         <ele>10</ele>
      </rtept>
      <rtept lat="33.458428" lon="126.309418">
         <ele>10</ele>
      </rtept>
      <rtept lat="33.458591" lon="126.309633">
         <ele>10</ele>
      </rtept>
      <rtept lat="33.458821" lon="126.309787">
         <ele>10</ele>
      </rtept>
      <rtept lat="33.459031" lon="126.310129">
         <ele>10</ele>
      </rtept>
      <rtept lat="33.459015" lon="126.310274">
         <ele>10</ele>
      </rtept>
      <rtept lat="33.45923" lon="126.310443">
         <ele>10</ele>
      </rtept>
      <rtept lat="33.459304" lon="126.310591">
         <ele>10.06126</ele>
      </rtept>
      <rtept lat="33.459494" lon="126.310569">
         <ele>10</ele>
      </rtept>
      <rtept lat="33.459733" lon="126.310583">
         <ele>10</ele>
      </rtept>
      <rtept lat="33.459794" lon="126.310516">
         <ele>10</ele>
      </rtept>
      <rtept lat="33.459868" lon="126.310524">
         <ele>10</ele>
      </rtept>
      <rtept lat="33.460119" lon="126.310664">
         <ele>10</ele>
      </rtept>
      <rtept lat="33.460446" lon="126.310597">
         <ele>10</ele>
      </rtept>
      <rtept lat="33.460737" lon="126.310436">
         <ele>10</ele>
      </rtept>
      <rtept lat="33.460974" lon="126.310391">
         <ele>10</ele>
      </rtept>
      <rtept lat="33.461558" lon="126.31067">
         <ele>10</ele>
      </rtept>
      <rtept lat="33.461949" lon="126.310646">
         <ele>10</ele>
      </rtept>
      <rtept lat="33.462188" lon="126.310512">
         <ele>10</ele>
      </rtept>
      <rtept lat="33.462179" lon="126.310493">
         <ele>10</ele>
      </rtept>
      <rtept lat="33.462244" lon="126.31041">
         <ele>10</ele>
      </rtept>
      <rtept lat="33.462304" lon="126.310333">
         <ele>10</ele>
      </rtept>
      <rtept lat="33.462364" lon="126.310166">
         <ele>10</ele>
      </rtept>
      <rtept lat="33.462467" lon="126.309786">
         <ele>10</ele>
      </rtept>
      <rtept lat="33.462562" lon="126.309708">
         <ele>10</ele>
      </rtept>
      <rtept lat="33.462584" lon="126.309425">
         <ele>10</ele>
      </rtept>
      <rtept lat="33.46265" lon="126.309216">
         <ele>10</ele>
      </rtept>
      <rtept lat="33.462618" lon="126.309114">
         <ele>10</ele>
      </rtept>
      <rtept lat="33.46262" lon="126.309055">
         <ele>10</ele>
      </rtept>
      <rtept lat="33.462754" lon="126.308954">
         <ele>10</ele>
      </rtept>
      <rtept lat="33.462915" lon="126.308728">
         <ele>10</ele>
      </rtept>
      <rtept lat="33.462989" lon="126.308683">
         <ele>10</ele>
      </rtept>
      <rtept lat="33.463215" lon="126.308722">
         <ele>10</ele>
      </rtept>
      <rtept lat="33.463542" lon="126.308903">
         <ele>10</ele>
      </rtept>
      <rtept lat="33.463688" lon="126.308913">
         <ele>10</ele>
      </rtept>
      <rtept lat="33.464054" lon="126.308807">
         <ele>10</ele>
      </rtept>
      <rtept lat="33.464143" lon="126.308805">
         <ele>10</ele>
      </rtept>
      <rtept lat="33.464239" lon="126.30886">
         <ele>10</ele>
      </rtept>
      <rtept lat="33.464582" lon="126.308862">
         <ele>10</ele>
      </rtept>
      <rtept lat="33.464755" lon="126.309017">
         <ele>10</ele>
      </rtept>
      <rtept lat="33.464824" lon="126.309238">
         <ele>10</ele>
      </rtept>
      <rtept lat="33.465002" lon="126.309275">
         <ele>10</ele>
      </rtept>
      <rtept lat="33.465094" lon="126.309415">
         <ele>10</ele>
      </rtept>
      <rtept lat="33.465316" lon="126.309872">
         <ele>10</ele>
      </rtept>
      <rtept lat="33.465358" lon="126.310322">
         <ele>10</ele>
      </rtept>
      <rtept lat="33.465436" lon="126.310482">
         <ele>10</ele>
      </rtept>
      <rtept lat="33.46545" lon="126.310651">
         <ele>10</ele>
      </rtept>
      <rtept lat="33.46566" lon="126.31095">
         <ele>10</ele>
      </rtept>
      <rtept lat="33.465684" lon="126.311017">
         <ele>10</ele>
      </rtept>
      <rtept lat="33.465587" lon="126.311241">
         <ele>10</ele>
      </rtept>
      <rtept lat="33.465565" lon="126.311899">
         <ele>10</ele>
      </rtept>
      <rtept lat="33.465594" lon="126.311974">
         <ele>10</ele>
      </rtept>
      <rtept lat="33.465535" lon="126.312108">
         <ele>10</ele>
      </rtept>
      <rtept lat="33.465345" lon="126.312235">
         <ele>10</ele>
      </rtept>
      <rtept lat="33.465289" lon="126.312377">
         <ele>10</ele>
      </rtept>
      <rtept lat="33.465175" lon="126.312525">
         <ele>10</ele>
      </rtept>
      <rtept lat="33.465248" lon="126.312737">
         <ele>10</ele>
      </rtept>
      <rtept lat="33.46539" lon="126.31285">
         <ele>10</ele>
      </rtept>
      <rtept lat="33.465392" lon="126.31292">
         <ele>10</ele>
      </rtept>
      <rtept lat="33.465316" lon="126.313111">
         <ele>10</ele>
      </rtept>
      <rtept lat="33.465284" lon="126.313338">
         <ele>10</ele>
      </rtept>
      <rtept lat="33.46525" lon="126.31337">
         <ele>10</ele>
      </rtept>
      <rtept lat="33.46503" lon="126.313386">
         <ele>10</ele>
      </rtept>
      <rtept lat="33.464867" lon="126.31363">
         <ele>10</ele>
      </rtept>
      <rtept lat="33.464816" lon="126.313829">
         <ele>10</ele>
      </rtept>
      <rtept lat="33.464681" lon="126.313987">
         <ele>10</ele>
      </rtept>
      <rtept lat="33.464508" lon="126.314544">
         <ele>10</ele>
      </rtept>
      <rtept lat="33.464413" lon="126.314699">
         <ele>10</ele>
      </rtept>
      <rtept lat="33.463986" lon="126.315014">
         <ele>10</ele>
      </rtept>
      <rtept lat="33.464533" lon="126.316772">
         <ele>10</ele>
      </rtept>
      <rtept lat="33.464759" lon="126.316698">
         <ele>10</ele>
      </rtept>
      <rtept lat="33.465381" lon="126.316556">
         <ele>10</ele>
      </rtept>
      <rtept lat="33.465717" lon="126.316496">
         <ele>10</ele>
      </rtept>
      <rtept lat="33.466054" lon="126.316476">
         <ele>10</ele>
      </rtept>
      <rtept lat="33.466123" lon="126.316492">
         <ele>10</ele>
      </rtept>
      <rtept lat="33.466188" lon="126.316559">
         <ele>10</ele>
      </rtept>
      <rtept lat="33.466225" lon="126.316618">
         <ele>10</ele>
      </rtept>
      <rtept lat="33.466302" lon="126.316896">
         <ele>10</ele>
      </rtept>
      <rtept lat="33.466462" lon="126.317549">
         <ele>10</ele>
      </rtept>
      <rtept lat="33.466732" lon="126.318532">
         <ele>10</ele>
      </rtept>
      <rtept lat="33.466966" lon="126.319273">
         <ele>10</ele>
      </rtept>
      <rtept lat="33.467075" lon="126.319502">
         <ele>10</ele>
      </rtept>
      <rtept lat="33.467289" lon="126.32068">
         <ele>10</ele>
      </rtept>
      <rtept lat="33.467248" lon="126.320839">
         <ele>10</ele>
      </rtept>
      <rtept lat="33.467138" lon="126.321003">
         <ele>10</ele>
      </rtept>
      <rtept lat="33.466422" lon="126.321947">
         <ele>10</ele>
      </rtept>
      <rtept lat="33.466248" lon="126.322287">
         <ele>10</ele>
      </rtept>
      <rtept lat="33.466151" lon="126.322606">
         <ele>10</ele>
      </rtept>
      <rtept lat="33.466087" lon="126.32296">
         <ele>10</ele>
      </rtept>
      <rtept lat="33.466078" lon="126.323178">
         <ele>10</ele>
      </rtept>
      <rtept lat="33.466099" lon="126.32342">
         <ele>10</ele>
      </rtept>
      <rtept lat="33.466233" lon="126.324279">
         <ele>10</ele>
      </rtept>
      <rtept lat="33.466233" lon="126.324742">
         <ele>10</ele>
      </rtept>
      <rtept lat="33.466058" lon="126.32661">
         <ele>10</ele>
      </rtept>
      <rtept lat="33.466024" lon="126.327123">
         <ele>10</ele>
      </rtept>
      <rtept lat="33.466024" lon="126.32746">
         <ele>10</ele>
      </rtept>
      <rtept lat="33.466066" lon="126.327729">
         <ele>10</ele>
      </rtept>
      <rtept lat="33.466148" lon="126.327929">
         <ele>10</ele>
      </rtept>
      <rtept lat="33.46622" lon="126.328022">
         <ele>10</ele>
      </rtept>
      <rtept lat="33.467412" lon="126.328727">
         <ele>10</ele>
      </rtept>
      <rtept lat="33.467536" lon="126.328828">
         <ele>10</ele>
      </rtept>
      <rtept lat="33.46766" lon="126.328974">
         <ele>10</ele>
      </rtept>
      <rtept lat="33.467764" lon="126.329162">
         <ele>10</ele>
      </rtept>
      <rtept lat="33.467849" lon="126.329389">
         <ele>10</ele>
      </rtept>
      <rtept lat="33.467882" lon="126.329535">
         <ele>10</ele>
      </rtept>
      <rtept lat="33.467897" lon="126.329738">
         <ele>10</ele>
      </rtept>
      <rtept lat="33.46788" lon="126.330015">
         <ele>10</ele>
      </rtept>
      <rtept lat="33.46774" lon="126.331492">
         <ele>10</ele>
      </rtept>
      <rtept lat="33.467682" lon="126.331751">
         <ele>10</ele>
      </rtept>
      <rtept lat="33.46743" lon="126.332361">
         <ele>10</ele>
      </rtept>
      <rtept lat="33.466905" lon="126.333157">
         <ele>10</ele>
      </rtept>
      <rtept lat="33.466862" lon="126.333266">
         <ele>10</ele>
      </rtept>
      <rtept lat="33.466788" lon="126.333456">
         <ele>10</ele>
      </rtept>
      <rtept lat="33.466483" lon="126.334581">
         <ele>10</ele>
      </rtept>
      <rtept lat="33.466437" lon="126.335109">
         <ele>10</ele>
      </rtept>
      <rtept lat="33.466508" lon="126.335408">
         <ele>10</ele>
      </rtept>
      <rtept lat="33.466671" lon="126.33567">
         <ele>10</ele>
      </rtept>
      <rtept lat="33.466866" lon="126.335866">
         <ele>10</ele>
      </rtept>
      <rtept lat="33.467037" lon="126.33609">
         <ele>10</ele>
      </rtept>
      <rtept lat="33.46717" lon="126.336295">
         <ele>10</ele>
      </rtept>
      <rtept lat="33.46724" lon="126.336566">
         <ele>10</ele>
      </rtept>
      <rtept lat="33.467232" lon="126.336772">
         <ele>10</ele>
      </rtept>
      <rtept lat="33.467154" lon="126.337136">
         <ele>10</ele>
      </rtept>
      <rtept lat="33.467076" lon="126.337472">
         <ele>10</ele>
      </rtept>
      <rtept lat="33.466975" lon="126.337696">
         <ele>10</ele>
      </rtept>
      <rtept lat="33.46695" lon="126.337904">
         <ele>10</ele>
      </rtept>
      <rtept lat="33.466944" lon="126.338098">
         <ele>10</ele>
      </rtept>
      <rtept lat="33.466955" lon="126.338144">
         <ele>10</ele>
      </rtept>
   </rte>
</gpx>