<?xml version="1.0" encoding="utf-8"?>
<kml xmlns:gx="http://www.google.com/kml/ext/2.2" xmlns="http://www.opengis.net/kml/2.2">
  <Document>
    <Style id="base_track_style">
      <LineStyle>
        <color>7f00ffff</color>
        <width>4</width>
      </LineStyle>
    </Style>
    <Folder><Placemark>
  <styleUrl>#base_track_style</styleUrl>
  <name>route</name>
  <MultiGeometry>
    <LineString>
      <coordinates>126.16673,33.323556,0
126.167024,33.323622,0
126.167024,33.323672,0
126.166849,33.323879,0
126.166802,33.323981,0
126.166784,33.324085,0
126.166907,33.324174,0
126.166971,33.324223,0
126.167013,33.324157,0
126.167018,33.323989,0
126.167111,33.323852,0
126.167618,33.323964,0
126.167904,33.323989,0
126.16801,33.323995,0
126.168116,33.324001,0
126.168181,33.324005,0
126.168186,33.323956,0
126.168249,33.32349,0
126.168281,33.323375,0
126.16847,33.323117,0
126.168541,33.322979,0
126.168624,33.322749,0
126.16873,33.322366,0
126.168781,33.322165,0
126.168897,33.322164,0
126.169108,33.322245,0
126.169723,33.322475,0
126.170275,33.322652,10
126.170303,33.322619,10
126.170661,33.32285,10
126.171017,33.323181,10
126.171137,33.323265,10
126.171426,33.323371,10
126.171948,33.323525,10
126.172114,33.324044,10
126.172147,33.324063,10
126.173032,33.324127,10
126.173471,33.324159,10
126.173959,33.324252,10
126.174869,33.324427,10
126.175048,33.324447,10
126.175233,33.324331,10
126.175452,33.324223,10
126.175471,33.324214,10
126.175567,33.324232,10
126.175868,33.324446,10
126.175974,33.324491,10
126.176016,33.324472,10
126.176054,33.324438,10
126.176143,33.32429,10
126.176346,33.32388,10
126.176331,33.323795,10
126.176377,33.323709,10
126.176446,33.323642,10
126.176641,33.323546,10
126.176694,33.323508,0
126.17666,33.323391,0
126.176682,33.323317,0
126.176808,33.323245,0
126.176828,33.323182,0
126.176813,33.322882,0
126.176888,33.322609,0
126.176867,33.322507,0
126.176732,33.322291,0
126.176715,33.322218,0
126.176743,33.322107,0
126.176729,33.321951,0
126.176778,33.321818,0
126.176781,33.321709,0
126.176698,33.321524,0
126.177006,33.321437,0
126.177105,33.321356,0
126.17742,33.321022,0
126.178133,33.320415,0
126.178543,33.320391,0
126.17865,33.320333,0
126.178912,33.320236,0
126.179117,33.320161,0
126.179603,33.320028,0
126.180058,33.319918,0
126.180882,33.319748,0
126.18133,33.319499,0
126.181449,33.319412,0
126.181622,33.319025,0
126.181789,33.31874,0
126.182065,33.318444,0
126.182439,33.318162,0
126.183432,33.317843,20
126.184012,33.317639,20
126.184251,33.317612,20
126.184495,33.317667,20
126.184723,33.317656,20
126.185565,33.317514,20
126.185878,33.317507,20
126.18592,33.317471,20
126.186313,33.317463,20
126.186364,33.318723,20
126.186275,33.319031,20
126.18606,33.319266,20
126.185976,33.319543,20
126.186,33.319781,20
126.186215,33.319809,20
126.186364,33.319828,0
126.186607,33.319988,0
126.186836,33.320015,0
126.18796,33.320045,0
126.187954,33.319975,0
126.188078,33.31971,0
126.188182,33.31963,0
126.18825,33.319485,0
126.188408,33.319356,0
126.188627,33.319266,0
126.188889,33.319091,0
126.189126,33.318957,0
126.189272,33.318976,0
126.189472,33.319055,0
126.18961,33.319133,0
126.189993,33.319247,0
126.190055,33.319469,0
126.19017,33.319685,0
126.190214,33.319805,0
126.190405,33.320053,0
126.190515,33.320294,30
126.190673,33.320408,30
126.19089,33.320637,30
126.191041,33.320842,30
126.191047,33.321084,30
126.191157,33.321253,30
126.191182,33.321316,30
126.191133,33.321583,30
126.191523,33.321691,30
126.191799,33.321641,30
126.191927,33.321857,30
126.192057,33.321961,30
126.192203,33.322114,30
126.192259,33.322304,30
126.192539,33.322381,30
126.192502,33.322609,30
126.192683,33.322575,30
126.19292,33.322638,30
126.193165,33.322813,30
126.19326,33.322933,30
126.193415,33.322913,30
126.193617,33.322913,30
126.193825,33.322852,30
126.193805,33.323073,30
126.193977,33.323311,30
126.194014,33.323598,30
126.194459,33.324153,30
126.194625,33.324389,30
126.194536,33.324616,30
126.194524,33.3249,30
126.194871,33.325013,30
126.195032,33.325022,30
126.195284,33.325008,30
126.195547,33.325062,30
126.195757,33.325278,30
126.195954,33.32541,30
126.196185,33.325665,30
126.196368,33.325718,30
126.196755,33.32576,0
126.196909,33.325891,0
126.197229,33.326236,0
126.1973,33.326285,0
126.197402,33.326278,0
126.197691,33.326206,40
126.198048,33.326161,40
126.198244,33.326177,40
126.19849,33.326173,40
126.19863,33.326105,40
126.198676,33.325986,40
126.198695,33.325871,40
126.198763,33.325824,40
126.198894,33.32581,40
126.19902,33.325853,40
126.199388,33.32591,40
126.199463,33.325946,40
126.199442,33.326085,40
126.199448,33.326174,40
126.199506,33.326228,40
126.199786,33.326286,40
126.199956,33.326371,40
126.200229,33.326075,40
126.200687,33.325759,40
126.201148,33.325901,40
126.201462,33.325864,40
126.202447,33.326041,40
126.202901,33.326187,40
126.203243,33.326201,40
126.203713,33.326255,40
126.203872,33.326011,40
126.203991,33.325983,40
126.20413,33.326017,40
126.204247,33.326106,40
126.204442,33.326173,40
126.204812,33.326214,40
126.20482,33.326506,40
126.204786,33.32663,40
126.204749,33.326688,40
126.204674,33.326824,0
126.204855,33.326867,0
126.204788,33.32696,0
126.205193,33.327147,0
126.205501,33.327432,0
126.205646,33.327471,0
126.205717,33.327604,0
126.205712,33.327737,0
126.205955,33.328236,0
126.206011,33.328425,0
126.206179,33.328599,0
126.206198,33.328755,0
126.206282,33.328868,0
126.206505,33.328965,0
126.206738,33.328934,0
126.206875,33.328969,0
126.206931,33.329063,0
126.207075,33.32916,0
126.207537,33.329301,0
126.20807,33.329285,0
126.208163,33.329364,0
126.208378,33.329387,0
126.208557,33.329275,0
126.208695,33.329106,0
126.208711,33.328995,0
126.209026,33.328945,0
126.209042,33.329052,0
126.209214,33.329042,0
126.209463,33.329055,0
126.209633,33.329018,0
126.210229,33.328994,0
126.210501,33.328856,0
126.210762,33.328655,0
126.210912,33.328444,0
126.211309,33.328347,50
126.211473,33.328378,50
126.211632,33.32844,50
126.211734,33.328518,50
126.212,33.328585,50
126.212267,33.328674,50
126.212332,33.328768,50
126.212566,33.328979,50
126.212743,33.329002,50
126.212916,33.328971,50
126.213051,33.328987,50
126.213173,33.329049,50
126.213266,33.32917,50
126.213319,33.32928,50
126.213321,33.329389,50
126.213286,33.329674,50
126.213386,33.32974,50
126.213473,33.329762,50
126.213783,33.329744,50
126.213902,33.329764,50
126.214019,33.329848,50
126.214366,33.329695,50
126.215747,33.329172,50
126.216535,33.328882,50
126.216881,33.328784,50
126.217045,33.328897,50
126.217362,33.329036,50
126.217575,33.329189,50
126.217805,33.329287,50
126.218077,33.329316,50
126.218413,33.329314,50
126.218526,33.329298,50
126.218643,33.329282,0
126.218797,33.329202,0
126.219041,33.329002,0
126.218702,33.328715,0
126.218761,33.328629,0
126.218781,33.328553,0
126.218903,33.328511,0
126.219037,33.328505,0
126.219334,33.328391,0
126.21941,33.328348,0
126.219545,33.32823,0
126.219643,33.328212,0
126.219695,33.32813,0
126.219724,33.32798,0
126.219712,33.327767,0
126.220532,33.327372,0
126.220689,33.327508,0
126.220797,33.32763,0
126.220988,33.327641,0
126.221165,33.327697,0
126.221339,33.327798,0
126.221368,33.32767,0
126.221409,33.327584,0
126.22168,33.327738,0
126.221714,33.327827,0
126.222222,33.327917,0
126.222561,33.32802,60
126.222974,33.328098,60
126.223202,33.328015,60
126.223362,33.327845,60
126.223735,33.327306,60
126.223827,33.327382,60
126.223883,33.327399,60
126.224078,33.327249,60
126.224156,33.327464,60
126.224082,33.327551,60
126.2241,33.327639,60
126.224265,33.32777,60
126.224328,33.327758,60
126.224372,33.327724,60
126.224442,33.327671,0
126.224516,33.32764,0
126.224613,33.327653,0
126.224851,33.327571,0
126.224878,33.327782,0
126.224956,33.328007,0
126.224989,33.328101,0
126.225125,33.328322,0
126.225289,33.328508,0
126.225353,33.32858,0
126.225704,33.327717,0
126.22583,33.327728,0
126.226133,33.327753,0
126.226836,33.327711,0
126.226867,33.327824,0
126.227079,33.327922,0
126.227215,33.327926,0
126.227399,33.3279,0
126.227485,33.327852,0
126.227546,33.32775,0
126.227556,33.327621,0
126.22743,33.327403,0
126.227427,33.327352,0
126.227537,33.327284,0
126.227705,33.327413,0
126.227736,33.327489,0
126.227801,33.327575,0
126.227939,33.327643,0
126.22809,33.327694,0
126.22821,33.327635,0
126.228298,33.32754,0
126.22849,33.32753,0
126.228599,33.327415,0
126.228658,33.327422,0
126.228754,33.327619,0
126.228791,33.327633,0
126.228859,33.327619,70
126.22894,33.32754,70
126.22908,33.327485,70
126.229169,33.327417,70
126.229431,33.327385,70
126.229452,33.327257,70
126.229454,33.327065,70
126.229473,33.327019,70
126.229414,33.326886,70
126.229358,33.326825,70
126.229167,33.326792,70
126.229125,33.326767,70
126.229144,33.326638,70
126.229139,33.326515,70
126.229113,33.32639,70
126.229017,33.326326,70
126.228887,33.326326,70
126.228852,33.326236,70
126.228954,33.32609,70
126.229041,33.325784,70
126.229068,33.325609,70
126.228885,33.3253,70
126.228836,33.325185,70
126.229,33.32509,70
126.22923,33.325049,70
126.229506,33.325031,70
126.230133,33.324888,70
126.230362,33.324851,70
126.23101,33.32491,70
126.231311,33.32491,70
126.231714,33.324874,70
126.231923,33.324874,70
126.232048,33.32478,70
126.232235,33.324733,70
126.232413,33.32466,70
126.232666,33.324733,70
126.233052,33.324774,70
126.233227,33.324818,70
126.233559,33.324934,70
126.234284,33.325091,80
126.234497,33.325117,80
126.234701,33.325184,80
126.234851,33.325276,80
126.235015,33.325467,80
126.235448,33.325733,80
126.235571,33.325837,80
126.235721,33.325931,80
126.235779,33.326027,80
126.235938,33.326144,90
126.235994,33.326161,90
126.236422,33.326306,90
126.237027,33.326707,90
126.237191,33.32688,90
126.237183,33.326968,90
126.23723,33.327277,90
126.237225,33.327433,90
126.237267,33.327683,90
126.237239,33.327878,90
126.237398,33.328213,90
126.237377,33.328471,90
126.237384,33.328866,90
126.237532,33.329174,90
126.237586,33.329357,90
126.237897,33.329682,90
126.237936,33.329786,90
126.238001,33.329959,0
126.23783,33.330123,0
126.237829,33.330451,0
126.238103,33.330974,0
126.238117,33.331008,0
126.238434,33.331276,100
126.238467,33.331429,100
126.238452,33.331578,100
126.238438,33.331714,100
126.238516,33.331837,100
126.23891,33.331962,100
126.238923,33.332093,100
126.239004,33.332326,100
126.239032,33.332482,100
126.238976,33.332661,100
126.238943,33.33271,100
126.238764,33.332754,100
126.238646,33.332835,100
126.238467,33.333015,100
126.238422,33.333093,100
126.238291,33.333047,100
126.237975,33.332937,90
126.237886,33.332965,90
126.237849,33.333046,90
126.237621,33.333321,90
126.237502,33.333353,90
126.237591,33.333481,90
126.237733,33.333816,90
126.23785,33.333943,90
126.237931,33.333996,90
126.238107,33.33419,90
126.238327,33.33436,90
126.238968,33.33467,90
126.239042,33.334741,90
126.239223,33.335002,90
126.239373,33.335432,90
126.239443,33.335519,90
126.239628,33.335615,90
126.23975,33.335721,90
126.239799,33.335802,90
126.23984,33.335945,90
126.239944,33.336121,90
126.240009,33.336286,90.31414
126.240043,33.336507,90
126.240106,33.336515,91.50573
126.24048,33.33659,91.03161
126.240767,33.336726,93.06815
126.24089,33.336752,94.37746
126.241449,33.336714,101.7432
126.241591,33.3366,104.5342
126.241643,33.336501,106.2086
126.241766,33.336014,112.1717
126.241893,33.335904,114.3163
126.242145,33.335814,117.6697
126.242501,33.335767,120
126.242721,33.335708,120
126.242972,33.335678,120
126.243136,33.335755,120
126.243308,33.335748,120
126.243454,33.335689,120
126.243673,33.335638,125.1845
126.243934,33.335619,130
126.244543,33.335619,130
126.244616,33.335619,130
126.244998,33.335428,130
126.245433,33.33524,140
126.245642,33.335106,140
126.245869,33.335082,140
126.246038,33.335014,140
126.2463,33.334837,140
126.246476,33.334795,140
126.246478,33.335036,140
126.246503,33.335209,140
126.246496,33.335335,140
126.246894,33.336101,140
126.247056,33.336238,139.5051
126.24721,33.336323,139.7338
126.247445,33.336366,139.2744
126.247414,33.336095,142.484
126.247692,33.335869,145.4526
126.247864,33.335648,148.466
126.247882,33.335591,149.2036
126.247938,33.335421,150
126.247981,33.335158,153.9126
126.248098,33.334978,155.5394
126.248511,33.334924,161.1809
126.249078,33.334316,175.128
126.249723,33.333809,195.5512
126.249807,33.33374,197.8848
126.250311,33.333951,203.0163
126.250872,33.33406,207.7027
126.25118,33.33408,210
126.251918,33.333846,210
126.252188,33.333502,205.8885
126.252315,33.333233,200
126.252282,33.332816,196.4035
126.252109,33.332457,196.6925
126.251763,33.332191,196.9045
126.251203,33.332012,197.8752
126.250568,33.332008,196.8116
126.250241,33.332176,195.2485
126.249866,33.332458,192.8719
126.249597,33.332851,191.7624
126.249597,33.33319,193.7516
126.249709,33.333498,196.4896
126.249801,33.333747,197.7054
126.249078,33.334316,175.128
126.249014,33.33419,174.3515
126.248683,33.333539,165.4853
126.248659,33.332499,158.5701
126.24885,33.332128,158.8925
126.249203,33.331915,164.1277
126.249804,33.331493,166.7551
126.250469,33.331355,173.2377
126.250941,33.331386,179.4809
126.251757,33.331592,187.8498
126.252121,33.331727,189.3333
126.252379,33.331345,170.3257
126.253141,33.331561,162.8584
126.253296,33.331543,158.3387
126.25372,33.331543,147.7138
126.253916,33.331435,141.29
126.254099,33.33125,136.5713
126.254217,33.33097,132.334
126.254317,33.330895,130.4104
126.254348,33.330872,130.1765
126.254578,33.330867,131.8523
126.254872,33.331026,130
126.254921,33.331095,130
126.255045,33.331469,130
126.255223,33.331437,130
126.255861,33.331259,130
126.25624,33.331921,130
126.256286,33.33218,130
126.256354,33.332926,120
</coordinates>
    </LineString>
  </MultiGeometry>
</Placemark></Folder>
  </Document>
</kml>