<?xml version="1.0" encoding="utf-8"?>
<gpx version="1.1" creator="Movescount - http://www.movescount.com" xmlns:xsi="http://www.w3.org/2001/XMLSchema-instance" xsi:schemaLocation="http://www.topografix.com/GPX/1/1 http://www.topografix.com/GPX/1/1/gpx.xsd http://www.cluetrust.com/XML/GPXDATA/1/0 http://www.cluetrust.com/Schemas/gpxdata10.xsd http://www.garmin.com/xmlschemas/TrackPointExtension/v1 http://www.garmin.com/xmlschemas/TrackPointExtensionv1.xsd" xmlns:gpxdata="http://www.cluetrust.com/XML/GPXDATA/1/0" xmlns:gpxtpx="http://www.garmin.com/xmlschemas/TrackPointExtension/v1" xmlns="http://www.topografix.com/GPX/1/1">
   <rte>
      <name>jeju ollegil 4</name>
      <rtept lat="33.325541" lon="126.842505" />
      <rtept lat="33.325487" lon="126.842566" />
      <rtept lat="33.325396" lon="126.842611" />
      <rtept lat="33.325352" lon="126.842605" />
      <rtept lat="33.325243" lon="126.843207" />
      <rtept lat="33.32503" lon="126.843875" />
      <rtept lat="33.325013" lon="126.843921" />
      <rtept lat="33.325249" lon="126.844734" />
      <rtept lat="33.32533" lon="126.844788" />
      <rtept lat="33.325343" lon="126.844875" />
      <rtept lat="33.325297" lon="126.844879" />
      <rtept lat="33.32528" lon="126.844842" />
      <rtept lat="33.325246" lon="126.844832" />
      <rtept lat="33.325167" lon="126.844897" />
      <rtept lat="33.325027" lon="126.844946" />
      <rtept lat="33.324919" lon="126.845011" />
      <rtept lat="33.324871" lon="126.845052" />
      <rtept lat="33.324829" lon="126.84523" />
      <rtept lat="33.3247" lon="126.845382" />
      <rtept lat="33.324746" lon="126.845542" />
      <rtept lat="33.324991" lon="126.846869" />
      <rtept lat="33.325006" lon="126.847007" />
      <rtept lat="33.324996" lon="126.847016" />
      <rtept lat="33.324686" lon="126.847316" />
      <rtept lat="33.324514" lon="126.847316" />
      <rtept lat="33.324449" lon="126.847352" />
      <rtept lat="33.32422" lon="126.847289" />
      <rtept lat="33.324164" lon="126.847311" />
      <rtept lat="33.324071" lon="126.847272" />
      <rtept lat="33.323972" lon="126.84717" />
      <rtept lat="33.323935" lon="126.847087" />
      <rtept lat="33.323776" lon="126.846981" />
      <rtept lat="33.323568" lon="126.846891" />
      <rtept lat="33.323217" lon="126.846698" />
      <rtept lat="33.32308" lon="126.84667" />
      <rtept lat="33.32299" lon="126.846713" />
      <rtept lat="33.322886" lon="126.846734" />
      <rtept lat="33.322778" lon="126.846801" />
      <rtept lat="33.322524" lon="126.846905" />
      <rtept lat="33.322485" lon="126.846934" />
      <rtept lat="33.322405" lon="126.847048" />
      <rtept lat="33.322342" lon="126.847093" />
      <rtept lat="33.321802" lon="126.847287" />
      <rtept lat="33.321461" lon="126.84732" />
      <rtept lat="33.321271" lon="126.847094" />
      <rtept lat="33.321246" lon="126.847" />
      <rtept lat="33.320884" lon="126.84702" />
      <rtept lat="33.320856" lon="126.846798" />
      <rtept lat="33.320932" lon="126.846417" />
      <rtept lat="33.320932" lon="126.846001" />
      <rtept lat="33.320895" lon="126.845829" />
      <rtept lat="33.320732" lon="126.845664" />
      <rtept lat="33.320718" lon="126.845532" />
      <rtept lat="33.32082" lon="126.845318" />
      <rtept lat="33.320596" lon="126.845057" />
      <rtept lat="33.320383" lon="126.844706" />
      <rtept lat="33.320282" lon="126.844495" />
      <rtept lat="33.320016" lon="126.843843" />
      <rtept lat="33.319838" lon="126.843555" />
      <rtept lat="33.319467" lon="126.843048" />
      <rtept lat="33.319287" lon="126.842973" />
      <rtept lat="33.319163" lon="126.842838" />
      <rtept lat="33.319006" lon="126.842735" />
      <rtept lat="33.318888" lon="126.842705" />
      <rtept lat="33.318723" lon="126.842694" />
      <rtept lat="33.318667" lon="126.84268" />
      <rtept lat="33.318648" lon="126.842652" />
      <rtept lat="33.318037" lon="126.842586" />
      <rtept lat="33.317254" lon="126.842357" />
      <rtept lat="33.317065" lon="126.842225" />
      <rtept lat="33.316975" lon="126.842141" />
      <rtept lat="33.31694" lon="126.842079" />
      <rtept lat="33.316729" lon="126.841864" />
      <rtept lat="33.316646" lon="126.841742" />
      <rtept lat="33.316566" lon="126.841576" />
      <rtept lat="33.316491" lon="126.841311" />
      <rtept lat="33.316454" lon="126.840567" />
      <rtept lat="33.316427" lon="126.840306" />
      <rtept lat="33.316397" lon="126.840135" />
      <rtept lat="33.316335" lon="126.839957" />
      <rtept lat="33.315806" lon="126.839037" />
      <rtept lat="33.315736" lon="126.838893" />
      <rtept lat="33.315692" lon="126.838768" />
      <rtept lat="33.315678" lon="126.838677" />
      <rtept lat="33.31564" lon="126.838594" />
      <rtept lat="33.315436" lon="126.838295" />
      <rtept lat="33.314939" lon="126.837788" />
      <rtept lat="33.314831" lon="126.837593" />
      <rtept lat="33.314675" lon="126.837231" />
      <rtept lat="33.314588" lon="126.837033" />
      <rtept lat="33.31453" lon="126.836942" />
      <rtept lat="33.314427" lon="126.836854" />
      <rtept lat="33.314357" lon="126.836832" />
      <rtept lat="33.314215" lon="126.836842" />
      <rtept lat="33.313971" lon="126.836984" />
      <rtept lat="33.313784" lon="126.837055" />
      <rtept lat="33.312702" lon="126.837097" />
      <rtept lat="33.312623" lon="126.837081" />
      <rtept lat="33.312529" lon="126.837037" />
      <rtept lat="33.31245" lon="126.836977" />
      <rtept lat="33.312246" lon="126.836739" />
      <rtept lat="33.312092" lon="126.836496" />
      <rtept lat="33.312025" lon="126.83627" />
      <rtept lat="33.311991" lon="126.836059" />
      <rtept lat="33.311956" lon="126.835486" />
      <rtept lat="33.311902" lon="126.835247" />
      <rtept lat="33.311071" lon="126.833787" />
      <rtept lat="33.310942" lon="126.833522" />
      <rtept lat="33.310792" lon="126.833138" />
      <rtept lat="33.310651" lon="126.832844" />
      <rtept lat="33.310398" lon="126.832524" />
      <rtept lat="33.310224" lon="126.832217" />
      <rtept lat="33.309809" lon="126.831168" />
      <rtept lat="33.309752" lon="126.831056" />
      <rtept lat="33.309582" lon="126.83084" />
      <rtept lat="33.309057" lon="126.830392" />
      <rtept lat="33.308733" lon="126.830075" />
      <rtept lat="33.308519" lon="126.829718" />
      <rtept lat="33.308381" lon="126.829529" />
      <rtept lat="33.308049" lon="126.829248" />
      <rtept lat="33.30769" lon="126.828978" />
      <rtept lat="33.307485" lon="126.828762" />
      <rtept lat="33.307373" lon="126.828614" />
      <rtept lat="33.306932" lon="126.827824" />
      <rtept lat="33.306848" lon="126.82756" />
      <rtept lat="33.306807" lon="126.827309" />
      <rtept lat="33.306812" lon="126.826542" />
      <rtept lat="33.306786" lon="126.826398" />
      <rtept lat="33.306551" lon="126.825637" />
      <rtept lat="33.306496" lon="126.825365" />
      <rtept lat="33.306061" lon="126.822825" />
      <rtept lat="33.306031" lon="126.822566" />
      <rtept lat="33.306036" lon="126.822436" />
      <rtept lat="33.30607" lon="126.822196" />
      <rtept lat="33.306181" lon="126.821908" />
      <rtept lat="33.306467" lon="126.821534" />
      <rtept lat="33.306651" lon="126.821112" />
      <rtept lat="33.306755" lon="126.820973" />
      <rtept lat="33.30756" lon="126.820263" />
      <rtept lat="33.307653" lon="126.820157" />
      <rtept lat="33.307755" lon="126.819983" />
      <rtept lat="33.307806" lon="126.819854" />
      <rtept lat="33.307852" lon="126.819594" />
      <rtept lat="33.307851" lon="126.819447" />
      <rtept lat="33.307614" lon="126.81837" />
      <rtept lat="33.307562" lon="126.818011" />
      <rtept lat="33.307558" lon="126.817873" />
      <rtept lat="33.307588" lon="126.8176" />
      <rtept lat="33.307653" lon="126.817336" />
      <rtept lat="33.30776" lon="126.817089" />
      <rtept lat="33.307936" lon="126.816773" />
      <rtept lat="33.307975" lon="126.816655" />
      <rtept lat="33.307999" lon="126.816477" />
      <rtept lat="33.307997" lon="126.816367" />
      <rtept lat="33.307942" lon="126.816031" />
      <rtept lat="33.307844" lon="126.815614" />
      <rtept lat="33.307754" lon="126.815363" />
      <rtept lat="33.307565" lon="126.815119" />
      <rtept lat="33.307462" lon="126.815015" />
      <rtept lat="33.307032" lon="126.814454" />
      <rtept lat="33.306797" lon="126.814101" />
      <rtept lat="33.306744" lon="126.813998" />
      <rtept lat="33.306632" lon="126.813684" />
      <rtept lat="33.306323" lon="126.812621" />
      <rtept lat="33.306035" lon="126.812027" />
      <rtept lat="33.305754" lon="126.811536" />
      <rtept lat="33.305683" lon="126.811436" />
      <rtept lat="33.305597" lon="126.811358" />
      <rtept lat="33.305189" lon="126.811146" />
      <rtept lat="33.304575" lon="126.810754" />
      <rtept lat="33.304492" lon="126.810684" />
      <rtept lat="33.30431" lon="126.810473" />
      <rtept lat="33.303488" lon="126.809069" />
      <rtept lat="33.303031" lon="126.808217" />
      <rtept lat="33.302884" lon="126.807743" />
      <rtept lat="33.302851" lon="126.807525" />
      <rtept lat="33.302849" lon="126.807409" />
      <rtept lat="33.302872" lon="126.807263" />
      <rtept lat="33.3029" lon="126.807168" />
      <rtept lat="33.302999" lon="126.806982" />
      <rtept lat="33.303381" lon="126.806519" />
      <rtept lat="33.303541" lon="126.806351" />
      <rtept lat="33.303639" lon="126.806294" />
      <rtept lat="33.30377" lon="126.806249" />
      <rtept lat="33.30424" lon="126.806198" />
      <rtept lat="33.304326" lon="126.806246" />
      <rtept lat="33.304529" lon="126.806402" />
      <rtept lat="33.304636" lon="126.80644" />
      <rtept lat="33.304865" lon="126.806454" />
      <rtept lat="33.305149" lon="126.806431" />
      <rtept lat="33.305356" lon="126.806384" />
      <rtept lat="33.305517" lon="126.806295" />
      <rtept lat="33.305687" lon="126.806159" />
      <rtept lat="33.305876" lon="126.806083" />
      <rtept lat="33.30589" lon="126.805998" />
      <rtept lat="33.305945" lon="126.805941" />
      <rtept lat="33.305966" lon="126.80592" />
      <rtept lat="33.306105" lon="126.805558" />
      <rtept lat="33.30609" lon="126.805523" />
      <rtept lat="33.305842" lon="126.805279" />
      <rtept lat="33.305604" lon="126.805152" />
      <rtept lat="33.305295" lon="126.805031" />
      <rtept lat="33.305174" lon="126.804944" />
      <rtept lat="33.305088" lon="126.804843" />
      <rtept lat="33.30499" lon="126.804678" />
      <rtept lat="33.304947" lon="126.804537" />
      <rtept lat="33.304967" lon="126.804469" />
      <rtept lat="33.30479" lon="126.804055" />
      <rtept lat="33.304697" lon="126.803784" />
      <rtept lat="33.304631" lon="126.803541" />
      <rtept lat="33.304647" lon="126.803494" />
      <rtept lat="33.304567" lon="126.80341" />
      <rtept lat="33.304485" lon="126.803279" />
      <rtept lat="33.304351" lon="126.803179" />
      <rtept lat="33.303971" lon="126.803114" />
      <rtept lat="33.30401" lon="126.802888" />
      <rtept lat="33.304006" lon="126.802813" />
      <rtept lat="33.303902" lon="126.802413" />
      <rtept lat="33.303876" lon="126.802176" />
      <rtept lat="33.303882" lon="126.802045" />
      <rtept lat="33.303924" lon="126.801944" />
      <rtept lat="33.30407" lon="126.80179" />
      <rtept lat="33.304097" lon="126.801681" />
      <rtept lat="33.303981" lon="126.800837" />
      <rtept lat="33.303958" lon="126.800672" />
      <rtept lat="33.303785" lon="126.800109" />
      <rtept lat="33.303681" lon="126.799479" />
      <rtept lat="33.303634" lon="126.799388" />
      <rtept lat="33.303462" lon="126.798392">
         <ele>10</ele>
      </rtept>
      <rtept lat="33.303492" lon="126.798293">
         <ele>10</ele>
      </rtept>
      <rtept lat="33.303393" lon="126.79824">
         <ele>10</ele>
      </rtept>
      <rtept lat="33.303353" lon="126.798162">
         <ele>10</ele>
      </rtept>
      <rtept lat="33.303337" lon="126.798069">
         <ele>10</ele>
      </rtept>
      <rtept lat="33.303357" lon="126.797835">
         <ele>10</ele>
      </rtept>
      <rtept lat="33.303424" lon="126.797513">
         <ele>10</ele>
      </rtept>
      <rtept lat="33.303551" lon="126.797192">
         <ele>10</ele>
      </rtept>
      <rtept lat="33.303691" lon="126.796906">
         <ele>10</ele>
      </rtept>
      <rtept lat="33.303738" lon="126.796752">
         <ele>10</ele>
      </rtept>
      <rtept lat="33.303768" lon="126.796458">
         <ele>10</ele>
      </rtept>
      <rtept lat="33.303818" lon="126.796196">
         <ele>10</ele>
      </rtept>
      <rtept lat="33.304088" lon="126.79574">
         <ele>10</ele>
      </rtept>
      <rtept lat="33.304243" lon="126.79554">
         <ele>10</ele>
      </rtept>
      <rtept lat="33.304326" lon="126.795484">
         <ele>10</ele>
      </rtept>
      <rtept lat="33.304287" lon="126.795299">
         <ele>10</ele>
      </rtept>
      <rtept lat="33.304368" lon="126.7952">
         <ele>10</ele>
      </rtept>
      <rtept lat="33.3049" lon="126.794063">
         <ele>10</ele>
      </rtept>
      <rtept lat="33.304872" lon="126.793784">
         <ele>10</ele>
      </rtept>
      <rtept lat="33.304552" lon="126.793348">
         <ele>10</ele>
      </rtept>
      <rtept lat="33.304491" lon="126.793146">
         <ele>10</ele>
      </rtept>
      <rtept lat="33.30417" lon="126.792912">
         <ele>10</ele>
      </rtept>
      <rtept lat="33.303837" lon="126.79229">
         <ele>10</ele>
      </rtept>
      <rtept lat="33.303617" lon="126.791658">
         <ele>10</ele>
      </rtept>
      <rtept lat="33.303656" lon="126.791353">
         <ele>10</ele>
      </rtept>
      <rtept lat="33.303697" lon="126.791265">
         <ele>10</ele>
      </rtept>
      <rtept lat="33.303859" lon="126.791123">
         <ele>10</ele>
      </rtept>
      <rtept lat="33.303985" lon="126.790914">
         <ele>10</ele>
      </rtept>
      <rtept lat="33.30408" lon="126.790858">
         <ele>10</ele>
      </rtept>
      <rtept lat="33.304127" lon="126.790805">
         <ele>10</ele>
      </rtept>
      <rtept lat="33.304125" lon="126.790513">
         <ele>10</ele>
      </rtept>
      <rtept lat="33.304104" lon="126.790379">
         <ele>10</ele>
      </rtept>
      <rtept lat="33.304152" lon="126.790094">
         <ele>10</ele>
      </rtept>
      <rtept lat="33.304124" lon="126.790009">
         <ele>10</ele>
      </rtept>
      <rtept lat="33.304085" lon="126.789903" />
      <rtept lat="33.304082" lon="126.789852" />
      <rtept lat="33.304092" lon="126.789766" />
      <rtept lat="33.304132" lon="126.78969" />
      <rtept lat="33.304159" lon="126.78965" />
      <rtept lat="33.304447" lon="126.789393">
         <ele>10</ele>
      </rtept>
      <rtept lat="33.30451" lon="126.789225">
         <ele>10</ele>
      </rtept>
      <rtept lat="33.304639" lon="126.789035">
         <ele>10</ele>
      </rtept>
      <rtept lat="33.304792" lon="126.788547">
         <ele>10</ele>
      </rtept>
      <rtept lat="33.304844" lon="126.787933">
         <ele>10</ele>
      </rtept>
      <rtept lat="33.305001" lon="126.787544">
         <ele>10</ele>
      </rtept>
      <rtept lat="33.305045" lon="126.787495">
         <ele>10</ele>
      </rtept>
      <rtept lat="33.305123" lon="126.787501">
         <ele>10</ele>
      </rtept>
      <rtept lat="33.305203" lon="126.787533">
         <ele>10</ele>
      </rtept>
      <rtept lat="33.30535" lon="126.787543">
         <ele>10</ele>
      </rtept>
      <rtept lat="33.305535" lon="126.787536">
         <ele>10</ele>
      </rtept>
      <rtept lat="33.305843" lon="126.787559">
         <ele>10</ele>
      </rtept>
      <rtept lat="33.305968" lon="126.78755">
         <ele>10</ele>
      </rtept>
      <rtept lat="33.306052" lon="126.787476">
         <ele>10</ele>
      </rtept>
      <rtept lat="33.306507" lon="126.786734">
         <ele>10</ele>
      </rtept>
      <rtept lat="33.306568" lon="126.786584">
         <ele>10</ele>
      </rtept>
      <rtept lat="33.306591" lon="126.786274">
         <ele>10</ele>
      </rtept>
      <rtept lat="33.306569" lon="126.786217">
         <ele>10</ele>
      </rtept>
      <rtept lat="33.306444" lon="126.786184">
         <ele>10</ele>
      </rtept>
      <rtept lat="33.306416" lon="126.786124">
         <ele>10</ele>
      </rtept>
      <rtept lat="33.306447" lon="126.785801">
         <ele>10</ele>
      </rtept>
      <rtept lat="33.306391" lon="126.78534">
         <ele>10</ele>
      </rtept>
      <rtept lat="33.306344" lon="126.785181">
         <ele>10</ele>
      </rtept>
      <rtept lat="33.306232" lon="126.784984">
         <ele>10</ele>
      </rtept>
      <rtept lat="33.306246" lon="126.78485">
         <ele>10</ele>
      </rtept>
      <rtept lat="33.30631" lon="126.784675">
         <ele>10</ele>
      </rtept>
      <rtept lat="33.306368" lon="126.784344">
         <ele>10</ele>
      </rtept>
      <rtept lat="33.306384" lon="126.783781">
         <ele>10</ele>
      </rtept>
      <rtept lat="33.306432" lon="126.783498">
         <ele>10</ele>
      </rtept>
      <rtept lat="33.306555" lon="126.783162">
         <ele>10</ele>
      </rtept>
      <rtept lat="33.306652" lon="126.782766">
         <ele>10</ele>
      </rtept>
      <rtept lat="33.306686" lon="126.782691">
         <ele>10</ele>
      </rtept>
      <rtept lat="33.306735" lon="126.782593">
         <ele>10</ele>
      </rtept>
      <rtept lat="33.306909" lon="126.782376">
         <ele>10</ele>
      </rtept>
      <rtept lat="33.307014" lon="126.782269">
         <ele>10</ele>
      </rtept>
      <rtept lat="33.307151" lon="126.782213">
         <ele>10</ele>
      </rtept>
      <rtept lat="33.307256" lon="126.782195" />
      <rtept lat="33.307523" lon="126.782238" />
      <rtept lat="33.308624" lon="126.782479">
         <ele>10</ele>
      </rtept>
      <rtept lat="33.308716" lon="126.782564">
         <ele>10</ele>
      </rtept>
      <rtept lat="33.308984" lon="126.782744">
         <ele>10</ele>
      </rtept>
      <rtept lat="33.309112" lon="126.782868">
         <ele>10</ele>
      </rtept>
      <rtept lat="33.309186" lon="126.782836">
         <ele>10</ele>
      </rtept>
      <rtept lat="33.309411" lon="126.782657">
         <ele>10</ele>
      </rtept>
      <rtept lat="33.309539" lon="126.782461">
         <ele>10</ele>
      </rtept>
      <rtept lat="33.309818" lon="126.782324">
         <ele>10</ele>
      </rtept>
      <rtept lat="33.310059" lon="126.781907">
         <ele>20</ele>
      </rtept>
      <rtept lat="33.310363" lon="126.781312">
         <ele>20</ele>
      </rtept>
      <rtept lat="33.310457" lon="126.781204">
         <ele>20</ele>
      </rtept>
      <rtept lat="33.310785" lon="126.781105">
         <ele>20</ele>
      </rtept>
      <rtept lat="33.31088" lon="126.781121">
         <ele>20</ele>
      </rtept>
      <rtept lat="33.310988" lon="126.781198">
         <ele>20</ele>
      </rtept>
      <rtept lat="33.311093" lon="126.781231">
         <ele>20</ele>
      </rtept>
      <rtept lat="33.311157" lon="126.781222">
         <ele>20</ele>
      </rtept>
      <rtept lat="33.311416" lon="126.781099">
         <ele>20</ele>
      </rtept>
      <rtept lat="33.311656" lon="126.781081">
         <ele>20</ele>
      </rtept>
      <rtept lat="33.311803" lon="126.78095">
         <ele>30</ele>
      </rtept>
      <rtept lat="33.312114" lon="126.780454">
         <ele>30</ele>
      </rtept>
      <rtept lat="33.312394" lon="126.780399">
         <ele>30</ele>
      </rtept>
      <rtept lat="33.312562" lon="126.780241">
         <ele>30</ele>
      </rtept>
      <rtept lat="33.312916" lon="126.779476">
         <ele>30</ele>
      </rtept>
      <rtept lat="33.312913" lon="126.779355">
         <ele>30</ele>
      </rtept>
      <rtept lat="33.313123" lon="126.779311">
         <ele>30</ele>
      </rtept>
      <rtept lat="33.313441" lon="126.779078">
         <ele>30</ele>
      </rtept>
      <rtept lat="33.313525" lon="126.779068">
         <ele>30</ele>
      </rtept>
      <rtept lat="33.313755" lon="126.779134">
         <ele>30</ele>
      </rtept>
      <rtept lat="33.313926" lon="126.779149">
         <ele>30</ele>
      </rtept>
      <rtept lat="33.314449" lon="126.779116">
         <ele>40</ele>
      </rtept>
      <rtept lat="33.314877" lon="126.77919">
         <ele>40</ele>
      </rtept>
      <rtept lat="33.315839" lon="126.779366">
         <ele>40</ele>
      </rtept>
      <rtept lat="33.315973" lon="126.77933">
         <ele>40</ele>
      </rtept>
      <rtept lat="33.316073" lon="126.779298">
         <ele>40</ele>
      </rtept>
      <rtept lat="33.316127" lon="126.779245">
         <ele>40</ele>
      </rtept>
      <rtept lat="33.316115" lon="126.778788">
         <ele>40</ele>
      </rtept>
      <rtept lat="33.316144" lon="126.778721">
         <ele>40</ele>
      </rtept>
      <rtept lat="33.316274" lon="126.778616">
         <ele>40</ele>
      </rtept>
      <rtept lat="33.316679" lon="126.778494">
         <ele>40</ele>
      </rtept>
      <rtept lat="33.316872" lon="126.778384">
         <ele>40</ele>
      </rtept>
      <rtept lat="33.31703" lon="126.778318">
         <ele>40</ele>
      </rtept>
      <rtept lat="33.31728" lon="126.778246">
         <ele>40</ele>
      </rtept>
      <rtept lat="33.317462" lon="126.778278">
         <ele>40</ele>
      </rtept>
      <rtept lat="33.317585" lon="126.778277">
         <ele>40</ele>
      </rtept>
      <rtept lat="33.317826" lon="126.778337">
         <ele>40</ele>
      </rtept>
      <rtept lat="33.317839" lon="126.778341" />
      <rtept lat="33.317855" lon="126.778412" />
      <rtept lat="33.317936" lon="126.778584" />
      <rtept lat="33.317989" lon="126.778629" />
      <rtept lat="33.318088" lon="126.778651">
         <ele>50</ele>
      </rtept>
      <rtept lat="33.319823" lon="126.778768">
         <ele>60</ele>
      </rtept>
      <rtept lat="33.320071" lon="126.778744">
         <ele>61.67337</ele>
      </rtept>
      <rtept lat="33.320454" lon="126.778511">
         <ele>66.14787</ele>
      </rtept>
      <rtept lat="33.32106" lon="126.778557">
         <ele>73.3263</ele>
      </rtept>
      <rtept lat="33.321993" lon="126.778205">
         <ele>88.38583</ele>
      </rtept>
      <rtept lat="33.322364" lon="126.777959">
         <ele>96.01249</ele>
      </rtept>
      <rtept lat="33.322878" lon="126.778046">
         <ele>90.73458</ele>
      </rtept>
      <rtept lat="33.323572" lon="126.777957">
         <ele>91.47052</ele>
      </rtept>
      <rtept lat="33.323608" lon="126.777884">
         <ele>90.65862</ele>
      </rtept>
      <rtept lat="33.323626" lon="126.77775">
         <ele>91.96592</ele>
      </rtept>
      <rtept lat="33.323561" lon="126.777234">
         <ele>103.7517</ele>
      </rtept>
      <rtept lat="33.323623" lon="126.777196">
         <ele>103.802</ele>
      </rtept>
      <rtept lat="33.323997" lon="126.777105">
         <ele>101.3508</ele>
      </rtept>
      <rtept lat="33.324194" lon="126.776961">
         <ele>102.8549</ele>
      </rtept>
      <rtept lat="33.324506" lon="126.776619">
         <ele>107.9654</ele>
      </rtept>
      <rtept lat="33.324273" lon="126.776253">
         <ele>118.0926</ele>
      </rtept>
      <rtept lat="33.323758" lon="126.776253">
         <ele>122.7091</ele>
      </rtept>
      <rtept lat="33.323469" lon="126.776228">
         <ele>127.3895</ele>
      </rtept>
      <rtept lat="33.322398" lon="126.77682">
         <ele>134.513</ele>
      </rtept>
      <rtept lat="33.32212" lon="126.776746">
         <ele>138.4576</ele>
      </rtept>
      <rtept lat="33.321791" lon="126.776388">
         <ele>143.0295</ele>
      </rtept>
      <rtept lat="33.321884" lon="126.77518">
         <ele>149.2032</ele>
      </rtept>
      <rtept lat="33.322324" lon="126.774433">
         <ele>148.6256</ele>
      </rtept>
      <rtept lat="33.322814" lon="126.773601">
         <ele>149.7908</ele>
      </rtept>
      <rtept lat="33.322821" lon="126.773292">
         <ele>146.4049</ele>
      </rtept>
      <rtept lat="33.322907" lon="126.772442">
         <ele>143.0887</ele>
      </rtept>
      <rtept lat="33.3231" lon="126.77179">
         <ele>145.6753</ele>
      </rtept>
      <rtept lat="33.323036" lon="126.771207">
         <ele>141.3731</ele>
      </rtept>
      <rtept lat="33.323036" lon="126.770898">
         <ele>138.7897</ele>
      </rtept>
      <rtept lat="33.322727" lon="126.770709">
         <ele>132.4461</ele>
      </rtept>
      <rtept lat="33.321817" lon="126.769644">
         <ele>111.4046</ele>
      </rtept>
      <rtept lat="33.321413" lon="126.769425">
         <ele>104.6411</ele>
      </rtept>
      <rtept lat="33.32113" lon="126.769425">
         <ele>100</ele>
      </rtept>
      <rtept lat="33.321006" lon="126.769401">
         <ele>100</ele>
      </rtept>
      <rtept lat="33.320834" lon="126.769275">
         <ele>99.41257</ele>
      </rtept>
      <rtept lat="33.320734" lon="126.768752">
         <ele>100</ele>
      </rtept>
      <rtept lat="33.320734" lon="126.767979">
         <ele>95.39286</ele>
      </rtept>
      <rtept lat="33.320411" lon="126.767602">
         <ele>90</ele>
      </rtept>
      <rtept lat="33.32011" lon="126.767035">
         <ele>88.04337</ele>
      </rtept>
      <rtept lat="33.320181" lon="126.76664">
         <ele>90</ele>
      </rtept>
      <rtept lat="33.320346" lon="126.76622">
         <ele>90</ele>
      </rtept>
      <rtept lat="33.320389" lon="126.765876">
         <ele>85.38041</ele>
      </rtept>
      <rtept lat="33.321279" lon="126.765499">
         <ele>78.05424</ele>
      </rtept>
      <rtept lat="33.320856" lon="126.764709">
         <ele>75.7775</ele>
      </rtept>
      <rtept lat="33.320167" lon="126.763774">
         <ele>70</ele>
      </rtept>
      <rtept lat="33.319787" lon="126.762718">
         <ele>60</ele>
      </rtept>
      <rtept lat="33.319665" lon="126.762538">
         <ele>60</ele>
      </rtept>
      <rtept lat="33.31945" lon="126.763035">
         <ele>60</ele>
      </rtept>
      <rtept lat="33.319082" lon="126.76425">
         <ele>62.29808</ele>
      </rtept>
      <rtept lat="33.318987" lon="126.764654">
         <ele>62.53756</ele>
      </rtept>
      <rtept lat="33.318949" lon="126.764714">
         <ele>62.19673</ele>
      </rtept>
      <rtept lat="33.318853" lon="126.764787">
         <ele>60.78467</ele>
      </rtept>
      <rtept lat="33.318729" lon="126.764955">
         <ele>60.44722</ele>
      </rtept>
      <rtept lat="33.318582" lon="126.765263">
         <ele>60.94194</ele>
      </rtept>
      <rtept lat="33.318527" lon="126.76534">
         <ele>61.20171</ele>
      </rtept>
      <rtept lat="33.318094" lon="126.765756">
         <ele>55.08654</ele>
      </rtept>
      <rtept lat="33.317985" lon="126.765817">
         <ele>53.87137</ele>
      </rtept>
      <rtept lat="33.317884" lon="126.765706">
         <ele>51.9906</ele>
      </rtept>
      <rtept lat="33.317685" lon="126.76541">
         <ele>50</ele>
      </rtept>
      <rtept lat="33.317635" lon="126.765327">
         <ele>50</ele>
      </rtept>
      <rtept lat="33.317603" lon="126.765208">
         <ele>50</ele>
      </rtept>
      <rtept lat="33.317586" lon="126.765048">
         <ele>50</ele>
      </rtept>
      <rtept lat="33.317618" lon="126.764869">
         <ele>50</ele>
      </rtept>
      <rtept lat="33.317686" lon="126.764732">
         <ele>50</ele>
      </rtept>
      <rtept lat="33.317756" lon="126.764666">
         <ele>50</ele>
      </rtept>
      <rtept lat="33.317849" lon="126.764513">
         <ele>50</ele>
      </rtept>
      <rtept lat="33.317912" lon="126.764304">
         <ele>50</ele>
      </rtept>
      <rtept lat="33.31796" lon="126.764031">
         <ele>50</ele>
      </rtept>
      <rtept lat="33.317972" lon="126.763281">
         <ele>50</ele>
      </rtept>
      <rtept lat="33.317905" lon="126.763124">
         <ele>50</ele>
      </rtept>
      <rtept lat="33.317651" lon="126.763132">
         <ele>50</ele>
      </rtept>
      <rtept lat="33.317639" lon="126.7628">
         <ele>50</ele>
      </rtept>
      <rtept lat="33.317503" lon="126.762032">
         <ele>60</ele>
      </rtept>
      <rtept lat="33.317537" lon="126.761789">
         <ele>60</ele>
      </rtept>
      <rtept lat="33.317451" lon="126.761756">
         <ele>60</ele>
      </rtept>
      <rtept lat="33.317011" lon="126.76149">
         <ele>60</ele>
      </rtept>
      <rtept lat="33.31681" lon="126.760778">
         <ele>60</ele>
      </rtept>
      <rtept lat="33.316452" lon="126.760503">
         <ele>60</ele>
      </rtept>
      <rtept lat="33.316398" lon="126.760393">
         <ele>60</ele>
      </rtept>
      <rtept lat="33.316179" lon="126.759946">
         <ele>60</ele>
      </rtept>
      <rtept lat="33.316115" lon="126.759513">
         <ele>60</ele>
      </rtept>
      <rtept lat="33.314408" lon="126.759456">
         <ele>60</ele>
      </rtept>
      <rtept lat="33.313891" lon="126.759671">
         <ele>60</ele>
      </rtept>
      <rtept lat="33.313676" lon="126.760109">
         <ele>50</ele>
      </rtept>
      <rtept lat="33.312348" lon="126.760802">
         <ele>50</ele>
      </rtept>
      <rtept lat="33.31179" lon="126.760975">
         <ele>50</ele>
      </rtept>
      <rtept lat="33.310649" lon="126.761224">
         <ele>50</ele>
      </rtept>
      <rtept lat="33.310434" lon="126.760881">
         <ele>50</ele>
      </rtept>
      <rtept lat="33.310212" lon="126.760881">
         <ele>50</ele>
      </rtept>
      <rtept lat="33.309609" lon="126.761078">
         <ele>40</ele>
      </rtept>
      <rtept lat="33.308529" lon="126.761347">
         <ele>40</ele>
      </rtept>
      <rtept lat="33.307168" lon="126.761051">
         <ele>40</ele>
      </rtept>
      <rtept lat="33.306357" lon="126.761466">
         <ele>40</ele>
      </rtept>
      <rtept lat="33.306309" lon="126.76172">
         <ele>40</ele>
      </rtept>
      <rtept lat="33.305795" lon="126.761692">
         <ele>30</ele>
      </rtept>
      <rtept lat="33.305552" lon="126.762145">
         <ele>30</ele>
      </rtept>
      <rtept lat="33.304842" lon="126.762258">
         <ele>30</ele>
      </rtept>
      <rtept lat="33.304239" lon="126.76228">
         <ele>30</ele>
      </rtept>
      <rtept lat="33.303428" lon="126.762145">
         <ele>30</ele>
      </rtept>
      <rtept lat="33.303227" lon="126.761975">
         <ele>30</ele>
      </rtept>
      <rtept lat="33.303002" lon="126.762039">
         <ele>20</ele>
      </rtept>
      <rtept lat="33.302647" lon="126.761961">
         <ele>20</ele>
      </rtept>
      <rtept lat="33.302287" lon="126.762145">
         <ele>20</ele>
      </rtept>
      <rtept lat="33.302014" lon="126.762386">
         <ele>20</ele>
      </rtept>
      <rtept lat="33.301747" lon="126.762988">
         <ele>20</ele>
      </rtept>
      <rtept lat="33.301527" lon="126.763711">
         <ele>20</ele>
      </rtept>
      <rtept lat="33.301024" lon="126.763978">
         <ele>20</ele>
      </rtept>
      <rtept lat="33.300565" lon="126.764174">
         <ele>20</ele>
      </rtept>
      <rtept lat="33.300416" lon="126.764153">
         <ele>20</ele>
      </rtept>
      <rtept lat="33.300137" lon="126.764171">
         <ele>20</ele>
      </rtept>
      <rtept lat="33.299826" lon="126.764163">
         <ele>20</ele>
      </rtept>
      <rtept lat="33.299673" lon="126.764236">
         <ele>10</ele>
      </rtept>
      <rtept lat="33.299535" lon="126.76474">
         <ele>10</ele>
      </rtept>
      <rtept lat="33.299387" lon="126.764874">
         <ele>10</ele>
      </rtept>
      <rtept lat="33.299045" lon="126.765106">
         <ele>10</ele>
      </rtept>
      <rtept lat="33.298922" lon="126.76521">
         <ele>10</ele>
      </rtept>
      <rtept lat="33.298652" lon="126.76551">
         <ele>10</ele>
      </rtept>
      <rtept lat="33.298508" lon="126.765884">
         <ele>10</ele>
      </rtept>
      <rtept lat="33.298433" lon="126.765832">
         <ele>10</ele>
      </rtept>
      <rtept lat="33.298339" lon="126.765793">
         <ele>10</ele>
      </rtept>
      <rtept lat="33.298175" lon="126.765791">
         <ele>10</ele>
      </rtept>
      <rtept lat="33.298008" lon="126.765831">
         <ele>10</ele>
      </rtept>
      <rtept lat="33.297491" lon="126.765999">
         <ele>10</ele>
      </rtept>
      <rtept lat="33.297406" lon="126.765996">
         <ele>10</ele>
      </rtept>
      <rtept lat="33.297291" lon="126.765966">
         <ele>10</ele>
      </rtept>
      <rtept lat="33.297183" lon="126.76589">
         <ele>10</ele>
      </rtept>
      <rtept lat="33.296984" lon="126.765638">
         <ele>10</ele>
      </rtept>
      <rtept lat="33.296808" lon="126.765473">
         <ele>10</ele>
      </rtept>
      <rtept lat="33.295618" lon="126.764653">
         <ele>10</ele>
      </rtept>
      <rtept lat="33.294953" lon="126.76422">
         <ele>10</ele>
      </rtept>
      <rtept lat="33.294873" lon="126.764181">
         <ele>10</ele>
      </rtept>
      <rtept lat="33.294786" lon="126.764165">
         <ele>10</ele>
      </rtept>
      <rtept lat="33.294067" lon="126.76411">
         <ele>10</ele>
      </rtept>
      <rtept lat="33.293955" lon="126.764076">
         <ele>10</ele>
      </rtept>
      <rtept lat="33.293758" lon="126.763975">
         <ele>10</ele>
      </rtept>
      <rtept lat="33.293098" lon="126.763473">
         <ele>10</ele>
      </rtept>
      <rtept lat="33.292852" lon="126.763432">
         <ele>10</ele>
      </rtept>
      <rtept lat="33.292628" lon="126.763422">
         <ele>10</ele>
      </rtept>
      <rtept lat="33.292459" lon="126.763363">
         <ele>10</ele>
      </rtept>
      <rtept lat="33.29238" lon="126.763308">
         <ele>10</ele>
      </rtept>
      <rtept lat="33.292288" lon="126.763215">
         <ele>10</ele>
      </rtept>
      <rtept lat="33.292223" lon="126.763112">
         <ele>10</ele>
      </rtept>
      <rtept lat="33.291911" lon="126.762363">
         <ele>10</ele>
      </rtept>
      <rtept lat="33.291916" lon="126.762158">
         <ele>10</ele>
      </rtept>
      <rtept lat="33.291966" lon="126.761968">
         <ele>10</ele>
      </rtept>
      <rtept lat="33.291995" lon="126.761778">
         <ele>10</ele>
      </rtept>
      <rtept lat="33.292019" lon="126.761394">
         <ele>10</ele>
      </rtept>
      <rtept lat="33.292013" lon="126.761226">
         <ele>10</ele>
      </rtept>
      <rtept lat="33.291969" lon="126.761089">
         <ele>10</ele>
      </rtept>
      <rtept lat="33.29187" lon="126.760952">
         <ele>10</ele>
      </rtept>
      <rtept lat="33.291623" lon="126.760726">
         <ele>10</ele>
      </rtept>
      <rtept lat="33.291519" lon="126.760544">
         <ele>10</ele>
      </rtept>
      <rtept lat="33.291461" lon="126.7603">
         <ele>10</ele>
      </rtept>
      <rtept lat="33.291457" lon="126.759774">
         <ele>10</ele>
      </rtept>
      <rtept lat="33.291409" lon="126.759603">
         <ele>10</ele>
      </rtept>
      <rtept lat="33.291315" lon="126.759468">
         <ele>10</ele>
      </rtept>
      <rtept lat="33.290265" lon="126.758527">
         <ele>10</ele>
      </rtept>
      <rtept lat="33.290191" lon="126.758445">
         <ele>10</ele>
      </rtept>
      <rtept lat="33.290075" lon="126.758276">
         <ele>10</ele>
      </rtept>
      <rtept lat="33.289845" lon="126.757709">
         <ele>10</ele>
      </rtept>
      <rtept lat="33.289742" lon="126.757575">
         <ele>10</ele>
      </rtept>
      <rtept lat="33.289624" lon="126.757469">
         <ele>10</ele>
      </rtept>
      <rtept lat="33.289341" lon="126.757324">
         <ele>10</ele>
      </rtept>
      <rtept lat="33.28923" lon="126.757247">
         <ele>10</ele>
      </rtept>
      <rtept lat="33.289067" lon="126.757056">
         <ele>10</ele>
      </rtept>
      <rtept lat="33.288278" lon="126.755509">
         <ele>10</ele>
      </rtept>
      <rtept lat="33.287709" lon="126.754511">
         <ele>10</ele>
      </rtept>
      <rtept lat="33.287642" lon="126.754345">
         <ele>10</ele>
      </rtept>
      <rtept lat="33.28756" lon="126.75404">
         <ele>10</ele>
      </rtept>
      <rtept lat="33.287446" lon="126.753439">
         <ele>10</ele>
      </rtept>
      <rtept lat="33.287436" lon="126.753211">
         <ele>10</ele>
      </rtept>
      <rtept lat="33.287497" lon="126.753031">
         <ele>10</ele>
      </rtept>
      <rtept lat="33.287578" lon="126.752901">
         <ele>10</ele>
      </rtept>
      <rtept lat="33.28767" lon="126.752792">
         <ele>10</ele>
      </rtept>
      <rtept lat="33.288245" lon="126.752522">
         <ele>10</ele>
      </rtept>
      <rtept lat="33.288384" lon="126.752424">
         <ele>10</ele>
      </rtept>
      <rtept lat="33.288928" lon="126.752271">
         <ele>10</ele>
      </rtept>
      <rtept lat="33.289002" lon="126.75225" />
      <rtept lat="33.28945" lon="126.751838" />
      <rtept lat="33.28936" lon="126.751745" />
      <rtept lat="33.288898" lon="126.751656" />
      <rtept lat="33.288641" lon="126.751567" />
      <rtept lat="33.288435" lon="126.751421" />
      <rtept lat="33.288314" lon="126.751297" />
      <rtept lat="33.288088" lon="126.750975" />
      <rtept lat="33.287242" lon="126.749412" />
      <rtept lat="33.287101" lon="126.749265" />
      <rtept lat="33.286967" lon="126.749167" />
      <rtept lat="33.286426" lon="126.749118" />
      <rtept lat="33.28617" lon="126.749208" />
      <rtept lat="33.285877" lon="126.749411" />
      <rtept lat="33.2857" lon="126.749505" />
      <rtept lat="33.285423" lon="126.749548" />
      <rtept lat="33.284827" lon="126.749485" />
      <rtept lat="33.284045" lon="126.749055" />
      <rtept lat="33.283433" lon="126.748744" />
      <rtept lat="33.283142" lon="126.74849" />
      <rtept lat="33.281863" lon="126.746563" />
      <rtept lat="33.281168" lon="126.745565" />
      <rtept lat="33.280926" lon="126.745298" />
      <rtept lat="33.280866" lon="126.745239" />
      <rtept lat="33.280188" lon="126.744801" />
      <rtept lat="33.279728" lon="126.744899" />
      <rtept lat="33.27952" lon="126.744865" />
      <rtept lat="33.279183" lon="126.744487" />
      <rtept lat="33.279298" lon="126.744041" />
      <rtept lat="33.278982" lon="126.743183" />
      <rtept lat="33.278896" lon="126.742676" />
      <rtept lat="33.278921" lon="126.742147" />
      <rtept lat="33.278968" lon="126.741174" />
      <rtept lat="33.278895" lon="126.739974" />
      <rtept lat="33.278855" lon="126.739663" />
      <rtept lat="33.278868" lon="126.73946" />
      <rtept lat="33.278889" lon="126.73935" />
      <rtept lat="33.278918" lon="126.739286" />
      <rtept lat="33.278958" lon="126.739244" />
      <rtept lat="33.279004" lon="126.739237" />
      <rtept lat="33.279919" lon="126.739628" />
      <rtept lat="33.280088" lon="126.739674" />
      <rtept lat="33.280722" lon="126.739687" />
      <rtept lat="33.280862" lon="126.739708" />
      <rtept lat="33.28133" lon="126.739823" />
      <rtept lat="33.281356" lon="126.739523" />
      <rtept lat="33.281336" lon="126.739415" />
      <rtept lat="33.281176" lon="126.739299" />
      <rtept lat="33.281078" lon="126.73912" />
      <rtept lat="33.281013" lon="126.739003" />
      <rtept lat="33.280764" lon="126.73904" />
      <rtept lat="33.28057" lon="126.738981" />
      <rtept lat="33.280154" lon="126.738757" />
      <rtept lat="33.280133" lon="126.738588" />
      <rtept lat="33.280167" lon="126.738269" />
      <rtept lat="33.280237" lon="126.738142" />
      <rtept lat="33.280185" lon="126.737895" />
      <rtept lat="33.280142" lon="126.737238" />
      <rtept lat="33.28016" lon="126.737016" />
      <rtept lat="33.280239" lon="126.736851" />
      <rtept lat="33.280374" lon="126.736667" />
      <rtept lat="33.281129" lon="126.735904" />
      <rtept lat="33.281373" lon="126.735606" />
      <rtept lat="33.281521" lon="126.735358" />
      <rtept lat="33.28167" lon="126.734952" />
      <rtept lat="33.281926" lon="126.733799" />
      <rtept lat="33.281953" lon="126.733619" />
      <rtept lat="33.281863" lon="126.733123">
         <ele>10</ele>
      </rtept>
      <rtept lat="33.281773" lon="126.732915">
         <ele>10</ele>
      </rtept>
      <rtept lat="33.281475" lon="126.73256">
         <ele>10</ele>
      </rtept>
      <rtept lat="33.281259" lon="126.732365">
         <ele>10</ele>
      </rtept>
      <rtept lat="33.280988" lon="126.73219">
         <ele>10</ele>
      </rtept>
      <rtept lat="33.280263" lon="126.731818">
         <ele>10</ele>
      </rtept>
      <rtept lat="33.279988" lon="126.731586">
         <ele>10</ele>
      </rtept>
      <rtept lat="33.279617" lon="126.731216">
         <ele>10</ele>
      </rtept>
      <rtept lat="33.279465" lon="126.730988">
         <ele>10</ele>
      </rtept>
      <rtept lat="33.279342" lon="126.73072">
         <ele>10</ele>
      </rtept>
      <rtept lat="33.279274" lon="126.730383">
         <ele>10</ele>
      </rtept>
      <rtept lat="33.279248" lon="126.730045">
         <ele>10</ele>
      </rtept>
      <rtept lat="33.279305" lon="126.729707">
         <ele>10</ele>
      </rtept>
      <rtept lat="33.279492" lon="126.728901">
         <ele>10</ele>
      </rtept>
      <rtept lat="33.27949" lon="126.728417">
         <ele>10</ele>
      </rtept>
      <rtept lat="33.279405" lon="126.727776">
         <ele>10</ele>
      </rtept>
      <rtept lat="33.279542" lon="126.726978">
         <ele>10</ele>
      </rtept>
      <rtept lat="33.279578" lon="126.726291">
         <ele>10</ele>
      </rtept>
      <rtept lat="33.279341" lon="126.725176">
         <ele>10</ele>
      </rtept>
      <rtept lat="33.27922" lon="126.724846">
         <ele>10</ele>
      </rtept>
      <rtept lat="33.279119" lon="126.724437">
         <ele>10</ele>
      </rtept>
      <rtept lat="33.279083" lon="126.723888">
         <ele>10</ele>
      </rtept>
      <rtept lat="33.278867" lon="126.723339">
         <ele>10</ele>
      </rtept>
      <rtept lat="33.278794" lon="126.723204">
         <ele>10</ele>
      </rtept>
      <rtept lat="33.278637" lon="126.722996">
         <ele>10</ele>
      </rtept>
      <rtept lat="33.278018" lon="126.722491">
         <ele>10</ele>
      </rtept>
      <rtept lat="33.277936" lon="126.722378">
         <ele>10</ele>
      </rtept>
      <rtept lat="33.277817" lon="126.722146">
         <ele>10</ele>
      </rtept>
      <rtept lat="33.277766" lon="126.722012">
         <ele>10</ele>
      </rtept>
      <rtept lat="33.277651" lon="126.721454">
         <ele>10</ele>
      </rtept>
      <rtept lat="33.277645" lon="126.721298">
         <ele>10</ele>
      </rtept>
      <rtept lat="33.277865" lon="126.720154">
         <ele>10</ele>
      </rtept>
      <rtept lat="33.277908" lon="126.719949" />
      <rtept lat="33.27799" lon="126.719721" />
      <rtept lat="33.278075" lon="126.719546" />
      <rtept lat="33.278293" lon="126.719245" />
      <rtept lat="33.278112" lon="126.718743" />
      <rtept lat="33.278092" lon="126.718623" />
   </rte>
</gpx>