<?xml version="1.0" encoding="utf-8"?>
<gpx version="1.1" creator="Movescount - http://www.movescount.com" xmlns:xsi="http://www.w3.org/2001/XMLSchema-instance" xsi:schemaLocation="http://www.topografix.com/GPX/1/1 http://www.topografix.com/GPX/1/1/gpx.xsd http://www.cluetrust.com/XML/GPXDATA/1/0 http://www.cluetrust.com/Schemas/gpxdata10.xsd http://www.garmin.com/xmlschemas/TrackPointExtension/v1 http://www.garmin.com/xmlschemas/TrackPointExtensionv1.xsd" xmlns:gpxdata="http://www.cluetrust.com/XML/GPXDATA/1/0" xmlns:gpxtpx="http://www.garmin.com/xmlschemas/TrackPointExtension/v1" xmlns="http://www.topografix.com/GPX/1/1">
   <rte>
      <name>jeju ollegil 3A</name>
      <rtept lat="33.404989" lon="126.904117" />
      <rtept lat="33.404974" lon="126.904131" />
      <rtept lat="33.404886" lon="126.903995" />
      <rtept lat="33.40464" lon="126.904017" />
      <rtept lat="33.40473" lon="126.903722" />
      <rtept lat="33.404572" lon="126.903638" />
      <rtept lat="33.404456" lon="126.903618" />
      <rtept lat="33.403937" lon="126.903603" />
      <rtept lat="33.403787" lon="126.903522" />
      <rtept lat="33.403484" lon="126.902984" />
      <rtept lat="33.403329" lon="126.902888" />
      <rtept lat="33.402555" lon="126.902918" />
      <rtept lat="33.402161" lon="126.902857" />
      <rtept lat="33.401881" lon="126.902775" />
      <rtept lat="33.401789" lon="126.902777" />
      <rtept lat="33.401718" lon="126.9028" />
      <rtept lat="33.401567" lon="126.902895" />
      <rtept lat="33.401095" lon="126.903321" />
      <rtept lat="33.400957" lon="126.903471" />
      <rtept lat="33.400853" lon="126.903347" />
      <rtept lat="33.400823" lon="126.903245">
         <ele>10</ele>
      </rtept>
      <rtept lat="33.400607" lon="126.902903">
         <ele>10</ele>
      </rtept>
      <rtept lat="33.400457" lon="126.902728">
         <ele>10</ele>
      </rtept>
      <rtept lat="33.400385" lon="126.902573">
         <ele>10</ele>
      </rtept>
      <rtept lat="33.400345" lon="126.902096">
         <ele>10</ele>
      </rtept>
      <rtept lat="33.400438" lon="126.901512">
         <ele>10</ele>
      </rtept>
      <rtept lat="33.40053" lon="126.901202">
         <ele>20</ele>
      </rtept>
      <rtept lat="33.400509" lon="126.90111">
         <ele>20</ele>
      </rtept>
      <rtept lat="33.400453" lon="126.901064">
         <ele>20</ele>
      </rtept>
      <rtept lat="33.400478" lon="126.900991">
         <ele>20</ele>
      </rtept>
      <rtept lat="33.400057" lon="126.900789">
         <ele>20</ele>
      </rtept>
      <rtept lat="33.400019" lon="126.90075">
         <ele>20</ele>
      </rtept>
      <rtept lat="33.400248" lon="126.900464">
         <ele>20</ele>
      </rtept>
      <rtept lat="33.400349" lon="126.900308">
         <ele>20</ele>
      </rtept>
      <rtept lat="33.400373" lon="126.900196">
         <ele>20</ele>
      </rtept>
      <rtept lat="33.400354" lon="126.899943">
         <ele>20</ele>
      </rtept>
      <rtept lat="33.400385" lon="126.899834">
         <ele>20</ele>
      </rtept>
      <rtept lat="33.400467" lon="126.899649">
         <ele>20</ele>
      </rtept>
      <rtept lat="33.400634" lon="126.899449">
         <ele>20</ele>
      </rtept>
      <rtept lat="33.400761" lon="126.899091">
         <ele>20</ele>
      </rtept>
      <rtept lat="33.400811" lon="126.899038">
         <ele>20</ele>
      </rtept>
      <rtept lat="33.400836" lon="126.898959">
         <ele>20</ele>
      </rtept>
      <rtept lat="33.401011" lon="126.898623">
         <ele>20</ele>
      </rtept>
      <rtept lat="33.401045" lon="126.898522">
         <ele>20</ele>
      </rtept>
      <rtept lat="33.401049" lon="126.898448">
         <ele>20</ele>
      </rtept>
      <rtept lat="33.400993" lon="126.898341">
         <ele>20</ele>
      </rtept>
      <rtept lat="33.400767" lon="126.898229">
         <ele>20</ele>
      </rtept>
      <rtept lat="33.400684" lon="126.898113">
         <ele>20</ele>
      </rtept>
      <rtept lat="33.400655" lon="126.898001">
         <ele>20</ele>
      </rtept>
      <rtept lat="33.400657" lon="126.897668">
         <ele>20</ele>
      </rtept>
      <rtept lat="33.400614" lon="126.897583">
         <ele>20</ele>
      </rtept>
      <rtept lat="33.400543" lon="126.89752">
         <ele>20</ele>
      </rtept>
      <rtept lat="33.400392" lon="126.897292">
         <ele>20</ele>
      </rtept>
      <rtept lat="33.400186" lon="126.896828">
         <ele>20</ele>
      </rtept>
      <rtept lat="33.40013" lon="126.896784">
         <ele>20</ele>
      </rtept>
      <rtept lat="33.400056" lon="126.896683">
         <ele>20</ele>
      </rtept>
      <rtept lat="33.399854" lon="126.89568">
         <ele>20</ele>
      </rtept>
      <rtept lat="33.399793" lon="126.895467">
         <ele>20</ele>
      </rtept>
      <rtept lat="33.399716" lon="126.895291">
         <ele>20</ele>
      </rtept>
      <rtept lat="33.399734" lon="126.895124">
         <ele>20</ele>
      </rtept>
      <rtept lat="33.399668" lon="126.895099">
         <ele>20</ele>
      </rtept>
      <rtept lat="33.399631" lon="126.895085" />
      <rtept lat="33.399683" lon="126.894886" />
      <rtept lat="33.39951" lon="126.894825" />
      <rtept lat="33.399451" lon="126.894804" />
      <rtept lat="33.399468" lon="126.894724" />
      <rtept lat="33.399352" lon="126.894259" />
      <rtept lat="33.399363" lon="126.893982" />
      <rtept lat="33.399347" lon="126.89393" />
      <rtept lat="33.399248" lon="126.893778" />
      <rtept lat="33.399189" lon="126.893613" />
      <rtept lat="33.399144" lon="126.893356" />
      <rtept lat="33.399132" lon="126.893116" />
      <rtept lat="33.399146" lon="126.892956">
         <ele>30</ele>
      </rtept>
      <rtept lat="33.399251" lon="126.892547">
         <ele>30</ele>
      </rtept>
      <rtept lat="33.399378" lon="126.892242">
         <ele>30</ele>
      </rtept>
      <rtept lat="33.399527" lon="126.892014">
         <ele>30</ele>
      </rtept>
      <rtept lat="33.399671" lon="126.89188">
         <ele>30</ele>
      </rtept>
      <rtept lat="33.399846" lon="126.891674">
         <ele>30</ele>
      </rtept>
      <rtept lat="33.399741" lon="126.89153">
         <ele>30</ele>
      </rtept>
      <rtept lat="33.399556" lon="126.891102">
         <ele>30</ele>
      </rtept>
      <rtept lat="33.399473" lon="126.890611">
         <ele>30</ele>
      </rtept>
      <rtept lat="33.399322" lon="126.89019">
         <ele>30</ele>
      </rtept>
      <rtept lat="33.399278" lon="126.890123">
         <ele>30</ele>
      </rtept>
      <rtept lat="33.399111" lon="126.88998">
         <ele>30</ele>
      </rtept>
      <rtept lat="33.399079" lon="126.889903">
         <ele>30</ele>
      </rtept>
      <rtept lat="33.399068" lon="126.88978">
         <ele>30</ele>
      </rtept>
      <rtept lat="33.399101" lon="126.889445">
         <ele>30</ele>
      </rtept>
      <rtept lat="33.39899" lon="126.888989">
         <ele>30</ele>
      </rtept>
      <rtept lat="33.399096" lon="126.888202">
         <ele>40</ele>
      </rtept>
      <rtept lat="33.398874" lon="126.887988">
         <ele>40</ele>
      </rtept>
      <rtept lat="33.398545" lon="126.88779">
         <ele>40</ele>
      </rtept>
      <rtept lat="33.398473" lon="126.887232">
         <ele>40</ele>
      </rtept>
      <rtept lat="33.398301" lon="126.886829">
         <ele>40</ele>
      </rtept>
      <rtept lat="33.397964" lon="126.88646">
         <ele>40</ele>
      </rtept>
      <rtept lat="33.3979" lon="126.886142">
         <ele>40</ele>
      </rtept>
      <rtept lat="33.39785" lon="126.885893" />
      <rtept lat="33.398093" lon="126.884692" />
      <rtept lat="33.398" lon="126.884434" />
      <rtept lat="33.397262" lon="126.883885" />
      <rtept lat="33.396975" lon="126.883782" />
      <rtept lat="33.396833" lon="126.883337" />
      <rtept lat="33.396217" lon="126.882982" />
      <rtept lat="33.395965" lon="126.883001" />
      <rtept lat="33.395621" lon="126.882701" />
      <rtept lat="33.395542" lon="126.882374" />
      <rtept lat="33.395427" lon="126.88234" />
      <rtept lat="33.39494" lon="126.882718">
         <ele>30</ele>
      </rtept>
      <rtept lat="33.39456" lon="126.882915">
         <ele>30</ele>
      </rtept>
      <rtept lat="33.39427" lon="126.882823">
         <ele>30</ele>
      </rtept>
      <rtept lat="33.393852" lon="126.882392">
         <ele>30</ele>
      </rtept>
      <rtept lat="33.393758" lon="126.882371">
         <ele>30</ele>
      </rtept>
      <rtept lat="33.393541" lon="126.882047">
         <ele>30</ele>
      </rtept>
      <rtept lat="33.39348" lon="126.881932">
         <ele>30</ele>
      </rtept>
      <rtept lat="33.393462" lon="126.881821">
         <ele>30</ele>
      </rtept>
      <rtept lat="33.39349" lon="126.881602">
         <ele>30</ele>
      </rtept>
      <rtept lat="33.393693" lon="126.880975">
         <ele>30</ele>
      </rtept>
      <rtept lat="33.393684" lon="126.880886">
         <ele>30</ele>
      </rtept>
      <rtept lat="33.393578" lon="126.88056">
         <ele>30</ele>
      </rtept>
      <rtept lat="33.393613" lon="126.880374">
         <ele>30</ele>
      </rtept>
      <rtept lat="33.393442" lon="126.879959">
         <ele>30</ele>
      </rtept>
      <rtept lat="33.39339" lon="126.879886">
         <ele>30</ele>
      </rtept>
      <rtept lat="33.393295" lon="126.879833">
         <ele>30</ele>
      </rtept>
      <rtept lat="33.393065" lon="126.87977">
         <ele>30</ele>
      </rtept>
      <rtept lat="33.392858" lon="126.879739">
         <ele>30</ele>
      </rtept>
      <rtept lat="33.392705" lon="126.879661">
         <ele>30</ele>
      </rtept>
      <rtept lat="33.392425" lon="126.87913">
         <ele>30</ele>
      </rtept>
      <rtept lat="33.392235" lon="126.878865">
         <ele>30</ele>
      </rtept>
      <rtept lat="33.392115" lon="126.878791">
         <ele>30</ele>
      </rtept>
      <rtept lat="33.391995" lon="126.878784">
         <ele>30</ele>
      </rtept>
      <rtept lat="33.391898" lon="126.878736">
         <ele>30</ele>
      </rtept>
      <rtept lat="33.391839" lon="126.878644">
         <ele>30</ele>
      </rtept>
      <rtept lat="33.391831" lon="126.878561">
         <ele>30</ele>
      </rtept>
      <rtept lat="33.391851" lon="126.878501">
         <ele>30</ele>
      </rtept>
      <rtept lat="33.392264" lon="126.878611">
         <ele>30</ele>
      </rtept>
      <rtept lat="33.392497" lon="126.878638">
         <ele>30</ele>
      </rtept>
      <rtept lat="33.392762" lon="126.878639">
         <ele>30</ele>
      </rtept>
      <rtept lat="33.392762" lon="126.878512">
         <ele>30</ele>
      </rtept>
      <rtept lat="33.392727" lon="126.878388">
         <ele>30</ele>
      </rtept>
      <rtept lat="33.392718" lon="126.878217">
         <ele>30</ele>
      </rtept>
      <rtept lat="33.392776" lon="126.877981">
         <ele>30</ele>
      </rtept>
      <rtept lat="33.392828" lon="126.877862">
         <ele>30</ele>
      </rtept>
      <rtept lat="33.393165" lon="126.877415">
         <ele>30</ele>
      </rtept>
      <rtept lat="33.393261" lon="126.877228">
         <ele>30</ele>
      </rtept>
      <rtept lat="33.393471" lon="126.8769">
         <ele>30</ele>
      </rtept>
      <rtept lat="33.393491" lon="126.876749">
         <ele>30</ele>
      </rtept>
      <rtept lat="33.39343" lon="126.87654">
         <ele>30</ele>
      </rtept>
      <rtept lat="33.393437" lon="126.876434">
         <ele>30</ele>
      </rtept>
      <rtept lat="33.393503" lon="126.876347">
         <ele>34.01351</ele>
      </rtept>
      <rtept lat="33.393546" lon="126.876317">
         <ele>34.32434</ele>
      </rtept>
      <rtept lat="33.393668" lon="126.876143">
         <ele>35.7455</ele>
      </rtept>
      <rtept lat="33.39379" lon="126.875782">
         <ele>40</ele>
      </rtept>
      <rtept lat="33.393889" lon="126.875664">
         <ele>40</ele>
      </rtept>
      <rtept lat="33.394041" lon="126.875376">
         <ele>40</ele>
      </rtept>
      <rtept lat="33.394151" lon="126.875321">
         <ele>40</ele>
      </rtept>
      <rtept lat="33.394351" lon="126.875262">
         <ele>40</ele>
      </rtept>
      <rtept lat="33.394417" lon="126.875212">
         <ele>40</ele>
      </rtept>
      <rtept lat="33.394449" lon="126.87516">
         <ele>40</ele>
      </rtept>
      <rtept lat="33.394533" lon="126.874659">
         <ele>40</ele>
      </rtept>
      <rtept lat="33.39465" lon="126.874125">
         <ele>50</ele>
      </rtept>
      <rtept lat="33.394633" lon="126.873977">
         <ele>50</ele>
      </rtept>
      <rtept lat="33.394553" lon="126.873791">
         <ele>50</ele>
      </rtept>
      <rtept lat="33.394481" lon="126.873404">
         <ele>50</ele>
      </rtept>
      <rtept lat="33.394329" lon="126.872981">
         <ele>50</ele>
      </rtept>
      <rtept lat="33.394572" lon="126.872749">
         <ele>50</ele>
      </rtept>
      <rtept lat="33.394637" lon="126.872713">
         <ele>50</ele>
      </rtept>
      <rtept lat="33.394917" lon="126.872675">
         <ele>50</ele>
      </rtept>
      <rtept lat="33.395018" lon="126.872609">
         <ele>50</ele>
      </rtept>
      <rtept lat="33.395118" lon="126.872408">
         <ele>50</ele>
      </rtept>
      <rtept lat="33.39513" lon="126.872341">
         <ele>50</ele>
      </rtept>
      <rtept lat="33.39508" lon="126.87184">
         <ele>60</ele>
      </rtept>
      <rtept lat="33.395088" lon="126.871778">
         <ele>60</ele>
      </rtept>
      <rtept lat="33.395176" lon="126.871638">
         <ele>60</ele>
      </rtept>
      <rtept lat="33.395328" lon="126.871552">
         <ele>60</ele>
      </rtept>
      <rtept lat="33.39606" lon="126.871306">
         <ele>60</ele>
      </rtept>
      <rtept lat="33.396242" lon="126.871267">
         <ele>60</ele>
      </rtept>
      <rtept lat="33.396325" lon="126.871289">
         <ele>60</ele>
      </rtept>
      <rtept lat="33.396637" lon="126.871455">
         <ele>60</ele>
      </rtept>
      <rtept lat="33.396699" lon="126.871477">
         <ele>60</ele>
      </rtept>
      <rtept lat="33.396791" lon="126.87147">
         <ele>60</ele>
      </rtept>
      <rtept lat="33.397065" lon="126.871321">
         <ele>60</ele>
      </rtept>
      <rtept lat="33.397135" lon="126.871246">
         <ele>60</ele>
      </rtept>
      <rtept lat="33.397236" lon="126.871077">
         <ele>60</ele>
      </rtept>
      <rtept lat="33.397359" lon="126.870975">
         <ele>60</ele>
      </rtept>
      <rtept lat="33.397453" lon="126.870948">
         <ele>60</ele>
      </rtept>
      <rtept lat="33.397681" lon="126.870795">
         <ele>60</ele>
      </rtept>
      <rtept lat="33.397922" lon="126.870726">
         <ele>60</ele>
      </rtept>
      <rtept lat="33.398111" lon="126.870464">
         <ele>60</ele>
      </rtept>
      <rtept lat="33.398201" lon="126.870394">
         <ele>60</ele>
      </rtept>
      <rtept lat="33.398148" lon="126.870027">
         <ele>60</ele>
      </rtept>
      <rtept lat="33.397997" lon="126.869323">
         <ele>60</ele>
      </rtept>
      <rtept lat="33.398079" lon="126.869092">
         <ele>70</ele>
      </rtept>
      <rtept lat="33.398212" lon="126.868828">
         <ele>70</ele>
      </rtept>
      <rtept lat="33.398372" lon="126.868641">
         <ele>70</ele>
      </rtept>
      <rtept lat="33.39843" lon="126.868437">
         <ele>70</ele>
      </rtept>
      <rtept lat="33.398408" lon="126.868351">
         <ele>70</ele>
      </rtept>
      <rtept lat="33.398629" lon="126.86824">
         <ele>70</ele>
      </rtept>
      <rtept lat="33.399061" lon="126.867957">
         <ele>70</ele>
      </rtept>
      <rtept lat="33.398789" lon="126.867265">
         <ele>70</ele>
      </rtept>
      <rtept lat="33.398733" lon="126.867018">
         <ele>70</ele>
      </rtept>
      <rtept lat="33.398554" lon="126.866724">
         <ele>70</ele>
      </rtept>
      <rtept lat="33.39853" lon="126.866512">
         <ele>70</ele>
      </rtept>
      <rtept lat="33.398545" lon="126.866343">
         <ele>70</ele>
      </rtept>
      <rtept lat="33.398507" lon="126.866262">
         <ele>70</ele>
      </rtept>
      <rtept lat="33.397837" lon="126.865392">
         <ele>70</ele>
      </rtept>
      <rtept lat="33.397768" lon="126.864706">
         <ele>80</ele>
      </rtept>
      <rtept lat="33.397954" lon="126.863921">
         <ele>80</ele>
      </rtept>
      <rtept lat="33.397616" lon="126.863256">
         <ele>80</ele>
      </rtept>
      <rtept lat="33.397372" lon="126.862837">
         <ele>80</ele>
      </rtept>
      <rtept lat="33.39712" lon="126.862491">
         <ele>80</ele>
      </rtept>
      <rtept lat="33.397044" lon="126.862358">
         <ele>80</ele>
      </rtept>
      <rtept lat="33.396903" lon="126.862014">
         <ele>80</ele>
      </rtept>
      <rtept lat="33.396776" lon="126.86157">
         <ele>80</ele>
      </rtept>
      <rtept lat="33.396716" lon="126.861434">
         <ele>80</ele>
      </rtept>
      <rtept lat="33.396664" lon="126.861349">
         <ele>80</ele>
      </rtept>
      <rtept lat="33.396558" lon="126.861264">
         <ele>80</ele>
      </rtept>
      <rtept lat="33.396269" lon="126.860622">
         <ele>80</ele>
      </rtept>
      <rtept lat="33.396224" lon="126.860229">
         <ele>90</ele>
      </rtept>
      <rtept lat="33.396311" lon="126.860134">
         <ele>90</ele>
      </rtept>
      <rtept lat="33.395995" lon="126.859953">
         <ele>90</ele>
      </rtept>
      <rtept lat="33.39611" lon="126.859631">
         <ele>90</ele>
      </rtept>
      <rtept lat="33.396175" lon="126.859529">
         <ele>90</ele>
      </rtept>
      <rtept lat="33.396238" lon="126.85945">
         <ele>90</ele>
      </rtept>
      <rtept lat="33.39639" lon="126.85936">
         <ele>90</ele>
      </rtept>
      <rtept lat="33.396462" lon="126.859271">
         <ele>90</ele>
      </rtept>
      <rtept lat="33.39649" lon="126.859195">
         <ele>90</ele>
      </rtept>
      <rtept lat="33.396508" lon="126.859018">
         <ele>90</ele>
      </rtept>
      <rtept lat="33.39649" lon="126.858819">
         <ele>90</ele>
      </rtept>
      <rtept lat="33.396498" lon="126.858759">
         <ele>90</ele>
      </rtept>
      <rtept lat="33.396911" lon="126.858213">
         <ele>90</ele>
      </rtept>
      <rtept lat="33.396732" lon="126.857853">
         <ele>90</ele>
      </rtept>
      <rtept lat="33.396578" lon="126.857587">
         <ele>100</ele>
      </rtept>
      <rtept lat="33.396582" lon="126.857255">
         <ele>100</ele>
      </rtept>
      <rtept lat="33.396779" lon="126.856952">
         <ele>100</ele>
      </rtept>
      <rtept lat="33.396918" lon="126.856737">
         <ele>100</ele>
      </rtept>
      <rtept lat="33.396925" lon="126.856349">
         <ele>100</ele>
      </rtept>
      <rtept lat="33.396574" lon="126.85581">
         <ele>104.0019</ele>
      </rtept>
      <rtept lat="33.3965" lon="126.855286">
         <ele>106.3858</ele>
      </rtept>
      <rtept lat="33.396494" lon="126.854261">
         <ele>104.5239</ele>
      </rtept>
      <rtept lat="33.396395" lon="126.854222">
         <ele>105.9856</ele>
      </rtept>
      <rtept lat="33.39615" lon="126.854249">
         <ele>109.8361</ele>
      </rtept>
      <rtept lat="33.395876" lon="126.854211">
         <ele>113.39</ele>
      </rtept>
      <rtept lat="33.395614" lon="126.854047">
         <ele>115.701</ele>
      </rtept>
      <rtept lat="33.395406" lon="126.853975">
         <ele>117.1222</ele>
      </rtept>
      <rtept lat="33.395317" lon="126.854026">
         <ele>118.0661</ele>
      </rtept>
      <rtept lat="33.395108" lon="126.854243">
         <ele>120</ele>
      </rtept>
      <rtept lat="33.395012" lon="126.854436">
         <ele>120</ele>
      </rtept>
      <rtept lat="33.394925" lon="126.854611">
         <ele>120</ele>
      </rtept>
      <rtept lat="33.3946" lon="126.855643">
         <ele>124.2041</ele>
      </rtept>
      <rtept lat="33.394179" lon="126.855791">
         <ele>125.0956</ele>
      </rtept>
      <rtept lat="33.393706" lon="126.855853">
         <ele>124.551</ele>
      </rtept>
      <rtept lat="33.392811" lon="126.855759">
         <ele>120</ele>
      </rtept>
      <rtept lat="33.392412" lon="126.855802">
         <ele>120</ele>
      </rtept>
      <rtept lat="33.392177" lon="126.855737">
         <ele>120</ele>
      </rtept>
      <rtept lat="33.392002" lon="126.855633">
         <ele>115.8057</ele>
      </rtept>
      <rtept lat="33.39181" lon="126.855437">
         <ele>110</ele>
      </rtept>
      <rtept lat="33.391684" lon="126.855161">
         <ele>110</ele>
      </rtept>
      <rtept lat="33.391548" lon="126.854659">
         <ele>110</ele>
      </rtept>
      <rtept lat="33.391556" lon="126.854127">
         <ele>114.1317</ele>
      </rtept>
      <rtept lat="33.391421" lon="126.854109">
         <ele>112.828</ele>
      </rtept>
      <rtept lat="33.390863" lon="126.854018">
         <ele>110</ele>
      </rtept>
      <rtept lat="33.390705" lon="126.854056">
         <ele>110</ele>
      </rtept>
      <rtept lat="33.3906" lon="126.854086">
         <ele>110</ele>
      </rtept>
      <rtept lat="33.390547" lon="126.854161">
         <ele>110</ele>
      </rtept>
      <rtept lat="33.390597" lon="126.854422">
         <ele>110</ele>
      </rtept>
      <rtept lat="33.390522" lon="126.854449">
         <ele>110</ele>
      </rtept>
      <rtept lat="33.390453" lon="126.85437">
         <ele>110</ele>
      </rtept>
      <rtept lat="33.390266" lon="126.854391">
         <ele>114.1579</ele>
      </rtept>
      <rtept lat="33.390239" lon="126.854415">
         <ele>114.6605</ele>
      </rtept>
      <rtept lat="33.389958" lon="126.855654">
         <ele>119.042</ele>
      </rtept>
      <rtept lat="33.38986" lon="126.856168">
         <ele>119.9303</ele>
      </rtept>
      <rtept lat="33.38971" lon="126.856457">
         <ele>121.1116</ele>
      </rtept>
      <rtept lat="33.389587" lon="126.856653">
         <ele>121.4324</ele>
      </rtept>
      <rtept lat="33.389511" lon="126.856745">
         <ele>121.5463</ele>
      </rtept>
      <rtept lat="33.388685" lon="126.857437">
         <ele>120</ele>
      </rtept>
      <rtept lat="33.388608" lon="126.857276">
         <ele>121.7322</ele>
      </rtept>
      <rtept lat="33.388562" lon="126.857072">
         <ele>123.9486</ele>
      </rtept>
      <rtept lat="33.388562" lon="126.856574">
         <ele>129.1732</ele>
      </rtept>
      <rtept lat="33.388469" lon="126.856239">
         <ele>130</ele>
      </rtept>
      <rtept lat="33.388577" lon="126.855964">
         <ele>130</ele>
      </rtept>
      <rtept lat="33.389017" lon="126.855475">
         <ele>130</ele>
      </rtept>
      <rtept lat="33.389072" lon="126.855268">
         <ele>130</ele>
      </rtept>
      <rtept lat="33.389059" lon="126.855064">
         <ele>130</ele>
      </rtept>
      <rtept lat="33.389126" lon="126.854869">
         <ele>130</ele>
      </rtept>
      <rtept lat="33.389049" lon="126.854413">
         <ele>130</ele>
      </rtept>
      <rtept lat="33.388827" lon="126.853632">
         <ele>128.3464</ele>
      </rtept>
      <rtept lat="33.388291" lon="126.85325">
         <ele>123.3105</ele>
      </rtept>
      <rtept lat="33.388008" lon="126.853312">
         <ele>120.9722</ele>
      </rtept>
      <rtept lat="33.387808" lon="126.853417">
         <ele>119.8494</ele>
      </rtept>
      <rtept lat="33.387358" lon="126.853836">
         <ele>117.9613</ele>
      </rtept>
      <rtept lat="33.387065" lon="126.854368">
         <ele>118.0704</ele>
      </rtept>
      <rtept lat="33.386864" lon="126.854797">
         <ele>116.1998</ele>
      </rtept>
      <rtept lat="33.386807" lon="126.855329">
         <ele>116.6932</ele>
      </rtept>
      <rtept lat="33.386577" lon="126.855621">
         <ele>110.5681</ele>
      </rtept>
      <rtept lat="33.386276" lon="126.855633">
         <ele>102.2477</ele>
      </rtept>
      <rtept lat="33.386016" lon="126.855558">
         <ele>95.44569</ele>
      </rtept>
      <rtept lat="33.385765" lon="126.855354">
         <ele>88.50758</ele>
      </rtept>
      <rtept lat="33.385438" lon="126.855132">
         <ele>80.72739</ele>
      </rtept>
      <rtept lat="33.385123" lon="126.854985">
         <ele>76.2034</ele>
      </rtept>
      <rtept lat="33.384997" lon="126.854752">
         <ele>73.38713</ele>
      </rtept>
      <rtept lat="33.38467" lon="126.854984">
         <ele>72.06033</ele>
      </rtept>
      <rtept lat="33.384251" lon="126.855169">
         <ele>70</ele>
      </rtept>
      <rtept lat="33.384174" lon="126.855231">
         <ele>70</ele>
      </rtept>
      <rtept lat="33.384137" lon="126.855295">
         <ele>70</ele>
      </rtept>
      <rtept lat="33.38393" lon="126.85551">
         <ele>70.29013</ele>
      </rtept>
      <rtept lat="33.383431" lon="126.855836">
         <ele>70</ele>
      </rtept>
      <rtept lat="33.382213" lon="126.856259">
         <ele>63.78082</ele>
      </rtept>
      <rtept lat="33.382107" lon="126.85623">
         <ele>62.79929</ele>
      </rtept>
      <rtept lat="33.382049" lon="126.856385">
         <ele>63.2622</ele>
      </rtept>
      <rtept lat="33.382009" lon="126.856691">
         <ele>64.52695</ele>
      </rtept>
      <rtept lat="33.382011" lon="126.856781">
         <ele>64.9508</ele>
      </rtept>
      <rtept lat="33.382256" lon="126.85746">
         <ele>70</ele>
      </rtept>
      <rtept lat="33.382272" lon="126.857571">
         <ele>70</ele>
      </rtept>
      <rtept lat="33.38227" lon="126.857728">
         <ele>70</ele>
      </rtept>
      <rtept lat="33.382118" lon="126.858412">
         <ele>70</ele>
      </rtept>
      <rtept lat="33.382134" lon="126.858765">
         <ele>70</ele>
      </rtept>
      <rtept lat="33.382114" lon="126.858815">
         <ele>70</ele>
      </rtept>
      <rtept lat="33.382025" lon="126.858888">
         <ele>70</ele>
      </rtept>
      <rtept lat="33.382003" lon="126.858951">
         <ele>70</ele>
      </rtept>
      <rtept lat="33.382105" lon="126.859557">
         <ele>70</ele>
      </rtept>
      <rtept lat="33.382279" lon="126.860164">
         <ele>70</ele>
      </rtept>
      <rtept lat="33.38227" lon="126.860275">
         <ele>70</ele>
      </rtept>
      <rtept lat="33.382249" lon="126.860329">
         <ele>70</ele>
      </rtept>
      <rtept lat="33.38221" lon="126.860383">
         <ele>70</ele>
      </rtept>
      <rtept lat="33.382078" lon="126.860477">
         <ele>70</ele>
      </rtept>
      <rtept lat="33.382169" lon="126.860713">
         <ele>70</ele>
      </rtept>
      <rtept lat="33.382187" lon="126.860842">
         <ele>70</ele>
      </rtept>
      <rtept lat="33.382157" lon="126.860918">
         <ele>70</ele>
      </rtept>
      <rtept lat="33.382127" lon="126.860968">
         <ele>70</ele>
      </rtept>
      <rtept lat="33.381867" lon="126.861111">
         <ele>70</ele>
      </rtept>
      <rtept lat="33.381825" lon="126.861173">
         <ele>70</ele>
      </rtept>
      <rtept lat="33.381768" lon="126.861326">
         <ele>70</ele>
      </rtept>
      <rtept lat="33.381737" lon="126.861474">
         <ele>70</ele>
      </rtept>
      <rtept lat="33.381741" lon="126.861758">
         <ele>70</ele>
      </rtept>
      <rtept lat="33.381481" lon="126.861879">
         <ele>70</ele>
      </rtept>
      <rtept lat="33.381108" lon="126.861994">
         <ele>60</ele>
      </rtept>
      <rtept lat="33.380937" lon="126.862066">
         <ele>60</ele>
      </rtept>
      <rtept lat="33.380405" lon="126.862218">
         <ele>60</ele>
      </rtept>
      <rtept lat="33.38033" lon="126.862253">
         <ele>60</ele>
      </rtept>
      <rtept lat="33.380242" lon="126.86232">
         <ele>60</ele>
      </rtept>
      <rtept lat="33.38014" lon="126.862546">
         <ele>60</ele>
      </rtept>
      <rtept lat="33.38006" lon="126.862941">
         <ele>60</ele>
      </rtept>
      <rtept lat="33.37996" lon="126.863167">
         <ele>60</ele>
      </rtept>
      <rtept lat="33.379799" lon="126.863346">
         <ele>50</ele>
      </rtept>
      <rtept lat="33.379468" lon="126.864">
         <ele>50</ele>
      </rtept>
      <rtept lat="33.379148" lon="126.864511">
         <ele>50</ele>
      </rtept>
      <rtept lat="33.379051" lon="126.864606">
         <ele>50</ele>
      </rtept>
      <rtept lat="33.378893" lon="126.864718">
         <ele>50</ele>
      </rtept>
      <rtept lat="33.378682" lon="126.864929">
         <ele>40</ele>
      </rtept>
      <rtept lat="33.378463" lon="126.865234">
         <ele>40</ele>
      </rtept>
      <rtept lat="33.378142" lon="126.865474">
         <ele>40</ele>
      </rtept>
      <rtept lat="33.377878" lon="126.865607">
         <ele>40</ele>
      </rtept>
      <rtept lat="33.377767" lon="126.86564">
         <ele>40</ele>
      </rtept>
      <rtept lat="33.377701" lon="126.865689">
         <ele>40</ele>
      </rtept>
      <rtept lat="33.377552" lon="126.865416">
         <ele>40</ele>
      </rtept>
      <rtept lat="33.377366" lon="126.86485">
         <ele>40</ele>
      </rtept>
      <rtept lat="33.377229" lon="126.864559">
         <ele>40</ele>
      </rtept>
      <rtept lat="33.377156" lon="126.863816">
         <ele>40</ele>
      </rtept>
      <rtept lat="33.377153" lon="126.863535">
         <ele>40</ele>
      </rtept>
      <rtept lat="33.377097" lon="126.863279">
         <ele>40</ele>
      </rtept>
      <rtept lat="33.377059" lon="126.863214">
         <ele>40</ele>
      </rtept>
      <rtept lat="33.37676" lon="126.86298">
         <ele>40</ele>
      </rtept>
      <rtept lat="33.376464" lon="126.862685">
         <ele>40</ele>
      </rtept>
      <rtept lat="33.37636" lon="126.862534">
         <ele>40</ele>
      </rtept>
      <rtept lat="33.37651" lon="126.862161">
         <ele>40</ele>
      </rtept>
      <rtept lat="33.376604" lon="126.861855">
         <ele>40</ele>
      </rtept>
      <rtept lat="33.37665" lon="126.86138">
         <ele>40</ele>
      </rtept>
      <rtept lat="33.376626" lon="126.861026">
         <ele>40</ele>
      </rtept>
      <rtept lat="33.376567" lon="126.860755">
         <ele>40</ele>
      </rtept>
      <rtept lat="33.376478" lon="126.860543">
         <ele>40</ele>
      </rtept>
      <rtept lat="33.376337" lon="126.860427">
         <ele>40</ele>
      </rtept>
      <rtept lat="33.375859" lon="126.860147">
         <ele>40</ele>
      </rtept>
      <rtept lat="33.375946" lon="126.859749">
         <ele>40</ele>
      </rtept>
      <rtept lat="33.37596" lon="126.859603">
         <ele>40</ele>
      </rtept>
      <rtept lat="33.375997" lon="126.859506">
         <ele>40</ele>
      </rtept>
      <rtept lat="33.376035" lon="126.859455">
         <ele>40</ele>
      </rtept>
      <rtept lat="33.376104" lon="126.859408">
         <ele>40</ele>
      </rtept>
      <rtept lat="33.376428" lon="126.85923">
         <ele>40</ele>
      </rtept>
      <rtept lat="33.376521" lon="126.859121">
         <ele>40</ele>
      </rtept>
      <rtept lat="33.376651" lon="126.85886">
         <ele>40</ele>
      </rtept>
      <rtept lat="33.376545" lon="126.858803">
         <ele>40</ele>
      </rtept>
      <rtept lat="33.376498" lon="126.858749">
         <ele>40</ele>
      </rtept>
      <rtept lat="33.37645" lon="126.858642">
         <ele>40</ele>
      </rtept>
      <rtept lat="33.376395" lon="126.858444">
         <ele>40</ele>
      </rtept>
      <rtept lat="33.376304" lon="126.85798">
         <ele>40</ele>
      </rtept>
      <rtept lat="33.376323" lon="126.857888">
         <ele>40</ele>
      </rtept>
      <rtept lat="33.376225" lon="126.857639">
         <ele>50</ele>
      </rtept>
      <rtept lat="33.376263" lon="126.857476">
         <ele>50</ele>
      </rtept>
      <rtept lat="33.376336" lon="126.85731">
         <ele>50</ele>
      </rtept>
      <rtept lat="33.3762" lon="126.857085">
         <ele>50</ele>
      </rtept>
      <rtept lat="33.375936" lon="126.856542">
         <ele>50</ele>
      </rtept>
      <rtept lat="33.375669" lon="126.85607">
         <ele>50</ele>
      </rtept>
      <rtept lat="33.375224" lon="126.855388">
         <ele>50</ele>
      </rtept>
      <rtept lat="33.375095" lon="126.855141">
         <ele>50</ele>
      </rtept>
      <rtept lat="33.374954" lon="126.854935">
         <ele>50</ele>
      </rtept>
      <rtept lat="33.374766" lon="126.854708">
         <ele>50</ele>
      </rtept>
      <rtept lat="33.374706" lon="126.8546">
         <ele>50</ele>
      </rtept>
      <rtept lat="33.374503" lon="126.85444">
         <ele>50</ele>
      </rtept>
      <rtept lat="33.374412" lon="126.854258">
         <ele>50</ele>
      </rtept>
      <rtept lat="33.374262" lon="126.854112">
         <ele>50</ele>
      </rtept>
      <rtept lat="33.374183" lon="126.854006">
         <ele>50</ele>
      </rtept>
      <rtept lat="33.374111" lon="126.853742">
         <ele>50</ele>
      </rtept>
      <rtept lat="33.374092" lon="126.853565">
         <ele>50</ele>
      </rtept>
      <rtept lat="33.374181" lon="126.852673">
         <ele>50</ele>
      </rtept>
      <rtept lat="33.374177" lon="126.852555">
         <ele>50</ele>
      </rtept>
      <rtept lat="33.374006" lon="126.852249">
         <ele>50</ele>
      </rtept>
      <rtept lat="33.374044" lon="126.85217">
         <ele>50</ele>
      </rtept>
      <rtept lat="33.37384" lon="126.852046">
         <ele>50</ele>
      </rtept>
      <rtept lat="33.373552" lon="126.852094">
         <ele>50</ele>
      </rtept>
      <rtept lat="33.373278" lon="126.852089">
         <ele>50</ele>
      </rtept>
      <rtept lat="33.372481" lon="126.854295">
         <ele>50</ele>
      </rtept>
      <rtept lat="33.372295" lon="126.854988">
         <ele>50</ele>
      </rtept>
      <rtept lat="33.37214" lon="126.855843">
         <ele>40</ele>
      </rtept>
      <rtept lat="33.372033" lon="126.856714">
         <ele>40</ele>
      </rtept>
      <rtept lat="33.371867" lon="126.857626">
         <ele>30</ele>
      </rtept>
      <rtept lat="33.371812" lon="126.85949">
         <ele>30</ele>
      </rtept>
      <rtept lat="33.371424" lon="126.860819">
         <ele>30</ele>
      </rtept>
      <rtept lat="33.371349" lon="126.860763">
         <ele>30</ele>
      </rtept>
      <rtept lat="33.371283" lon="126.860661">
         <ele>30</ele>
      </rtept>
      <rtept lat="33.371186" lon="126.86045">
         <ele>30</ele>
      </rtept>
      <rtept lat="33.37068" lon="126.859779">
         <ele>30</ele>
      </rtept>
      <rtept lat="33.370514" lon="126.859617">
         <ele>30</ele>
      </rtept>
      <rtept lat="33.370239" lon="126.859277">
         <ele>30</ele>
      </rtept>
      <rtept lat="33.370167" lon="126.859266">
         <ele>30</ele>
      </rtept>
      <rtept lat="33.370098" lon="126.859202">
         <ele>30</ele>
      </rtept>
      <rtept lat="33.369968" lon="126.858857">
         <ele>30</ele>
      </rtept>
      <rtept lat="33.369854" lon="126.858693">
         <ele>30</ele>
      </rtept>
      <rtept lat="33.369801" lon="126.858671">
         <ele>30</ele>
      </rtept>
      <rtept lat="33.369614" lon="126.858333">
         <ele>30</ele>
      </rtept>
      <rtept lat="33.369451" lon="126.858418">
         <ele>30</ele>
      </rtept>
      <rtept lat="33.369368" lon="126.858444">
         <ele>30</ele>
      </rtept>
      <rtept lat="33.368866" lon="126.858531">
         <ele>30</ele>
      </rtept>
      <rtept lat="33.368645" lon="126.858567" />
      <rtept lat="33.368566" lon="126.858622" />
      <rtept lat="33.368336" lon="126.858959" />
      <rtept lat="33.368062" lon="126.859685" />
      <rtept lat="33.367991" lon="126.859813" />
      <rtept lat="33.367947" lon="126.859853" />
      <rtept lat="33.367841" lon="126.859878" />
      <rtept lat="33.367676" lon="126.859835" />
      <rtept lat="33.367608" lon="126.859846" />
      <rtept lat="33.366986" lon="126.860239" />
      <rtept lat="33.366894" lon="126.860276" />
      <rtept lat="33.366749" lon="126.860279" />
      <rtept lat="33.366655" lon="126.860303" />
      <rtept lat="33.366557" lon="126.860404" />
      <rtept lat="33.366341" lon="126.860216" />
      <rtept lat="33.366259" lon="126.860185" />
      <rtept lat="33.365555" lon="126.859977" />
      <rtept lat="33.365457" lon="126.859927" />
      <rtept lat="33.36513" lon="126.859912">
         <ele>30</ele>
      </rtept>
      <rtept lat="33.365053" lon="126.859892">
         <ele>30</ele>
      </rtept>
      <rtept lat="33.364914" lon="126.859825">
         <ele>30</ele>
      </rtept>
      <rtept lat="33.364855" lon="126.859742">
         <ele>30</ele>
      </rtept>
      <rtept lat="33.364668" lon="126.859334">
         <ele>30</ele>
      </rtept>
      <rtept lat="33.364494" lon="126.859729">
         <ele>30</ele>
      </rtept>
      <rtept lat="33.364475" lon="126.85985">
         <ele>30</ele>
      </rtept>
      <rtept lat="33.364484" lon="126.859955">
         <ele>30</ele>
      </rtept>
      <rtept lat="33.364524" lon="126.860107">
         <ele>30</ele>
      </rtept>
      <rtept lat="33.364395" lon="126.860569">
         <ele>30</ele>
      </rtept>
      <rtept lat="33.364271" lon="126.860906">
         <ele>30</ele>
      </rtept>
      <rtept lat="33.364187" lon="126.861335">
         <ele>30</ele>
      </rtept>
      <rtept lat="33.364127" lon="126.861465">
         <ele>30</ele>
      </rtept>
      <rtept lat="33.36404" lon="126.86159">
         <ele>30</ele>
      </rtept>
      <rtept lat="33.363997" lon="126.861626">
         <ele>30</ele>
      </rtept>
      <rtept lat="33.363732" lon="126.861756">
         <ele>30</ele>
      </rtept>
      <rtept lat="33.363664" lon="126.861887">
         <ele>30</ele>
      </rtept>
      <rtept lat="33.363652" lon="126.861954">
         <ele>30</ele>
      </rtept>
      <rtept lat="33.363669" lon="126.862125">
         <ele>30</ele>
      </rtept>
      <rtept lat="33.363758" lon="126.862616">
         <ele>30</ele>
      </rtept>
      <rtept lat="33.363621" lon="126.863017">
         <ele>30</ele>
      </rtept>
      <rtept lat="33.363551" lon="126.863158">
         <ele>30</ele>
      </rtept>
      <rtept lat="33.36347" lon="126.863243">
         <ele>30</ele>
      </rtept>
      <rtept lat="33.363389" lon="126.863297">
         <ele>30</ele>
      </rtept>
      <rtept lat="33.363191" lon="126.863541">
         <ele>20</ele>
      </rtept>
      <rtept lat="33.363092" lon="126.863639">
         <ele>20</ele>
      </rtept>
      <rtept lat="33.362938" lon="126.863751">
         <ele>20</ele>
      </rtept>
      <rtept lat="33.363201" lon="126.864491">
         <ele>20</ele>
      </rtept>
      <rtept lat="33.363234" lon="126.864898">
         <ele>20</ele>
      </rtept>
      <rtept lat="33.363169" lon="126.864977">
         <ele>20</ele>
      </rtept>
      <rtept lat="33.363199" lon="126.865016">
         <ele>20</ele>
      </rtept>
      <rtept lat="33.363155" lon="126.865267">
         <ele>20</ele>
      </rtept>
      <rtept lat="33.362657" lon="126.865325">
         <ele>20</ele>
      </rtept>
      <rtept lat="33.362592" lon="126.865569">
         <ele>20</ele>
      </rtept>
      <rtept lat="33.36257" lon="126.865649" />
      <rtept lat="33.36247" lon="126.86575" />
      <rtept lat="33.362384" lon="126.865801" />
      <rtept lat="33.362099" lon="126.865891" />
      <rtept lat="33.361921" lon="126.865909" />
      <rtept lat="33.361302" lon="126.865663">
         <ele>20</ele>
      </rtept>
      <rtept lat="33.360307" lon="126.865331">
         <ele>20</ele>
      </rtept>
      <rtept lat="33.360194" lon="126.866595">
         <ele>10</ele>
      </rtept>
      <rtept lat="33.360131" lon="126.867304">
         <ele>10</ele>
      </rtept>
      <rtept lat="33.359853" lon="126.8674">
         <ele>10</ele>
      </rtept>
      <rtept lat="33.359393" lon="126.867415">
         <ele>10</ele>
      </rtept>
      <rtept lat="33.358624" lon="126.867577">
         <ele>10</ele>
      </rtept>
      <rtept lat="33.357138" lon="126.868206">
         <ele>10</ele>
      </rtept>
      <rtept lat="33.355998" lon="126.868206">
         <ele>10</ele>
      </rtept>
      <rtept lat="33.355274" lon="126.86824">
         <ele>10</ele>
      </rtept>
      <rtept lat="33.354715" lon="126.86794">
         <ele>10</ele>
      </rtept>
      <rtept lat="33.353969" lon="126.867502">
         <ele>10</ele>
      </rtept>
      <rtept lat="33.353365" lon="126.866981">
         <ele>10</ele>
      </rtept>
      <rtept lat="33.352727" lon="126.866902">
         <ele>10</ele>
      </rtept>
      <rtept lat="33.352553" lon="126.866641">
         <ele>10</ele>
      </rtept>
      <rtept lat="33.35204" lon="126.865871">
         <ele>10</ele>
      </rtept>
      <rtept lat="33.351696" lon="126.865485">
         <ele>10</ele>
      </rtept>
      <rtept lat="33.350675" lon="126.864641">
         <ele>10</ele>
      </rtept>
      <rtept lat="33.349416" lon="126.863633">
         <ele>10</ele>
      </rtept>
      <rtept lat="33.349313" lon="126.863242">
         <ele>10</ele>
      </rtept>
      <rtept lat="33.349274" lon="126.86272">
         <ele>10</ele>
      </rtept>
      <rtept lat="33.349049" lon="126.862209">
         <ele>10</ele>
      </rtept>
      <rtept lat="33.348843" lon="126.861803">
         <ele>10</ele>
      </rtept>
      <rtept lat="33.348763" lon="126.861423">
         <ele>10</ele>
      </rtept>
      <rtept lat="33.348489" lon="126.861173">
         <ele>10</ele>
      </rtept>
      <rtept lat="33.348488" lon="126.86106">
         <ele>10</ele>
      </rtept>
      <rtept lat="33.348379" lon="126.86014">
         <ele>10</ele>
      </rtept>
      <rtept lat="33.34803" lon="126.859514">
         <ele>10</ele>
      </rtept>
      <rtept lat="33.348099" lon="126.858921">
         <ele>10</ele>
      </rtept>
      <rtept lat="33.347982" lon="126.858788">
         <ele>10</ele>
      </rtept>
      <rtept lat="33.347614" lon="126.858039">
         <ele>10</ele>
      </rtept>
      <rtept lat="33.347997" lon="126.857857">
         <ele>10</ele>
      </rtept>
      <rtept lat="33.348127" lon="126.857717">
         <ele>10</ele>
      </rtept>
      <rtept lat="33.348535" lon="126.857524">
         <ele>10</ele>
      </rtept>
      <rtept lat="33.348835" lon="126.857465">
         <ele>10</ele>
      </rtept>
      <rtept lat="33.348988" lon="126.857326">
         <ele>10</ele>
      </rtept>
      <rtept lat="33.349077" lon="126.856966">
         <ele>10</ele>
      </rtept>
      <rtept lat="33.349252" lon="126.856757">
         <ele>10</ele>
      </rtept>
      <rtept lat="33.349221" lon="126.856483">
         <ele>10</ele>
      </rtept>
      <rtept lat="33.348956" lon="126.85629">
         <ele>10</ele>
      </rtept>
      <rtept lat="33.348826" lon="126.856092">
         <ele>10</ele>
      </rtept>
      <rtept lat="33.348728" lon="126.855711">
         <ele>10</ele>
      </rtept>
      <rtept lat="33.348665" lon="126.855577">
         <ele>10</ele>
      </rtept>
      <rtept lat="33.348481" lon="126.855427">
         <ele>10</ele>
      </rtept>
      <rtept lat="33.348284" lon="126.855378">
         <ele>10</ele>
      </rtept>
      <rtept lat="33.347702" lon="126.855303">
         <ele>10</ele>
      </rtept>
      <rtept lat="33.347419" lon="126.854912">
         <ele>10</ele>
      </rtept>
      <rtept lat="33.347289" lon="126.854772">
         <ele>10</ele>
      </rtept>
      <rtept lat="33.347083" lon="126.854659">
         <ele>10</ele>
      </rtept>
      <rtept lat="33.347028" lon="126.854598">
         <ele>10</ele>
      </rtept>
      <rtept lat="33.346915" lon="126.854472" />
      <rtept lat="33.346804" lon="126.85448" />
      <rtept lat="33.346728" lon="126.854418" />
      <rtept lat="33.346568" lon="126.853885" />
      <rtept lat="33.346215" lon="126.85386" />
      <rtept lat="33.345549" lon="126.854124" />
      <rtept lat="33.345231" lon="126.854336">
         <ele>10</ele>
      </rtept>
      <rtept lat="33.345049" lon="126.854414">
         <ele>10</ele>
      </rtept>
      <rtept lat="33.344833" lon="126.854416">
         <ele>10</ele>
      </rtept>
      <rtept lat="33.344613" lon="126.854482">
         <ele>10</ele>
      </rtept>
      <rtept lat="33.34438" lon="126.854484">
         <ele>10</ele>
      </rtept>
      <rtept lat="33.344238" lon="126.854437">
         <ele>10</ele>
      </rtept>
      <rtept lat="33.344144" lon="126.854365">
         <ele>10</ele>
      </rtept>
      <rtept lat="33.343932" lon="126.854088">
         <ele>10</ele>
      </rtept>
      <rtept lat="33.343866" lon="126.854057">
         <ele>10</ele>
      </rtept>
      <rtept lat="33.343707" lon="126.854051">
         <ele>10</ele>
      </rtept>
      <rtept lat="33.343191" lon="126.853967">
         <ele>10</ele>
      </rtept>
      <rtept lat="33.343064" lon="126.85389">
         <ele>10</ele>
      </rtept>
      <rtept lat="33.343047" lon="126.853926">
         <ele>10</ele>
      </rtept>
      <rtept lat="33.342978" lon="126.853856">
         <ele>10</ele>
      </rtept>
      <rtept lat="33.342818" lon="126.853606">
         <ele>10</ele>
      </rtept>
      <rtept lat="33.342843" lon="126.853173">
         <ele>10</ele>
      </rtept>
      <rtept lat="33.342806" lon="126.853115">
         <ele>10</ele>
      </rtept>
      <rtept lat="33.342584" lon="126.852899">
         <ele>10</ele>
      </rtept>
      <rtept lat="33.342451" lon="126.853287">
         <ele>10</ele>
      </rtept>
      <rtept lat="33.342377" lon="126.853409">
         <ele>10</ele>
      </rtept>
      <rtept lat="33.342164" lon="126.853618">
         <ele>10</ele>
      </rtept>
      <rtept lat="33.34188" lon="126.853773">
         <ele>10</ele>
      </rtept>
      <rtept lat="33.341808" lon="126.853848">
         <ele>10</ele>
      </rtept>
      <rtept lat="33.341816" lon="126.85409">
         <ele>10</ele>
      </rtept>
      <rtept lat="33.341798" lon="126.854174">
         <ele>10</ele>
      </rtept>
      <rtept lat="33.341637" lon="126.854347">
         <ele>10</ele>
      </rtept>
      <rtept lat="33.341581" lon="126.854513">
         <ele>10</ele>
      </rtept>
      <rtept lat="33.34146" lon="126.854758">
         <ele>10</ele>
      </rtept>
      <rtept lat="33.341254" lon="126.855049">
         <ele>10</ele>
      </rtept>
      <rtept lat="33.341215" lon="126.855126">
         <ele>10</ele>
      </rtept>
      <rtept lat="33.341098" lon="126.855282" />
      <rtept lat="33.340684" lon="126.855176" />
      <rtept lat="33.340054" lon="126.855091" />
      <rtept lat="33.339841" lon="126.854984" />
      <rtept lat="33.339602" lon="126.855229" />
      <rtept lat="33.339562" lon="126.855271" />
      <rtept lat="33.339402" lon="126.855346" />
      <rtept lat="33.339356" lon="126.855352" />
      <rtept lat="33.33923" lon="126.854965" />
      <rtept lat="33.339312" lon="126.85468" />
      <rtept lat="33.339326" lon="126.854532" />
      <rtept lat="33.339279" lon="126.85352" />
      <rtept lat="33.33923" lon="126.853237" />
      <rtept lat="33.339212" lon="126.853111" />
      <rtept lat="33.339035" lon="126.852781" />
      <rtept lat="33.33891" lon="126.852584" />
      <rtept lat="33.338599" lon="126.852122" />
      <rtept lat="33.33846" lon="126.852038" />
      <rtept lat="33.338419" lon="126.851986" />
      <rtept lat="33.338118" lon="126.85145" />
      <rtept lat="33.338068" lon="126.851375" />
      <rtept lat="33.33791" lon="126.851203" />
      <rtept lat="33.337685" lon="126.850642" />
      <rtept lat="33.337492" lon="126.850362" />
      <rtept lat="33.337263" lon="126.850276" />
      <rtept lat="33.336969" lon="126.850302" />
      <rtept lat="33.336919" lon="126.850079" />
      <rtept lat="33.337064" lon="126.84975" />
      <rtept lat="33.337095" lon="126.849644" />
      <rtept lat="33.336717" lon="126.849382" />
      <rtept lat="33.336802" lon="126.849096" />
      <rtept lat="33.336827" lon="126.849011" />
      <rtept lat="33.336599" lon="126.849175" />
      <rtept lat="33.336395" lon="126.848882" />
      <rtept lat="33.336289" lon="126.848561" />
      <rtept lat="33.336156" lon="126.84798" />
      <rtept lat="33.336002" lon="126.847544" />
      <rtept lat="33.33568" lon="126.846989" />
      <rtept lat="33.334325" lon="126.845951" />
      <rtept lat="33.3342" lon="126.845908" />
      <rtept lat="33.334014" lon="126.845693" />
      <rtept lat="33.333692" lon="126.84511" />
      <rtept lat="33.333449" lon="126.844523" />
      <rtept lat="33.333353" lon="126.84435" />
      <rtept lat="33.333253" lon="126.844168" />
      <rtept lat="33.333036" lon="126.843887" />
      <rtept lat="33.332822" lon="126.843755" />
      <rtept lat="33.332363" lon="126.843567" />
      <rtept lat="33.332121" lon="126.843117" />
      <rtept lat="33.331895" lon="126.842556" />
      <rtept lat="33.331436" lon="126.842319" />
      <rtept lat="33.331073" lon="126.842071" />
      <rtept lat="33.330787" lon="126.842034" />
      <rtept lat="33.330561" lon="126.841974" />
      <rtept lat="33.330336" lon="126.841865" />
      <rtept lat="33.330056" lon="126.841698" />
      <rtept lat="33.330038" lon="126.841183" />
      <rtept lat="33.329944" lon="126.841004" />
      <rtept lat="33.32993" lon="126.840667" />
      <rtept lat="33.330025" lon="126.840419" />
      <rtept lat="33.330095" lon="126.840156" />
      <rtept lat="33.330092" lon="126.839943" />
      <rtept lat="33.329928" lon="126.839503" />
      <rtept lat="33.329776" lon="126.839333" />
      <rtept lat="33.329751" lon="126.837762" />
      <rtept lat="33.329505" lon="126.837134" />
      <rtept lat="33.329178" lon="126.836818" />
      <rtept lat="33.328847" lon="126.8367" />
      <rtept lat="33.327702" lon="126.83667" />
      <rtept lat="33.326465" lon="126.836928" />
      <rtept lat="33.326474" lon="126.837049" />
      <rtept lat="33.326439" lon="126.837176" />
      <rtept lat="33.325895" lon="126.837586" />
      <rtept lat="33.325819" lon="126.837591" />
      <rtept lat="33.325737" lon="126.837931" />
      <rtept lat="33.325733" lon="126.83801" />
      <rtept lat="33.325762" lon="126.838096" />
      <rtept lat="33.325791" lon="126.839319" />
      <rtept lat="33.325849" lon="126.839478" />
      <rtept lat="33.326054" lon="126.839898" />
      <rtept lat="33.32608" lon="126.839977" />
      <rtept lat="33.326079" lon="126.840025" />
      <rtept lat="33.326006" lon="126.840228" />
      <rtept lat="33.325962" lon="126.840303" />
      <rtept lat="33.325923" lon="126.842198" />
      <rtept lat="33.325827" lon="126.842224" />
      <rtept lat="33.325748" lon="126.842314" />
      <rtept lat="33.325719" lon="126.842406" />
      <rtept lat="33.325721" lon="126.842522" />
      <rtept lat="33.325558" lon="126.842507" />
   </rte>
</gpx>