<?xml version="1.0" encoding="utf-8"?>
<gpx version="1.1" creator="Movescount - http://www.movescount.com" xmlns:xsi="http://www.w3.org/2001/XMLSchema-instance" xsi:schemaLocation="http://www.topografix.com/GPX/1/1 http://www.topografix.com/GPX/1/1/gpx.xsd http://www.cluetrust.com/XML/GPXDATA/1/0 http://www.cluetrust.com/Schemas/gpxdata10.xsd http://www.garmin.com/xmlschemas/TrackPointExtension/v1 http://www.garmin.com/xmlschemas/TrackPointExtensionv1.xsd" xmlns:gpxdata="http://www.cluetrust.com/XML/GPXDATA/1/0" xmlns:gpxtpx="http://www.garmin.com/xmlschemas/TrackPointExtension/v1" xmlns="http://www.topografix.com/GPX/1/1">
   <rte>
      <name>jeju ollegil 6</name>
      <rtept lat="33.251705" lon="126.622978" />
      <rtept lat="33.251628" lon="126.622808" />
      <rtept lat="33.250717" lon="126.621649" />
      <rtept lat="33.250626" lon="126.621414">
         <ele>10</ele>
      </rtept>
      <rtept lat="33.250508" lon="126.621373">
         <ele>10</ele>
      </rtept>
      <rtept lat="33.250406" lon="126.621228">
         <ele>10</ele>
      </rtept>
      <rtept lat="33.250394" lon="126.621099">
         <ele>10</ele>
      </rtept>
      <rtept lat="33.25036" lon="126.620377">
         <ele>10</ele>
      </rtept>
      <rtept lat="33.250383" lon="126.620302">
         <ele>10</ele>
      </rtept>
      <rtept lat="33.250656" lon="126.619997">
         <ele>10</ele>
      </rtept>
      <rtept lat="33.250604" lon="126.619859">
         <ele>10</ele>
      </rtept>
      <rtept lat="33.250501" lon="126.619732">
         <ele>10</ele>
      </rtept>
      <rtept lat="33.250315" lon="126.619589">
         <ele>10</ele>
      </rtept>
      <rtept lat="33.24996" lon="126.619342">
         <ele>10</ele>
      </rtept>
      <rtept lat="33.249342" lon="126.619354">
         <ele>10</ele>
      </rtept>
      <rtept lat="33.249173" lon="126.619396">
         <ele>10</ele>
      </rtept>
      <rtept lat="33.249042" lon="126.619461">
         <ele>10</ele>
      </rtept>
      <rtept lat="33.248908" lon="126.61947">
         <ele>10</ele>
      </rtept>
      <rtept lat="33.248397" lon="126.6193">
         <ele>10</ele>
      </rtept>
      <rtept lat="33.248297" lon="126.61921">
         <ele>10</ele>
      </rtept>
      <rtept lat="33.248195" lon="126.619032">
         <ele>10</ele>
      </rtept>
      <rtept lat="33.248092" lon="126.61891">
         <ele>10</ele>
      </rtept>
      <rtept lat="33.247951" lon="126.618813">
         <ele>10</ele>
      </rtept>
      <rtept lat="33.247755" lon="126.618724">
         <ele>10</ele>
      </rtept>
      <rtept lat="33.247535" lon="126.618694">
         <ele>10</ele>
      </rtept>
      <rtept lat="33.247001" lon="126.618716">
         <ele>10</ele>
      </rtept>
      <rtept lat="33.246842" lon="126.618723">
         <ele>10</ele>
      </rtept>
      <rtept lat="33.246553" lon="126.618843">
         <ele>10</ele>
      </rtept>
      <rtept lat="33.246241" lon="126.618832">
         <ele>10</ele>
      </rtept>
      <rtept lat="33.245686" lon="126.618749">
         <ele>10</ele>
      </rtept>
      <rtept lat="33.245504" lon="126.618665">
         <ele>10</ele>
      </rtept>
      <rtept lat="33.245283" lon="126.618592">
         <ele>10</ele>
      </rtept>
      <rtept lat="33.244787" lon="126.61852">
         <ele>10</ele>
      </rtept>
      <rtept lat="33.244603" lon="126.618596">
         <ele>10</ele>
      </rtept>
      <rtept lat="33.244117" lon="126.618898">
         <ele>10</ele>
      </rtept>
      <rtept lat="33.24406" lon="126.618909">
         <ele>10</ele>
      </rtept>
      <rtept lat="33.243997" lon="126.61889">
         <ele>10</ele>
      </rtept>
      <rtept lat="33.243537" lon="126.618643">
         <ele>10</ele>
      </rtept>
      <rtept lat="33.243257" lon="126.61847">
         <ele>10</ele>
      </rtept>
      <rtept lat="33.243103" lon="126.618356">
         <ele>10</ele>
      </rtept>
      <rtept lat="33.242862" lon="126.618019">
         <ele>10</ele>
      </rtept>
      <rtept lat="33.2425" lon="126.61743">
         <ele>10</ele>
      </rtept>
      <rtept lat="33.242357" lon="126.617236">
         <ele>10</ele>
      </rtept>
      <rtept lat="33.242295" lon="126.617064">
         <ele>10</ele>
      </rtept>
      <rtept lat="33.242269" lon="126.616879">
         <ele>10</ele>
      </rtept>
      <rtept lat="33.242229" lon="126.616761">
         <ele>10</ele>
      </rtept>
      <rtept lat="33.241862" lon="126.616058">
         <ele>10</ele>
      </rtept>
      <rtept lat="33.241828" lon="126.615945">
         <ele>10</ele>
      </rtept>
      <rtept lat="33.241738" lon="126.615355">
         <ele>10</ele>
      </rtept>
      <rtept lat="33.241354" lon="126.61424">
         <ele>10</ele>
      </rtept>
      <rtept lat="33.241242" lon="126.61384">
         <ele>10</ele>
      </rtept>
      <rtept lat="33.241191" lon="126.61348">
         <ele>10</ele>
      </rtept>
      <rtept lat="33.24113" lon="126.613287">
         <ele>10</ele>
      </rtept>
      <rtept lat="33.241114" lon="126.613167">
         <ele>10</ele>
      </rtept>
      <rtept lat="33.24112" lon="126.613032">
         <ele>10</ele>
      </rtept>
      <rtept lat="33.241172" lon="126.612944">
         <ele>10</ele>
      </rtept>
      <rtept lat="33.241328" lon="126.612794">
         <ele>10</ele>
      </rtept>
      <rtept lat="33.241344" lon="126.61276">
         <ele>10</ele>
      </rtept>
      <rtept lat="33.241346" lon="126.612684">
         <ele>10</ele>
      </rtept>
      <rtept lat="33.241293" lon="126.612512">
         <ele>10</ele>
      </rtept>
      <rtept lat="33.24118" lon="126.612269">
         <ele>10</ele>
      </rtept>
      <rtept lat="33.241158" lon="126.612173">
         <ele>10</ele>
      </rtept>
      <rtept lat="33.241142" lon="126.611803">
         <ele>12.13693</ele>
      </rtept>
      <rtept lat="33.241099" lon="126.611493">
         <ele>11.13262</ele>
      </rtept>
      <rtept lat="33.241038" lon="126.61127">
         <ele>13.80371</ele>
      </rtept>
      <rtept lat="33.240932" lon="126.611092">
         <ele>14.07796</ele>
      </rtept>
      <rtept lat="33.240925" lon="126.610946">
         <ele>14.61822</ele>
      </rtept>
      <rtept lat="33.240942" lon="126.610825">
         <ele>15.8979</ele>
      </rtept>
      <rtept lat="33.241228" lon="126.611069">
         <ele>21.54755</ele>
      </rtept>
      <rtept lat="33.241413" lon="126.611157">
         <ele>20.03059</ele>
      </rtept>
      <rtept lat="33.241682" lon="126.611244">
         <ele>23.32733</ele>
      </rtept>
      <rtept lat="33.242138" lon="126.611362">
         <ele>25.79202</ele>
      </rtept>
      <rtept lat="33.242272" lon="126.611429">
         <ele>24.21458</ele>
      </rtept>
      <rtept lat="33.24264" lon="126.61151">
         <ele>20.74565</ele>
      </rtept>
      <rtept lat="33.24265" lon="126.61127">
         <ele>26.99785</ele>
      </rtept>
      <rtept lat="33.242661" lon="126.611019">
         <ele>33.41692</ele>
      </rtept>
      <rtept lat="33.24318" lon="126.610339">
         <ele>35.59763</ele>
      </rtept>
      <rtept lat="33.243299" lon="126.610149">
         <ele>34.13066</ele>
      </rtept>
      <rtept lat="33.243344" lon="126.609946">
         <ele>33.97788</ele>
      </rtept>
      <rtept lat="33.243367" lon="126.609706">
         <ele>33.93826</ele>
      </rtept>
      <rtept lat="33.24302" lon="126.609643">
         <ele>42.90178</ele>
      </rtept>
      <rtept lat="33.242542" lon="126.609584">
         <ele>48.16833</ele>
      </rtept>
      <rtept lat="33.24221" lon="126.609618">
         <ele>47.15422</ele>
      </rtept>
      <rtept lat="33.242075" lon="126.609699">
         <ele>47.36557</ele>
      </rtept>
      <rtept lat="33.241983" lon="126.609822">
         <ele>47.72615</ele>
      </rtept>
      <rtept lat="33.24175" lon="126.609876">
         <ele>47.21737</ele>
      </rtept>
      <rtept lat="33.241571" lon="126.609844">
         <ele>41.83385</ele>
      </rtept>
      <rtept lat="33.241474" lon="126.609736">
         <ele>38.59036</ele>
      </rtept>
      <rtept lat="33.241402" lon="126.60924">
         <ele>32.32154</ele>
      </rtept>
      <rtept lat="33.241499" lon="126.609181">
         <ele>34.25944</ele>
      </rtept>
      <rtept lat="33.241576" lon="126.609101">
         <ele>34.97464</ele>
      </rtept>
      <rtept lat="33.241872" lon="126.608983">
         <ele>39.11874</ele>
      </rtept>
      <rtept lat="33.241854" lon="126.608779">
         <ele>34.30899</ele>
      </rtept>
      <rtept lat="33.241567" lon="126.608725">
         <ele>27.93542</ele>
      </rtept>
      <rtept lat="33.241208" lon="126.608736">
         <ele>20.42553</ele>
      </rtept>
      <rtept lat="33.240795" lon="126.608951">
         <ele>14.4317</ele>
      </rtept>
      <rtept lat="33.24051" lon="126.609266">
         <ele>10.19509</ele>
      </rtept>
      <rtept lat="33.240372" lon="126.60943">
         <ele>11.44121</ele>
      </rtept>
      <rtept lat="33.240151" lon="126.608691">
         <ele>10</ele>
      </rtept>
      <rtept lat="33.240088" lon="126.608548">
         <ele>10</ele>
      </rtept>
      <rtept lat="33.239975" lon="126.608444">
         <ele>10</ele>
      </rtept>
      <rtept lat="33.239901" lon="126.608341">
         <ele>10</ele>
      </rtept>
      <rtept lat="33.239593" lon="126.607857">
         <ele>10</ele>
      </rtept>
      <rtept lat="33.239497" lon="126.607634">
         <ele>10</ele>
      </rtept>
      <rtept lat="33.239367" lon="126.607137">
         <ele>10</ele>
      </rtept>
      <rtept lat="33.239357" lon="126.606717">
         <ele>10</ele>
      </rtept>
      <rtept lat="33.239373" lon="126.606496">
         <ele>10</ele>
      </rtept>
      <rtept lat="33.239408" lon="126.606361">
         <ele>10</ele>
      </rtept>
      <rtept lat="33.239543" lon="126.605999">
         <ele>10</ele>
      </rtept>
      <rtept lat="33.2396" lon="126.605917">
         <ele>10</ele>
      </rtept>
      <rtept lat="33.239719" lon="126.605855">
         <ele>10</ele>
      </rtept>
      <rtept lat="33.23979" lon="126.605857">
         <ele>10</ele>
      </rtept>
      <rtept lat="33.239795" lon="126.6058">
         <ele>10</ele>
      </rtept>
      <rtept lat="33.239901" lon="126.605708">
         <ele>10</ele>
      </rtept>
      <rtept lat="33.239991" lon="126.605266">
         <ele>10</ele>
      </rtept>
      <rtept lat="33.239987" lon="126.604959">
         <ele>10</ele>
      </rtept>
      <rtept lat="33.239934" lon="126.604807">
         <ele>10</ele>
      </rtept>
      <rtept lat="33.239845" lon="126.604666">
         <ele>10</ele>
      </rtept>
      <rtept lat="33.239804" lon="126.604627">
         <ele>10</ele>
      </rtept>
      <rtept lat="33.239525" lon="126.604386">
         <ele>10</ele>
      </rtept>
      <rtept lat="33.239325" lon="126.604322">
         <ele>10</ele>
      </rtept>
      <rtept lat="33.239121" lon="126.604188">
         <ele>10</ele>
      </rtept>
      <rtept lat="33.238998" lon="126.604086">
         <ele>10</ele>
      </rtept>
      <rtept lat="33.238895" lon="126.603898">
         <ele>10</ele>
      </rtept>
      <rtept lat="33.238807" lon="126.603689">
         <ele>10</ele>
      </rtept>
      <rtept lat="33.238766" lon="126.60347">
         <ele>10</ele>
      </rtept>
      <rtept lat="33.23874" lon="126.603266">
         <ele>10</ele>
      </rtept>
      <rtept lat="33.238738" lon="126.603015">
         <ele>10</ele>
      </rtept>
      <rtept lat="33.238775" lon="126.602658">
         <ele>10</ele>
      </rtept>
      <rtept lat="33.238769" lon="126.602529">
         <ele>10</ele>
      </rtept>
      <rtept lat="33.238457" lon="126.602298">
         <ele>10</ele>
      </rtept>
      <rtept lat="33.237978" lon="126.601945">
         <ele>10</ele>
      </rtept>
      <rtept lat="33.237726" lon="126.601967">
         <ele>10</ele>
      </rtept>
      <rtept lat="33.237206" lon="126.601468">
         <ele>10</ele>
      </rtept>
      <rtept lat="33.237032" lon="126.601123">
         <ele>10</ele>
      </rtept>
      <rtept lat="33.236941" lon="126.600869">
         <ele>10</ele>
      </rtept>
      <rtept lat="33.236927" lon="126.60075">
         <ele>10</ele>
      </rtept>
      <rtept lat="33.236758" lon="126.600068">
         <ele>10</ele>
      </rtept>
      <rtept lat="33.236547" lon="126.599746">
         <ele>10</ele>
      </rtept>
      <rtept lat="33.236334" lon="126.599475">
         <ele>10</ele>
      </rtept>
      <rtept lat="33.236287" lon="126.5994">
         <ele>10</ele>
      </rtept>
      <rtept lat="33.236235" lon="126.599249">
         <ele>10</ele>
      </rtept>
      <rtept lat="33.236197" lon="126.59905">
         <ele>10</ele>
      </rtept>
      <rtept lat="33.236185" lon="126.598578">
         <ele>10</ele>
      </rtept>
      <rtept lat="33.236157" lon="126.598374">
         <ele>10</ele>
      </rtept>
      <rtept lat="33.236165" lon="126.598186">
         <ele>10</ele>
      </rtept>
      <rtept lat="33.236216" lon="126.598008">
         <ele>10</ele>
      </rtept>
      <rtept lat="33.236346" lon="126.597743">
         <ele>10</ele>
      </rtept>
      <rtept lat="33.236708" lon="126.597143">
         <ele>10</ele>
      </rtept>
      <rtept lat="33.236773" lon="126.597062">
         <ele>10</ele>
      </rtept>
      <rtept lat="33.236838" lon="126.596934">
         <ele>10</ele>
      </rtept>
      <rtept lat="33.237006" lon="126.596352">
         <ele>10</ele>
      </rtept>
      <rtept lat="33.237174" lon="126.595844">
         <ele>10</ele>
      </rtept>
      <rtept lat="33.23711" lon="126.595747">
         <ele>10</ele>
      </rtept>
      <rtept lat="33.237071" lon="126.595451">
         <ele>10</ele>
      </rtept>
      <rtept lat="33.237133" lon="126.595091">
         <ele>10</ele>
      </rtept>
      <rtept lat="33.237324" lon="126.594643">
         <ele>10</ele>
      </rtept>
      <rtept lat="33.237731" lon="126.594315">
         <ele>10</ele>
      </rtept>
      <rtept lat="33.237898" lon="126.594021">
         <ele>10</ele>
      </rtept>
      <rtept lat="33.237988" lon="126.593614">
         <ele>10</ele>
      </rtept>
      <rtept lat="33.238179" lon="126.593629">
         <ele>10</ele>
      </rtept>
      <rtept lat="33.238179" lon="126.593371">
         <ele>10</ele>
      </rtept>
      <rtept lat="33.238455" lon="126.593335">
         <ele>10</ele>
      </rtept>
      <rtept lat="33.238491" lon="126.592948">
         <ele>10</ele>
      </rtept>
      <rtept lat="33.238808" lon="126.592878">
         <ele>10</ele>
      </rtept>
      <rtept lat="33.239298" lon="126.592133">
         <ele>10</ele>
      </rtept>
      <rtept lat="33.239316" lon="126.591811">
         <ele>10</ele>
      </rtept>
      <rtept lat="33.239615" lon="126.591826">
         <ele>10</ele>
      </rtept>
      <rtept lat="33.239639" lon="126.591983">
         <ele>10</ele>
      </rtept>
      <rtept lat="33.24001" lon="126.592148">
         <ele>10</ele>
      </rtept>
      <rtept lat="33.24053" lon="126.592277">
         <ele>10</ele>
      </rtept>
      <rtept lat="33.24053" lon="126.592448">
         <ele>10</ele>
      </rtept>
      <rtept lat="33.240581" lon="126.592543">
         <ele>10</ele>
      </rtept>
      <rtept lat="33.240656" lon="126.592684">
         <ele>10</ele>
      </rtept>
      <rtept lat="33.240979" lon="126.592684">
         <ele>12.2108</ele>
      </rtept>
      <rtept lat="33.241158" lon="126.592448">
         <ele>10</ele>
      </rtept>
      <rtept lat="33.241206" lon="126.591612">
         <ele>10</ele>
      </rtept>
      <rtept lat="33.241351" lon="126.591654">
         <ele>10</ele>
      </rtept>
      <rtept lat="33.241446" lon="126.591681">
         <ele>10</ele>
      </rtept>
      <rtept lat="33.241945" lon="126.590404">
         <ele>10</ele>
      </rtept>
      <rtept lat="33.242016" lon="126.590272">
         <ele>10</ele>
      </rtept>
      <rtept lat="33.24221" lon="126.590189">
         <ele>10</ele>
      </rtept>
      <rtept lat="33.242268" lon="126.59019">
         <ele>10</ele>
      </rtept>
      <rtept lat="33.242978" lon="126.590564">
         <ele>12.18869</ele>
      </rtept>
      <rtept lat="33.243098" lon="126.590309">
         <ele>10</ele>
      </rtept>
      <rtept lat="33.243099" lon="126.590119">
         <ele>10</ele>
      </rtept>
      <rtept lat="33.243122" lon="126.590079">
         <ele>10</ele>
      </rtept>
      <rtept lat="33.243199" lon="126.590036">
         <ele>10</ele>
      </rtept>
      <rtept lat="33.243338" lon="126.589754">
         <ele>10</ele>
      </rtept>
      <rtept lat="33.243496" lon="126.589255">
         <ele>10</ele>
      </rtept>
      <rtept lat="33.243626" lon="126.588943">
         <ele>10</ele>
      </rtept>
      <rtept lat="33.243739" lon="126.588408">
         <ele>10</ele>
      </rtept>
      <rtept lat="33.243826" lon="126.587421">
         <ele>10</ele>
      </rtept>
      <rtept lat="33.244133" lon="126.586698">
         <ele>10</ele>
      </rtept>
      <rtept lat="33.244184" lon="126.586612">
         <ele>10</ele>
      </rtept>
      <rtept lat="33.244433" lon="126.586339">
         <ele>10</ele>
      </rtept>
      <rtept lat="33.244598" lon="126.586051">
         <ele>10</ele>
      </rtept>
      <rtept lat="33.244603" lon="126.585959">
         <ele>10</ele>
      </rtept>
      <rtept lat="33.244575" lon="126.585771">
         <ele>10</ele>
      </rtept>
      <rtept lat="33.244512" lon="126.585662">
         <ele>10</ele>
      </rtept>
      <rtept lat="33.244477" lon="126.585422">
         <ele>10</ele>
      </rtept>
      <rtept lat="33.24443" lon="126.585302">
         <ele>10</ele>
      </rtept>
      <rtept lat="33.244331" lon="126.585176">
         <ele>10</ele>
      </rtept>
      <rtept lat="33.244192" lon="126.585107">
         <ele>10</ele>
      </rtept>
      <rtept lat="33.244071" lon="126.584975">
         <ele>10</ele>
      </rtept>
      <rtept lat="33.244037" lon="126.584725">
         <ele>10</ele>
      </rtept>
      <rtept lat="33.244156" lon="126.584326">
         <ele>10</ele>
      </rtept>
      <rtept lat="33.244187" lon="126.584122">
         <ele>10</ele>
      </rtept>
      <rtept lat="33.244219" lon="126.583556">
         <ele>10</ele>
      </rtept>
      <rtept lat="33.244186" lon="126.583411">
         <ele>10</ele>
      </rtept>
      <rtept lat="33.244147" lon="126.583343">
         <ele>10</ele>
      </rtept>
      <rtept lat="33.244077" lon="126.583119">
         <ele>10</ele>
      </rtept>
      <rtept lat="33.244053" lon="126.58271">
         <ele>10</ele>
      </rtept>
      <rtept lat="33.243981" lon="126.582217">
         <ele>10</ele>
      </rtept>
      <rtept lat="33.24399" lon="126.581956">
         <ele>10</ele>
      </rtept>
      <rtept lat="33.24403" lon="126.58181">
         <ele>10</ele>
      </rtept>
      <rtept lat="33.244262" lon="126.581847">
         <ele>10</ele>
      </rtept>
      <rtept lat="33.244971" lon="126.582034">
         <ele>13.77741</ele>
      </rtept>
      <rtept lat="33.245431" lon="126.582187">
         <ele>20.0336</ele>
      </rtept>
      <rtept lat="33.245745" lon="126.582355">
         <ele>25.17159</ele>
      </rtept>
      <rtept lat="33.24623" lon="126.582565">
         <ele>30</ele>
      </rtept>
      <rtept lat="33.246337" lon="126.582577">
         <ele>30</ele>
      </rtept>
      <rtept lat="33.246616" lon="126.582563">
         <ele>30</ele>
      </rtept>
      <rtept lat="33.247176" lon="126.582498">
         <ele>40</ele>
      </rtept>
      <rtept lat="33.247652" lon="126.582583">
         <ele>40</ele>
      </rtept>
      <rtept lat="33.248109" lon="126.582719">
         <ele>40</ele>
      </rtept>
      <rtept lat="33.248304" lon="126.581832">
         <ele>40</ele>
      </rtept>
      <rtept lat="33.248326" lon="126.581542">
         <ele>40</ele>
      </rtept>
      <rtept lat="33.248178" lon="126.579539">
         <ele>40</ele>
      </rtept>
      <rtept lat="33.248096" lon="126.57898">
         <ele>40</ele>
      </rtept>
      <rtept lat="33.247825" lon="126.578072">
         <ele>37.92623</ele>
      </rtept>
      <rtept lat="33.247514" lon="126.577124">
         <ele>33.91682</ele>
      </rtept>
      <rtept lat="33.247483" lon="126.577046">
         <ele>33.70049</ele>
      </rtept>
      <rtept lat="33.247428" lon="126.577081">
         <ele>33.00879</ele>
      </rtept>
      <rtept lat="33.247362" lon="126.577242">
         <ele>31.90474</ele>
      </rtept>
      <rtept lat="33.24738" lon="126.577865">
         <ele>31.81871</ele>
      </rtept>
      <rtept lat="33.247345" lon="126.57798">
         <ele>31.42335</ele>
      </rtept>
      <rtept lat="33.247246" lon="126.578034">
         <ele>30.12477</ele>
      </rtept>
      <rtept lat="33.247131" lon="126.578045">
         <ele>30</ele>
      </rtept>
      <rtept lat="33.247113" lon="126.578006">
         <ele>30</ele>
      </rtept>
      <rtept lat="33.247052" lon="126.577969">
         <ele>30</ele>
      </rtept>
      <rtept lat="33.246462" lon="126.577773">
         <ele>20</ele>
      </rtept>
      <rtept lat="33.246348" lon="126.577754">
         <ele>20</ele>
      </rtept>
      <rtept lat="33.246324" lon="126.577586">
         <ele>20</ele>
      </rtept>
      <rtept lat="33.246132" lon="126.577588">
         <ele>20</ele>
      </rtept>
      <rtept lat="33.246075" lon="126.577572">
         <ele>20</ele>
      </rtept>
      <rtept lat="33.246031" lon="126.577514">
         <ele>20</ele>
      </rtept>
      <rtept lat="33.246" lon="126.577376">
         <ele>20</ele>
      </rtept>
      <rtept lat="33.245966" lon="126.577326">
         <ele>20</ele>
      </rtept>
      <rtept lat="33.24589" lon="126.577311">
         <ele>20</ele>
      </rtept>
      <rtept lat="33.245494" lon="126.57732">
         <ele>14.80353</ele>
      </rtept>
      <rtept lat="33.24541" lon="126.577357">
         <ele>13.86205</ele>
      </rtept>
      <rtept lat="33.245364" lon="126.577398">
         <ele>13.24391</ele>
      </rtept>
      <rtept lat="33.245339" lon="126.577532">
         <ele>12.52857</ele>
      </rtept>
      <rtept lat="33.245315" lon="126.577552">
         <ele>12.25548</ele>
      </rtept>
      <rtept lat="33.245294" lon="126.577522">
         <ele>12.10637</ele>
      </rtept>
      <rtept lat="33.245246" lon="126.577429">
         <ele>12.0239</ele>
      </rtept>
      <rtept lat="33.24521" lon="126.577279">
         <ele>12.15746</ele>
      </rtept>
      <rtept lat="33.245309" lon="126.577129">
         <ele>13.83408</ele>
      </rtept>
      <rtept lat="33.245309" lon="126.576947">
         <ele>14.10865</ele>
      </rtept>
      <rtept lat="33.245183" lon="126.576582">
         <ele>14.34112</ele>
      </rtept>
      <rtept lat="33.244959" lon="126.576324">
         <ele>11.95573</ele>
      </rtept>
      <rtept lat="33.244805" lon="126.575819">
         <ele>12.16955</ele>
      </rtept>
      <rtept lat="33.244731" lon="126.575379">
         <ele>15.07836</ele>
      </rtept>
      <rtept lat="33.244689" lon="126.575272">
         <ele>14.9501</ele>
      </rtept>
      <rtept lat="33.244336" lon="126.574689">
         <ele>12.61528</ele>
      </rtept>
      <rtept lat="33.244306" lon="126.574426">
         <ele>13.48649</ele>
      </rtept>
      <rtept lat="33.244228" lon="126.574207">
         <ele>12.73803</ele>
      </rtept>
      <rtept lat="33.244227" lon="126.574074">
         <ele>12.67061</ele>
      </rtept>
      <rtept lat="33.244248" lon="126.573967">
         <ele>12.3697</ele>
      </rtept>
      <rtept lat="33.244327" lon="126.573884">
         <ele>13.19391</ele>
      </rtept>
      <rtept lat="33.244457" lon="126.573823">
         <ele>14.84176</ele>
      </rtept>
      <rtept lat="33.244457" lon="126.573675">
         <ele>14.29726</ele>
      </rtept>
      <rtept lat="33.244479" lon="126.573609">
         <ele>14.37868</ele>
      </rtept>
      <rtept lat="33.244525" lon="126.573561">
         <ele>14.70023</ele>
      </rtept>
      <rtept lat="33.244817" lon="126.57355">
         <ele>18.55777</ele>
      </rtept>
      <rtept lat="33.244812" lon="126.573295">
         <ele>17.26133</ele>
      </rtept>
      <rtept lat="33.244838" lon="126.572965">
         <ele>15.89792</ele>
      </rtept>
      <rtept lat="33.245049" lon="126.572471">
         <ele>18.00201</ele>
      </rtept>
      <rtept lat="33.245103" lon="126.572115">
         <ele>18.57933</ele>
      </rtept>
      <rtept lat="33.245116" lon="126.571222">
         <ele>16.57434</ele>
      </rtept>
      <rtept lat="33.244984" lon="126.570695">
         <ele>25.61746</ele>
      </rtept>
      <rtept lat="33.244787" lon="126.569823">
         <ele>26.61438</ele>
      </rtept>
      <rtept lat="33.244822" lon="126.569095">
         <ele>26.09392</ele>
      </rtept>
      <rtept lat="33.244849" lon="126.567749">
         <ele>30</ele>
      </rtept>
      <rtept lat="33.245029" lon="126.566944">
         <ele>30</ele>
      </rtept>
      <rtept lat="33.243924" lon="126.566961">
         <ele>20</ele>
      </rtept>
      <rtept lat="33.242569" lon="126.566941">
         <ele>20</ele>
      </rtept>
      <rtept lat="33.242555" lon="126.566941" />
      <rtept lat="33.242764" lon="126.565714">
         <ele>20</ele>
      </rtept>
      <rtept lat="33.242845" lon="126.565145">
         <ele>20</ele>
      </rtept>
      <rtept lat="33.242802" lon="126.564011">
         <ele>20</ele>
      </rtept>
      <rtept lat="33.242865" lon="126.563844">
         <ele>20</ele>
      </rtept>
      <rtept lat="33.242871" lon="126.563831">
         <ele>20</ele>
      </rtept>
      <rtept lat="33.242971" lon="126.563854">
         <ele>20</ele>
      </rtept>
      <rtept lat="33.244807" lon="126.564411">
         <ele>30</ele>
      </rtept>
      <rtept lat="33.244935" lon="126.564368">
         <ele>30</ele>
      </rtept>
      <rtept lat="33.244949" lon="126.564387">
         <ele>30</ele>
      </rtept>
      <rtept lat="33.245126" lon="126.564636">
         <ele>34.45081</ele>
      </rtept>
      <rtept lat="33.245176" lon="126.56473">
         <ele>34.44949</ele>
      </rtept>
      <rtept lat="33.2453" lon="126.564822">
         <ele>35.04142</ele>
      </rtept>
      <rtept lat="33.245398" lon="126.564675">
         <ele>36.25875</ele>
      </rtept>
      <rtept lat="33.245647" lon="126.564322">
         <ele>40</ele>
      </rtept>
      <rtept lat="33.245589" lon="126.564156">
         <ele>40</ele>
      </rtept>
      <rtept lat="33.245592" lon="126.564168">
         <ele>40</ele>
      </rtept>
      <rtept lat="33.245845" lon="126.564055">
         <ele>41.28883</ele>
      </rtept>
      <rtept lat="33.245969" lon="126.564038">
         <ele>42.92536</ele>
      </rtept>
      <rtept lat="33.246088" lon="126.564045">
         <ele>44.46596</ele>
      </rtept>
      <rtept lat="33.24668" lon="126.564142">
         <ele>50</ele>
      </rtept>
      <rtept lat="33.247377" lon="126.564194">
         <ele>60</ele>
      </rtept>
      <rtept lat="33.248069" lon="126.56413">
         <ele>60</ele>
      </rtept>
      <rtept lat="33.247802" lon="126.562986">
         <ele>60</ele>
      </rtept>
      <rtept lat="33.247562" lon="126.561869">
         <ele>60</ele>
      </rtept>
      <rtept lat="33.247566" lon="126.561064">
         <ele>60</ele>
      </rtept>
      <rtept lat="33.247521" lon="126.559831">
         <ele>60</ele>
      </rtept>
      <rtept lat="33.247523" lon="126.558633">
         <ele>57.66007</ele>
      </rtept>
   </rte>
</gpx>