<?xml version="1.0" encoding="utf-8"?>
<gpx version="1.1" creator="Movescount - http://www.movescount.com" xmlns:xsi="http://www.w3.org/2001/XMLSchema-instance" xsi:schemaLocation="http://www.topografix.com/GPX/1/1 http://www.topografix.com/GPX/1/1/gpx.xsd http://www.cluetrust.com/XML/GPXDATA/1/0 http://www.cluetrust.com/Schemas/gpxdata10.xsd http://www.garmin.com/xmlschemas/TrackPointExtension/v1 http://www.garmin.com/xmlschemas/TrackPointExtensionv1.xsd" xmlns:gpxdata="http://www.cluetrust.com/XML/GPXDATA/1/0" xmlns:gpxtpx="http://www.garmin.com/xmlschemas/TrackPointExtension/v1" xmlns="http://www.topografix.com/GPX/1/1">
   <rte>
      <name>jeju ollegil 7</name>
      <rtept lat="33.247453" lon="126.558634">
         <ele>56.64956</ele>
      </rtept>
      <rtept lat="33.247523" lon="126.558634">
         <ele>57.66937</ele>
      </rtept>
      <rtept lat="33.247524" lon="126.556609">
         <ele>39.24117</ele>
      </rtept>
      <rtept lat="33.247524" lon="126.55659">
         <ele>39.09549</ele>
      </rtept>
      <rtept lat="33.247448" lon="126.5565">
         <ele>37.23307</ele>
      </rtept>
      <rtept lat="33.247383" lon="126.556462">
         <ele>35.90731</ele>
      </rtept>
      <rtept lat="33.247339" lon="126.556464">
         <ele>35.19987</ele>
      </rtept>
      <rtept lat="33.247229" lon="126.556528">
         <ele>33.88449</ele>
      </rtept>
      <rtept lat="33.247238" lon="126.55651">
         <ele>33.88683</ele>
      </rtept>
      <rtept lat="33.24731" lon="126.556375">
         <ele>34.12506</ele>
      </rtept>
      <rtept lat="33.24751" lon="126.555869">
         <ele>35.23844</ele>
      </rtept>
      <rtept lat="33.247657" lon="126.555433">
         <ele>36.20957</ele>
      </rtept>
      <rtept lat="33.247829" lon="126.554596">
         <ele>40</ele>
      </rtept>
      <rtept lat="33.247864" lon="126.554204">
         <ele>40</ele>
      </rtept>
      <rtept lat="33.247758" lon="126.554174">
         <ele>40</ele>
      </rtept>
      <rtept lat="33.247663" lon="126.554107">
         <ele>40</ele>
      </rtept>
      <rtept lat="33.247561" lon="126.554082">
         <ele>40</ele>
      </rtept>
      <rtept lat="33.247425" lon="126.554031">
         <ele>40</ele>
      </rtept>
      <rtept lat="33.247393" lon="126.553989">
         <ele>40</ele>
      </rtept>
      <rtept lat="33.247343" lon="126.553852">
         <ele>40</ele>
      </rtept>
      <rtept lat="33.247235" lon="126.553882">
         <ele>40</ele>
      </rtept>
      <rtept lat="33.247162" lon="126.553864">
         <ele>40</ele>
      </rtept>
      <rtept lat="33.247108" lon="126.553869">
         <ele>40</ele>
      </rtept>
      <rtept lat="33.246972" lon="126.55393">
         <ele>40</ele>
      </rtept>
      <rtept lat="33.246924" lon="126.553933">
         <ele>40</ele>
      </rtept>
      <rtept lat="33.246865" lon="126.553898">
         <ele>40</ele>
      </rtept>
      <rtept lat="33.2468" lon="126.55381">
         <ele>40</ele>
      </rtept>
      <rtept lat="33.246746" lon="126.553676">
         <ele>40</ele>
      </rtept>
      <rtept lat="33.246674" lon="126.553553">
         <ele>40</ele>
      </rtept>
      <rtept lat="33.246573" lon="126.553482">
         <ele>40</ele>
      </rtept>
      <rtept lat="33.24611" lon="126.553368">
         <ele>50</ele>
      </rtept>
      <rtept lat="33.245978" lon="126.553458">
         <ele>50</ele>
      </rtept>
      <rtept lat="33.245842" lon="126.553596">
         <ele>50</ele>
      </rtept>
      <rtept lat="33.246132" lon="126.554109">
         <ele>40</ele>
      </rtept>
      <rtept lat="33.246138" lon="126.554229">
         <ele>40</ele>
      </rtept>
      <rtept lat="33.246029" lon="126.554393">
         <ele>40</ele>
      </rtept>
      <rtept lat="33.245894" lon="126.554509">
         <ele>40</ele>
      </rtept>
      <rtept lat="33.245775" lon="126.554582">
         <ele>40</ele>
      </rtept>
      <rtept lat="33.245676" lon="126.554585">
         <ele>40</ele>
      </rtept>
      <rtept lat="33.245634" lon="126.554558">
         <ele>40</ele>
      </rtept>
      <rtept lat="33.245461" lon="126.554176">
         <ele>50</ele>
      </rtept>
      <rtept lat="33.24519" lon="126.554221">
         <ele>50</ele>
      </rtept>
      <rtept lat="33.245026" lon="126.554274">
         <ele>50</ele>
      </rtept>
      <rtept lat="33.244966" lon="126.554326">
         <ele>50</ele>
      </rtept>
      <rtept lat="33.244935" lon="126.554381">
         <ele>50</ele>
      </rtept>
      <rtept lat="33.244871" lon="126.554594">
         <ele>50</ele>
      </rtept>
      <rtept lat="33.244833" lon="126.554652">
         <ele>50</ele>
      </rtept>
      <rtept lat="33.244762" lon="126.554679">
         <ele>50</ele>
      </rtept>
      <rtept lat="33.244725" lon="126.554728">
         <ele>50</ele>
      </rtept>
      <rtept lat="33.244679" lon="126.554952">
         <ele>50</ele>
      </rtept>
      <rtept lat="33.244607" lon="126.555049">
         <ele>50</ele>
      </rtept>
      <rtept lat="33.244505" lon="126.555103">
         <ele>50</ele>
      </rtept>
      <rtept lat="33.244472" lon="126.555289">
         <ele>50</ele>
      </rtept>
      <rtept lat="33.244503" lon="126.555399">
         <ele>50</ele>
      </rtept>
      <rtept lat="33.244623" lon="126.555614">
         <ele>50</ele>
      </rtept>
      <rtept lat="33.24467" lon="126.555635">
         <ele>50</ele>
      </rtept>
      <rtept lat="33.244705" lon="126.555595">
         <ele>50</ele>
      </rtept>
      <rtept lat="33.244807" lon="126.555551">
         <ele>50</ele>
      </rtept>
      <rtept lat="33.244875" lon="126.555547">
         <ele>50</ele>
      </rtept>
      <rtept lat="33.245006" lon="126.555576">
         <ele>46.44553</ele>
      </rtept>
      <rtept lat="33.245078" lon="126.555628">
         <ele>45.75987</ele>
      </rtept>
      <rtept lat="33.24509" lon="126.555671">
         <ele>45.62932</ele>
      </rtept>
      <rtept lat="33.245078" lon="126.555773">
         <ele>45.74118</ele>
      </rtept>
      <rtept lat="33.245034" lon="126.555895">
         <ele>46.19745</ele>
      </rtept>
      <rtept lat="33.245009" lon="126.556038">
         <ele>46.50227</ele>
      </rtept>
      <rtept lat="33.245063" lon="126.556247">
         <ele>46.0336</ele>
      </rtept>
      <rtept lat="33.24498" lon="126.556285">
         <ele>46.96272</ele>
      </rtept>
      <rtept lat="33.244851" lon="126.556245">
         <ele>50</ele>
      </rtept>
      <rtept lat="33.244791" lon="126.556162">
         <ele>50</ele>
      </rtept>
      <rtept lat="33.244723" lon="126.556015">
         <ele>50</ele>
      </rtept>
      <rtept lat="33.244658" lon="126.556063">
         <ele>50</ele>
      </rtept>
      <rtept lat="33.24458" lon="126.556079">
         <ele>50</ele>
      </rtept>
      <rtept lat="33.244554" lon="126.556099">
         <ele>50</ele>
      </rtept>
      <rtept lat="33.244524" lon="126.556176">
         <ele>50</ele>
      </rtept>
      <rtept lat="33.244516" lon="126.556251">
         <ele>50</ele>
      </rtept>
      <rtept lat="33.244102" lon="126.556119">
         <ele>50</ele>
      </rtept>
      <rtept lat="33.243753" lon="126.556008">
         <ele>60</ele>
      </rtept>
      <rtept lat="33.243914" lon="126.555099">
         <ele>50</ele>
      </rtept>
      <rtept lat="33.243854" lon="126.555069">
         <ele>60</ele>
      </rtept>
      <rtept lat="33.243872" lon="126.555006">
         <ele>55.06923</ele>
      </rtept>
      <rtept lat="33.243859" lon="126.555041">
         <ele>60</ele>
      </rtept>
      <rtept lat="33.24374" lon="126.554866">
         <ele>60</ele>
      </rtept>
      <rtept lat="33.242548" lon="126.554082">
         <ele>60</ele>
      </rtept>
      <rtept lat="33.242438" lon="126.554009">
         <ele>60</ele>
      </rtept>
      <rtept lat="33.242365" lon="126.55389">
         <ele>60</ele>
      </rtept>
      <rtept lat="33.242357" lon="126.553897">
         <ele>60</ele>
      </rtept>
      <rtept lat="33.242286" lon="126.55372">
         <ele>60</ele>
      </rtept>
      <rtept lat="33.242216" lon="126.553532">
         <ele>57.63086</ele>
      </rtept>
      <rtept lat="33.242231" lon="126.552676">
         <ele>54.78143</ele>
      </rtept>
      <rtept lat="33.242265" lon="126.552677">
         <ele>55.58061</ele>
      </rtept>
      <rtept lat="33.242329" lon="126.552544">
         <ele>55.91301</ele>
      </rtept>
      <rtept lat="33.242672" lon="126.551583">
         <ele>59.83322</ele>
      </rtept>
      <rtept lat="33.242796" lon="126.550866">
         <ele>60.43336</ele>
      </rtept>
      <rtept lat="33.242843" lon="126.550766">
         <ele>61.63418</ele>
      </rtept>
      <rtept lat="33.242949" lon="126.550619">
         <ele>64.86236</ele>
      </rtept>
      <rtept lat="33.24325" lon="126.550424">
         <ele>74.43043</ele>
      </rtept>
      <rtept lat="33.243745" lon="126.550274">
         <ele>88.405</ele>
      </rtept>
      <rtept lat="33.244046" lon="126.549997">
         <ele>96.76917</ele>
      </rtept>
      <rtept lat="33.244088" lon="126.549916">
         <ele>98.48659</ele>
      </rtept>
      <rtept lat="33.244497" lon="126.549127">
         <ele>113.5863</ele>
      </rtept>
      <rtept lat="33.244639" lon="126.548586">
         <ele>119.3544</ele>
      </rtept>
      <rtept lat="33.244733" lon="126.547353">
         <ele>128.2037</ele>
      </rtept>
      <rtept lat="33.244561" lon="126.545962">
         <ele>117.5</ele>
      </rtept>
      <rtept lat="33.244371" lon="126.545799">
         <ele>114.5994</ele>
      </rtept>
      <rtept lat="33.244252" lon="126.546078">
         <ele>118.7199</ele>
      </rtept>
      <rtept lat="33.244258" lon="126.547257">
         <ele>128.3248</ele>
      </rtept>
      <rtept lat="33.244222" lon="126.547552">
         <ele>129.4077</ele>
      </rtept>
      <rtept lat="33.243444" lon="126.547844">
         <ele>108.3573</ele>
      </rtept>
      <rtept lat="33.242685" lon="126.547812">
         <ele>79.13269</ele>
      </rtept>
      <rtept lat="33.241717" lon="126.54836">
         <ele>46.94744</ele>
      </rtept>
      <rtept lat="33.241569" lon="126.548443">
         <ele>43.049</ele>
      </rtept>
      <rtept lat="33.241484" lon="126.548237">
         <ele>43.05828</ele>
      </rtept>
      <rtept lat="33.241103" lon="126.547567">
         <ele>40.36943</ele>
      </rtept>
      <rtept lat="33.241028" lon="126.547622">
         <ele>38.12865</ele>
      </rtept>
      <rtept lat="33.240969" lon="126.547654">
         <ele>36.95647</ele>
      </rtept>
      <rtept lat="33.240934" lon="126.547733">
         <ele>36.01593</ele>
      </rtept>
      <rtept lat="33.24085" lon="126.547776">
         <ele>34.32237</ele>
      </rtept>
      <rtept lat="33.24077" lon="126.547809">
         <ele>32.7471</ele>
      </rtept>
      <rtept lat="33.240599" lon="126.547832">
         <ele>29.62098</ele>
      </rtept>
      <rtept lat="33.2405" lon="126.548002">
         <ele>26.95693</ele>
      </rtept>
      <rtept lat="33.240363" lon="126.548077">
         <ele>24.23047</ele>
      </rtept>
      <rtept lat="33.240246" lon="126.548192">
         <ele>21.47549</ele>
      </rtept>
      <rtept lat="33.240117" lon="126.54832">
         <ele>18.30369</ele>
      </rtept>
      <rtept lat="33.239345" lon="126.547387">
         <ele>13.01032</ele>
      </rtept>
      <rtept lat="33.239058" lon="126.547405">
         <ele>10</ele>
      </rtept>
      <rtept lat="33.238535" lon="126.547439">
         <ele>10</ele>
      </rtept>
      <rtept lat="33.238844" lon="126.546962">
         <ele>10</ele>
      </rtept>
      <rtept lat="33.239103" lon="126.546733">
         <ele>10</ele>
      </rtept>
      <rtept lat="33.239247" lon="126.546735">
         <ele>10</ele>
      </rtept>
      <rtept lat="33.239345" lon="126.546736">
         <ele>10</ele>
      </rtept>
      <rtept lat="33.239542" lon="126.54683">
         <ele>11.38926</ele>
      </rtept>
      <rtept lat="33.239668" lon="126.547123">
         <ele>14.92048</ele>
      </rtept>
      <rtept lat="33.240001" lon="126.547018">
         <ele>18.32209</ele>
      </rtept>
      <rtept lat="33.240208" lon="126.546776">
         <ele>19.52452</ele>
      </rtept>
      <rtept lat="33.240387" lon="126.546769">
         <ele>23.8526</ele>
      </rtept>
      <rtept lat="33.240292" lon="126.546184">
         <ele>18.43343</ele>
      </rtept>
      <rtept lat="33.239982" lon="126.545818">
         <ele>11.90502</ele>
      </rtept>
      <rtept lat="33.23994" lon="126.545769">
         <ele>11.06315</ele>
      </rtept>
      <rtept lat="33.239947" lon="126.545513">
         <ele>11.0881</ele>
      </rtept>
      <rtept lat="33.240021" lon="126.545271">
         <ele>12.54999</ele>
      </rtept>
      <rtept lat="33.240336" lon="126.544969">
         <ele>17.87445</ele>
      </rtept>
      <rtept lat="33.240344" lon="126.54483">
         <ele>18.14076</ele>
      </rtept>
      <rtept lat="33.240266" lon="126.544581">
         <ele>16.82298</ele>
      </rtept>
      <rtept lat="33.240041" lon="126.544329">
         <ele>13.12722</ele>
      </rtept>
      <rtept lat="33.239946" lon="126.544191">
         <ele>11.21256</ele>
      </rtept>
      <rtept lat="33.239689" lon="126.544044">
         <ele>12.09182</ele>
      </rtept>
      <rtept lat="33.239401" lon="126.543775">
         <ele>10</ele>
      </rtept>
      <rtept lat="33.238988" lon="126.543554">
         <ele>10</ele>
      </rtept>
      <rtept lat="33.238977" lon="126.543548" />
      <rtept lat="33.239022" lon="126.543439">
         <ele>10</ele>
      </rtept>
      <rtept lat="33.239455" lon="126.543308">
         <ele>10</ele>
      </rtept>
      <rtept lat="33.239666" lon="126.543076">
         <ele>10</ele>
      </rtept>
      <rtept lat="33.239904" lon="126.543026">
         <ele>11.80942</ele>
      </rtept>
      <rtept lat="33.23996" lon="126.542888">
         <ele>11.15022</ele>
      </rtept>
      <rtept lat="33.242012" lon="126.540332">
         <ele>27.11316</ele>
      </rtept>
      <rtept lat="33.242188" lon="126.539025">
         <ele>27.94868</ele>
      </rtept>
      <rtept lat="33.241757" lon="126.53836">
         <ele>19.68884</ele>
      </rtept>
      <rtept lat="33.241147" lon="126.536922">
         <ele>15.71686</ele>
      </rtept>
      <rtept lat="33.239747" lon="126.534347">
         <ele>15.22684</ele>
      </rtept>
      <rtept lat="33.239514" lon="126.533296">
         <ele>15.68093</ele>
      </rtept>
      <rtept lat="33.239669" lon="126.531823">
         <ele>12.69499</ele>
      </rtept>
      <rtept lat="33.239679" lon="126.53173">
         <ele>12.86949</ele>
      </rtept>
      <rtept lat="33.239661" lon="126.529668">
         <ele>11.28516</ele>
      </rtept>
      <rtept lat="33.23955" lon="126.529241">
         <ele>10</ele>
      </rtept>
      <rtept lat="33.239715" lon="126.528294">
         <ele>10</ele>
      </rtept>
      <rtept lat="33.240182" lon="126.527844">
         <ele>11.7809</ele>
      </rtept>
      <rtept lat="33.240607" lon="126.526135">
         <ele>10</ele>
      </rtept>
      <rtept lat="33.240989" lon="126.522865">
         <ele>10</ele>
      </rtept>
      <rtept lat="33.241255" lon="126.522825">
         <ele>11.91156</ele>
      </rtept>
      <rtept lat="33.241366" lon="126.522458">
         <ele>13.73223</ele>
      </rtept>
      <rtept lat="33.241528" lon="126.522393">
         <ele>16.37746</ele>
      </rtept>
      <rtept lat="33.241524" lon="126.521838">
         <ele>15.59526</ele>
      </rtept>
      <rtept lat="33.241707" lon="126.521428">
         <ele>17.23545</ele>
      </rtept>
      <rtept lat="33.241456" lon="126.521042">
         <ele>11.62435</ele>
      </rtept>
      <rtept lat="33.241147" lon="126.519971">
         <ele>11.79273</ele>
      </rtept>
      <rtept lat="33.239697" lon="126.519153">
         <ele>10</ele>
      </rtept>
      <rtept lat="33.238922" lon="126.518791">
         <ele>10</ele>
      </rtept>
      <rtept lat="33.238405" lon="126.518209">
         <ele>10</ele>
      </rtept>
      <rtept lat="33.238207" lon="126.518145">
         <ele>10</ele>
      </rtept>
      <rtept lat="33.237758" lon="126.518136">
         <ele>10</ele>
      </rtept>
      <rtept lat="33.237552" lon="126.518025">
         <ele>10</ele>
      </rtept>
      <rtept lat="33.23733" lon="126.517637">
         <ele>10</ele>
      </rtept>
      <rtept lat="33.237212" lon="126.517307">
         <ele>10</ele>
      </rtept>
      <rtept lat="33.237257" lon="126.516896">
         <ele>10</ele>
      </rtept>
      <rtept lat="33.237342" lon="126.516856">
         <ele>10</ele>
      </rtept>
      <rtept lat="33.237558" lon="126.516686">
         <ele>10</ele>
      </rtept>
      <rtept lat="33.237646" lon="126.516443">
         <ele>10</ele>
      </rtept>
      <rtept lat="33.237651" lon="126.516257">
         <ele>10</ele>
      </rtept>
      <rtept lat="33.237487" lon="126.515851">
         <ele>10</ele>
      </rtept>
      <rtept lat="33.237301" lon="126.51549">
         <ele>10</ele>
      </rtept>
      <rtept lat="33.237196" lon="126.515292">
         <ele>10</ele>
      </rtept>
      <rtept lat="33.237092" lon="126.515292">
         <ele>10</ele>
      </rtept>
      <rtept lat="33.236288" lon="126.5151">
         <ele>10</ele>
      </rtept>
      <rtept lat="33.235673" lon="126.514898">
         <ele>10</ele>
      </rtept>
      <rtept lat="33.234819" lon="126.513805">
         <ele>10</ele>
      </rtept>
      <rtept lat="33.234647" lon="126.513745">
         <ele>10</ele>
      </rtept>
      <rtept lat="33.234444" lon="126.513647">
         <ele>10</ele>
      </rtept>
      <rtept lat="33.234261" lon="126.513697">
         <ele>10</ele>
      </rtept>
      <rtept lat="33.234148" lon="126.513689">
         <ele>10</ele>
      </rtept>
      <rtept lat="33.23401" lon="126.513623">
         <ele>10</ele>
      </rtept>
      <rtept lat="33.233901" lon="126.5133">
         <ele>10</ele>
      </rtept>
      <rtept lat="33.233831" lon="126.513197">
         <ele>10</ele>
      </rtept>
      <rtept lat="33.233488" lon="126.512929">
         <ele>10</ele>
      </rtept>
      <rtept lat="33.233001" lon="126.512454">
         <ele>10</ele>
      </rtept>
      <rtept lat="33.232942" lon="126.512047">
         <ele>10</ele>
      </rtept>
      <rtept lat="33.232968" lon="126.511584">
         <ele>10</ele>
      </rtept>
      <rtept lat="33.232831" lon="126.511493">
         <ele>10</ele>
      </rtept>
      <rtept lat="33.232545" lon="126.510967">
         <ele>10</ele>
      </rtept>
      <rtept lat="33.232186" lon="126.51031" />
      <rtept lat="33.230959" lon="126.508345" />
      <rtept lat="33.230787" lon="126.508078" />
      <rtept lat="33.230819" lon="126.507506" />
      <rtept lat="33.230817" lon="126.506692" />
      <rtept lat="33.23093" lon="126.506174" />
      <rtept lat="33.231142" lon="126.505729" />
      <rtept lat="33.23124" lon="126.504714" />
      <rtept lat="33.230971" lon="126.504242" />
      <rtept lat="33.2311" lon="126.503532" />
      <rtept lat="33.231423" lon="126.50291" />
      <rtept lat="33.231743" lon="126.502504" />
      <rtept lat="33.231653" lon="126.501388" />
      <rtept lat="33.231405" lon="126.500828" />
      <rtept lat="33.231473" lon="126.500573" />
      <rtept lat="33.23185" lon="126.500251" />
      <rtept lat="33.232102" lon="126.500337" />
      <rtept lat="33.232249" lon="126.499734" />
      <rtept lat="33.232659" lon="126.498962" />
      <rtept lat="33.233171" lon="126.497998" />
      <rtept lat="33.233171" lon="126.49722" />
      <rtept lat="33.233143" lon="126.496882" />
      <rtept lat="33.232927" lon="126.496067" />
      <rtept lat="33.232514" lon="126.495745" />
      <rtept lat="33.231993" lon="126.494907" />
      <rtept lat="33.231818" lon="126.494627" />
      <rtept lat="33.231836" lon="126.493833" />
      <rtept lat="33.232482" lon="126.49334" />
      <rtept lat="33.232859" lon="126.492374" />
      <rtept lat="33.232715" lon="126.492074" />
      <rtept lat="33.232927" lon="126.491647">
         <ele>10</ele>
      </rtept>
      <rtept lat="33.232837" lon="126.49111">
         <ele>10</ele>
      </rtept>
      <rtept lat="33.23268" lon="126.490979">
         <ele>10</ele>
      </rtept>
      <rtept lat="33.2325" lon="126.490507">
         <ele>10</ele>
      </rtept>
      <rtept lat="33.232648" lon="126.490101">
         <ele>10</ele>
      </rtept>
      <rtept lat="33.233153" lon="126.488712">
         <ele>10</ele>
      </rtept>
      <rtept lat="33.23362" lon="126.487725">
         <ele>10</ele>
      </rtept>
      <rtept lat="33.233924" lon="126.487491">
         <ele>10</ele>
      </rtept>
      <rtept lat="33.233489" lon="126.48686">
         <ele>10</ele>
      </rtept>
      <rtept lat="33.233458" lon="126.486736">
         <ele>10</ele>
      </rtept>
      <rtept lat="33.23345" lon="126.48662">
         <ele>10</ele>
      </rtept>
      <rtept lat="33.233563" lon="126.486121">
         <ele>10</ele>
      </rtept>
      <rtept lat="33.233637" lon="126.485611">
         <ele>10</ele>
      </rtept>
      <rtept lat="33.233762" lon="126.485185">
         <ele>20</ele>
      </rtept>
      <rtept lat="33.233768" lon="126.484849">
         <ele>20</ele>
      </rtept>
      <rtept lat="33.233646" lon="126.483364">
         <ele>20</ele>
      </rtept>
      <rtept lat="33.233381" lon="126.482801">
         <ele>20</ele>
      </rtept>
      <rtept lat="33.232913" lon="126.482504">
         <ele>20</ele>
      </rtept>
      <rtept lat="33.232568" lon="126.481175">
         <ele>20</ele>
      </rtept>
      <rtept lat="33.232356" lon="126.481023">
         <ele>20</ele>
      </rtept>
      <rtept lat="33.232485" lon="126.480377">
         <ele>20</ele>
      </rtept>
      <rtept lat="33.232663" lon="126.479489" />
      <rtept lat="33.232183" lon="126.479395" />
      <rtept lat="33.231837" lon="126.479305" />
      <rtept lat="33.231007" lon="126.479129">
         <ele>20</ele>
      </rtept>
      <rtept lat="33.230779" lon="126.479043">
         <ele>20</ele>
      </rtept>
      <rtept lat="33.23048" lon="126.478878">
         <ele>20</ele>
      </rtept>
      <rtept lat="33.23019" lon="126.478632">
         <ele>20</ele>
      </rtept>
      <rtept lat="33.23008" lon="126.478509">
         <ele>17.14514</ele>
      </rtept>
      <rtept lat="33.229932" lon="126.4783">
         <ele>15.72262</ele>
      </rtept>
      <rtept lat="33.229626" lon="126.477819">
         <ele>10</ele>
      </rtept>
      <rtept lat="33.229219" lon="126.476945">
         <ele>10</ele>
      </rtept>
      <rtept lat="33.228999" lon="126.476423">
         <ele>10</ele>
      </rtept>
      <rtept lat="33.228943" lon="126.476317">
         <ele>10</ele>
      </rtept>
      <rtept lat="33.228896" lon="126.476256">
         <ele>10</ele>
      </rtept>
      <rtept lat="33.228801" lon="126.476179">
         <ele>10</ele>
      </rtept>
      <rtept lat="33.228675" lon="126.475997">
         <ele>10</ele>
      </rtept>
      <rtept lat="33.228548" lon="126.475782">
         <ele>10</ele>
      </rtept>
      <rtept lat="33.228417" lon="126.475506">
         <ele>10</ele>
      </rtept>
      <rtept lat="33.228347" lon="126.475417">
         <ele>10</ele>
      </rtept>
      <rtept lat="33.228113" lon="126.475233">
         <ele>10</ele>
      </rtept>
      <rtept lat="33.227728" lon="126.475013">
         <ele>10</ele>
      </rtept>
      <rtept lat="33.227367" lon="126.474866">
         <ele>10</ele>
      </rtept>
      <rtept lat="33.227241" lon="126.47477">
         <ele>10</ele>
      </rtept>
      <rtept lat="33.227141" lon="126.474627">
         <ele>10</ele>
      </rtept>
      <rtept lat="33.227097" lon="126.474501">
         <ele>10</ele>
      </rtept>
      <rtept lat="33.226705" lon="126.47241">
         <ele>10</ele>
      </rtept>
      <rtept lat="33.22639" lon="126.471411">
         <ele>10</ele>
      </rtept>
      <rtept lat="33.22638" lon="126.471342">
         <ele>10</ele>
      </rtept>
      <rtept lat="33.2264" lon="126.471177">
         <ele>10</ele>
      </rtept>
      <rtept lat="33.226597" lon="126.470852">
         <ele>10</ele>
      </rtept>
      <rtept lat="33.226611" lon="126.470673">
         <ele>10</ele>
      </rtept>
      <rtept lat="33.226823" lon="126.470436">
         <ele>10</ele>
      </rtept>
      <rtept lat="33.22702" lon="126.47014" />
      <rtept lat="33.227185" lon="126.469973" />
      <rtept lat="33.22734" lon="126.469849" />
      <rtept lat="33.227665" lon="126.469686" />
      <rtept lat="33.227804" lon="126.469597" />
      <rtept lat="33.228007" lon="126.469416" />
      <rtept lat="33.228365" lon="126.469" />
      <rtept lat="33.228517" lon="126.468861" />
      <rtept lat="33.228623" lon="126.468848" />
      <rtept lat="33.228664" lon="126.468911" />
      <rtept lat="33.230065" lon="126.467566" />
      <rtept lat="33.231328" lon="126.46547" />
      <rtept lat="33.231448" lon="126.465104" />
      <rtept lat="33.231484" lon="126.464922" />
      <rtept lat="33.231645" lon="126.464437" />
      <rtept lat="33.231629" lon="126.464226" />
      <rtept lat="33.231603" lon="126.464145" />
      <rtept lat="33.231638" lon="126.464059" />
      <rtept lat="33.23173" lon="126.46393" />
      <rtept lat="33.231706" lon="126.463682" />
      <rtept lat="33.231995" lon="126.463051" />
      <rtept lat="33.232059" lon="126.462946" />
      <rtept lat="33.23221" lon="126.462817" />
      <rtept lat="33.23239" lon="126.462705" />
      <rtept lat="33.232771" lon="126.462828" />
      <rtept lat="33.233142" lon="126.463091">
         <ele>10</ele>
      </rtept>
      <rtept lat="33.233393" lon="126.463344">
         <ele>10</ele>
      </rtept>
      <rtept lat="33.233573" lon="126.463423">
         <ele>10</ele>
      </rtept>
      <rtept lat="33.233764" lon="126.463447">
         <ele>10</ele>
      </rtept>
      <rtept lat="33.233926" lon="126.463436">
         <ele>10</ele>
      </rtept>
      <rtept lat="33.234067" lon="126.463598">
         <ele>10</ele>
      </rtept>
      <rtept lat="33.234246" lon="126.463572">
         <ele>10</ele>
      </rtept>
      <rtept lat="33.234355" lon="126.463454">
         <ele>10</ele>
      </rtept>
      <rtept lat="33.23426" lon="126.463287">
         <ele>10</ele>
      </rtept>
      <rtept lat="33.234537" lon="126.463249">
         <ele>10</ele>
      </rtept>
      <rtept lat="33.235139" lon="126.463113">
         <ele>10</ele>
      </rtept>
      <rtept lat="33.237687" lon="126.46214">
         <ele>12.00301</ele>
      </rtept>
      <rtept lat="33.239317" lon="126.460727">
         <ele>17.46704</ele>
      </rtept>
      <rtept lat="33.239805" lon="126.459372">
         <ele>15.2605</ele>
      </rtept>
      <rtept lat="33.240013" lon="126.458605">
         <ele>15.40808</ele>
      </rtept>
      <rtept lat="33.241133" lon="126.458042">
         <ele>25.11967</ele>
      </rtept>
      <rtept lat="33.241416" lon="126.458109">
         <ele>28.22009</ele>
      </rtept>
      <rtept lat="33.241133" lon="126.458943">
         <ele>36.76074</ele>
      </rtept>
      <rtept lat="33.241115" lon="126.459758">
         <ele>37.26107</ele>
      </rtept>
      <rtept lat="33.241201" lon="126.460427">
         <ele>40</ele>
      </rtept>
      <rtept lat="33.241286" lon="126.460581">
         <ele>40</ele>
      </rtept>
      <rtept lat="33.24143" lon="126.460842">
         <ele>50</ele>
      </rtept>
      <rtept lat="33.241848" lon="126.460321">
         <ele>40</ele>
      </rtept>
      <rtept lat="33.242407" lon="126.460128">
         <ele>44.8073</ele>
      </rtept>
      <rtept lat="33.242601" lon="126.460167">
         <ele>46.15077</ele>
      </rtept>
      <rtept lat="33.242604" lon="126.460189">
         <ele>46.31104</ele>
      </rtept>
      <rtept lat="33.243296" lon="126.460488">
         <ele>50</ele>
      </rtept>
      <rtept lat="33.243509" lon="126.459789">
         <ele>50</ele>
      </rtept>
      <rtept lat="33.243578" lon="126.459256">
         <ele>50</ele>
      </rtept>
      <rtept lat="33.243551" lon="126.45864">
         <ele>47.43189</ele>
      </rtept>
      <rtept lat="33.243888" lon="126.457357">
         <ele>50</ele>
      </rtept>
      <rtept lat="33.243958" lon="126.457142">
         <ele>50</ele>
      </rtept>
      <rtept lat="33.243956" lon="126.457141">
         <ele>50</ele>
      </rtept>
      <rtept lat="33.243873" lon="126.457411">
         <ele>50</ele>
      </rtept>
   </rte>
</gpx>