<?xml version="1.0" encoding="utf-8"?>
<kml xmlns:gx="http://www.google.com/kml/ext/2.2" xmlns="http://www.opengis.net/kml/2.2">
  <Document>
    <Style id="base_track_style">
      <LineStyle>
        <color>7f00ffff</color>
        <width>4</width>
      </LineStyle>
    </Style>
    <Folder><Placemark>
  <styleUrl>#base_track_style</styleUrl>
  <name>route</name>
  <MultiGeometry>
    <LineString>
      <coordinates>126.262331,33.41863,0
126.262415,33.41865,0
126.262326,33.418977,0
126.262113,33.419753,0
126.26202,33.420038,0
126.262005,33.420308,0
126.261921,33.421585,0
126.261922,33.421784,0
126.261996,33.422126,0
126.263638,33.424777,0
126.263845,33.424871,0
126.263965,33.424894,0
126.264407,33.424979,0
126.264479,33.425033,0
126.26449,33.425156,0
126.264254,33.426104,0
126.264995,33.426215,10
126.265184,33.426323,10
126.265517,33.426462,10
126.265721,33.426494,10
126.266549,33.4264,10
126.26698,33.426188,10
126.267179,33.426202,10
126.267436,33.426059,10
126.267526,33.426038,10
126.267923,33.426093,10
126.268055,33.426177,10
126.268418,33.426232,10
126.268584,33.426179,10
126.26875,33.426087,10
126.268839,33.426131,10
126.269102,33.42632,10
126.269091,33.426513,10
126.269064,33.426563,10
126.268892,33.426666,10
126.26886,33.426724,10
126.268824,33.426953,10
126.269005,33.426973,10
126.269182,33.426993,10
126.269538,33.427123,10
126.26972,33.427163,10
126.270207,33.427517,10
126.269755,33.427841,10
126.269359,33.428125,10
126.269595,33.428355,10
126.272321,33.431013,10
126.274651,33.433254,10
126.27482,33.433415,10
126.274688,33.433496,10
126.274632,33.433572,10
126.274334,33.434219,10
126.274042,33.434519,10
126.273875,33.434623,10
126.273554,33.434746,10
126.273497,33.434767,10
126.273679,33.434943,10
126.274033,33.435667,10
126.274251,33.436342,10
126.27436,33.436498,10
126.274739,33.436911,10
126.275311,33.437812,10
126.275356,33.437913,10
126.275438,33.438488,10
126.275475,33.438559,10
126.275534,33.438621,10
126.276084,33.439063,10
126.276211,33.439191,10
126.276322,33.439407,10
126.276465,33.439898,10
126.276452,33.440015,10
126.276164,33.440388,10
126.276164,33.440472,10
126.276195,33.440534,10
126.276301,33.440648,10
126.276481,33.440763,10
126.276645,33.440825,10
126.276825,33.440856,10
126.277185,33.440883,10
126.27727,33.440918,10
126.277323,33.440962,10
126.277355,33.44102,10
126.27737,33.441103,10
126.277355,33.441174,10
126.277243,33.441439,10
126.277233,33.441527,10
126.277265,33.441603,10
126.277318,33.441647,10
126.277541,33.441714,10
126.277609,33.44177,10
126.277645,33.441852,10
126.277629,33.442198,10
126.277681,33.442311,10
126.277759,33.442419,10
126.278018,33.442674,0
126.278091,33.442708,0
126.278184,33.442713,0
126.278211,33.443012,10
126.278141,33.443328,10
126.278928,33.443364,10
126.278949,33.442945,0
126.278521,33.442502,10
126.279246,33.441978,10
126.279726,33.442143,10
126.280091,33.442324,10
126.280216,33.442358,10
126.280376,33.442367,10
126.280828,33.442325,10
126.281325,33.442306,10
126.281656,33.442488,10
126.281827,33.44251,10
126.282211,33.442432,10
126.282454,33.442406,10
126.28305,33.442427,10
126.283304,33.442466,10
126.283988,33.442726,10
126.284066,33.442791,10
126.284108,33.442907,10
126.284118,33.443003,10
126.284102,33.443085,10
126.284061,33.443171,10
126.283812,33.443487,10
126.283755,33.443591,10
126.283677,33.443945,10
126.283698,33.444049,10
126.28374,33.444148,10
126.283797,33.444222,10
126.283905,33.444287,10
126.284408,33.444499,10
126.284498,33.444522,10
126.284709,33.444577,10
126.2849,33.444585,10
126.285056,33.444564,10
126.28517,33.444516,10
126.286035,33.443958,10
126.286129,33.443919,10
126.286253,33.443902,10
126.286357,33.443924,10
126.28646,33.443976,10
126.286683,33.444131,10
126.286777,33.44417,10
126.286896,33.444174,10
126.287036,33.444153,10
126.287953,33.44382,10
126.289026,33.442899,10
126.289565,33.442008,10
126.28984,33.4421,10
126.291875,33.443089,10
126.292569,33.443364,10
126.293459,33.44362,10
126.293779,33.443696,10
126.293728,33.443848,10
126.29381,33.444069,10
126.293781,33.444357,10
126.293842,33.444571,10
126.293976,33.444747,10
126.294082,33.444808,10
126.29431,33.444879,10
126.294533,33.445141,10
126.2949,33.445974,10
126.294921,33.44599,10
126.296475,33.446252,10
126.296532,33.446281,10
126.296558,33.446317,10
126.29667,33.446894,10
126.296704,33.446953,10
126.296744,33.446974,10
126.296851,33.446966,10
126.296959,33.446835,10
126.297123,33.446688,10
126.297314,33.446554,10
126.297646,33.44639,10
126.297973,33.446308,10
126.298768,33.446182,10
126.298787,33.446135,10
126.29906,33.445943,10
126.299317,33.445592,10
126.299471,33.445249,10
126.299504,33.444785,10
126.299504,33.444366,10
126.300384,33.444396,10
126.300626,33.444428,10
126.300611,33.44454,10
126.300688,33.445037,10
126.300683,33.44514,10
126.300574,33.445325,10
126.300456,33.445697,10
126.300333,33.445934,10
126.300307,33.446124,10
126.300234,33.446242,10
126.300136,33.446512,10
126.300117,33.446646,10
126.300115,33.446967,10
126.300089,33.44703,10
126.29993,33.447189,10
126.29989,33.447229,10
126.300334,33.447654,10
126.300549,33.447672,10
126.300641,33.447697,10
126.300767,33.447773,10
126.300833,33.447871,10
126.300879,33.447908,10
126.300927,33.448224,10
126.301207,33.448427,10
126.301302,33.448405,10
126.301458,33.448432,10
126.301797,33.448492,10
126.302104,33.448602,10
126.302216,33.448468,10
126.302361,33.448437,10
126.302435,33.4484,10
126.302632,33.448146,10
126.302718,33.448098,10
126.302811,33.448066,10
126.303375,33.447958,10
126.303457,33.447927,10
126.303591,33.447833,10
126.303779,33.447739,10
126.30427,33.447656,10
126.304423,33.44769,10
126.30386,33.449147,10
126.303887,33.44921,10
126.304311,33.449565,10
126.304367,33.449586,10
126.304426,33.449561,10
126.304678,33.449381,10
126.304915,33.449585,10
126.305546,33.449415,10
126.305715,33.449792,10
126.305859,33.450037,10
126.306398,33.450699,10
126.30682,33.451079,10
126.306897,33.451198,10
126.30693,33.4513,10
126.306965,33.451808,10
126.306569,33.452847,10
126.30641,33.45371,10
126.306409,33.453973,10
126.306411,33.454024,10
126.30651,33.454016,10
126.306562,33.454089,10
126.306827,33.454183,10
126.30706,33.454309,10
126.307257,33.454471,10
126.307385,33.454598,10
126.307683,33.455037,10
126.307752,33.455092,10
126.307887,33.455157,10
126.307976,33.455227,10
126.30807,33.455401,10
126.308084,33.455493,10
126.30816,33.455589,10
126.3084,33.455727,10
126.308412,33.45593,10
126.308452,33.456056,10
126.308531,33.45616,10
126.308587,33.456267,10
126.308635,33.456503,10
126.308628,33.456578,10
126.308588,33.456648,10
126.308412,33.456849,10
126.308341,33.456968,10
126.308316,33.457091,10
126.308331,33.457176,10
126.308421,33.457239,10
126.308505,33.457357,10
126.308694,33.457406,10
126.30881,33.457533,10
126.308895,33.457573,10
126.308954,33.457635,10
126.30893,33.457783,10
126.308825,33.458051,10
126.30882,33.45823,10
126.308882,33.458318,10
126.30915,33.4584,10
126.309296,33.458384,10
126.309418,33.458428,10
126.309633,33.458591,10
126.309787,33.458821,10
126.310129,33.459031,10
126.310274,33.459015,10
126.310443,33.45923,10
126.310591,33.459304,10.06126
126.310569,33.459494,10
126.310583,33.459733,10
126.310516,33.459794,10
126.310524,33.459868,10
126.310664,33.460119,10
126.310597,33.460446,10
126.310436,33.460737,10
126.310391,33.460974,10
126.31067,33.461558,10
126.310646,33.461949,10
126.310512,33.462188,10
126.310493,33.462179,10
126.31041,33.462244,10
126.310333,33.462304,10
126.310166,33.462364,10
126.309786,33.462467,10
126.309708,33.462562,10
126.309425,33.462584,10
126.309216,33.46265,10
126.309114,33.462618,10
126.309055,33.46262,10
126.308954,33.462754,10
126.308728,33.462915,10
126.308683,33.462989,10
126.308722,33.463215,10
126.308903,33.463542,10
126.308913,33.463688,10
126.308807,33.464054,10
126.308805,33.464143,10
126.30886,33.464239,10
126.308862,33.464582,10
126.309017,33.464755,10
126.309238,33.464824,10
126.309275,33.465002,10
126.309415,33.465094,10
126.309872,33.465316,10
126.310322,33.465358,10
126.310482,33.465436,10
126.310651,33.46545,10
126.31095,33.46566,10
126.311017,33.465684,10
126.311241,33.465587,10
126.311899,33.465565,10
126.311974,33.465594,10
126.312108,33.465535,10
126.312235,33.465345,10
126.312377,33.465289,10
126.312525,33.465175,10
126.312737,33.465248,10
126.31285,33.46539,10
126.31292,33.465392,10
126.313111,33.465316,10
126.313338,33.465284,10
126.31337,33.46525,10
126.313386,33.46503,10
126.31363,33.464867,10
126.313829,33.464816,10
126.313987,33.464681,10
126.314544,33.464508,10
126.314699,33.464413,10
126.315014,33.463986,10
126.316772,33.464533,10
126.316698,33.464759,10
126.316556,33.465381,10
126.316496,33.465717,10
126.316476,33.466054,10
126.316492,33.466123,10
126.316559,33.466188,10
126.316618,33.466225,10
126.316896,33.466302,10
126.317549,33.466462,10
126.318532,33.466732,10
126.319273,33.466966,10
126.319502,33.467075,10
126.32068,33.467289,10
126.320839,33.467248,10
126.321003,33.467138,10
126.321947,33.466422,10
126.322287,33.466248,10
126.322606,33.466151,10
126.32296,33.466087,10
126.323178,33.466078,10
126.32342,33.466099,10
126.324279,33.466233,10
126.324742,33.466233,10
126.32661,33.466058,10
126.327123,33.466024,10
126.32746,33.466024,10
126.327729,33.466066,10
126.327929,33.466148,10
126.328022,33.46622,10
126.328727,33.467412,10
126.328828,33.467536,10
126.328974,33.46766,10
126.329162,33.467764,10
126.329389,33.467849,10
126.329535,33.467882,10
126.329738,33.467897,10
126.330015,33.46788,10
126.331492,33.46774,10
126.331751,33.467682,10
126.332361,33.46743,10
126.333157,33.466905,10
126.333266,33.466862,10
126.333456,33.466788,10
126.334581,33.466483,10
126.335109,33.466437,10
126.335408,33.466508,10
126.33567,33.466671,10
126.335866,33.466866,10
126.33609,33.467037,10
126.336295,33.46717,10
126.336566,33.46724,10
126.336772,33.467232,10
126.337136,33.467154,10
126.337472,33.467076,10
126.337696,33.466975,10
126.337904,33.46695,10
126.338098,33.466944,10
126.338144,33.466955,10
</coordinates>
    </LineString>
  </MultiGeometry>
</Placemark></Folder>
  </Document>
</kml>