<?xml version="1.0" encoding="utf-8"?>
<gpx version="1.1" creator="Movescount - http://www.movescount.com" xmlns:xsi="http://www.w3.org/2001/XMLSchema-instance" xsi:schemaLocation="http://www.topografix.com/GPX/1/1 http://www.topografix.com/GPX/1/1/gpx.xsd http://www.cluetrust.com/XML/GPXDATA/1/0 http://www.cluetrust.com/Schemas/gpxdata10.xsd http://www.garmin.com/xmlschemas/TrackPointExtension/v1 http://www.garmin.com/xmlschemas/TrackPointExtensionv1.xsd" xmlns:gpxdata="http://www.cluetrust.com/XML/GPXDATA/1/0" xmlns:gpxtpx="http://www.garmin.com/xmlschemas/TrackPointExtension/v1" xmlns="http://www.topografix.com/GPX/1/1">
   <rte>
      <name>ollegil 12</name>
      <rtept lat="33.274585" lon="126.236672">
         <ele>50</ele>
      </rtept>
      <rtept lat="33.274562" lon="126.236672">
         <ele>50</ele>
      </rtept>
      <rtept lat="33.274566" lon="126.236062">
         <ele>50</ele>
      </rtept>
      <rtept lat="33.274175" lon="126.236099">
         <ele>50</ele>
      </rtept>
      <rtept lat="33.27384" lon="126.236111">
         <ele>50</ele>
      </rtept>
      <rtept lat="33.273639" lon="126.236031">
         <ele>50</ele>
      </rtept>
      <rtept lat="33.273443" lon="126.236027">
         <ele>50</ele>
      </rtept>
      <rtept lat="33.272554" lon="126.235658">
         <ele>50</ele>
      </rtept>
      <rtept lat="33.273314" lon="126.234277">
         <ele>50</ele>
      </rtept>
      <rtept lat="33.2736" lon="126.233769">
         <ele>50</ele>
      </rtept>
      <rtept lat="33.273665" lon="126.233724">
         <ele>50</ele>
      </rtept>
      <rtept lat="33.273794" lon="126.233691">
         <ele>50</ele>
      </rtept>
      <rtept lat="33.273956" lon="126.233675">
         <ele>50</ele>
      </rtept>
      <rtept lat="33.273979" lon="126.233271">
         <ele>50</ele>
      </rtept>
      <rtept lat="33.27399" lon="126.232958">
         <ele>50</ele>
      </rtept>
      <rtept lat="33.273993" lon="126.232883">
         <ele>50</ele>
      </rtept>
      <rtept lat="33.273731" lon="126.232887">
         <ele>50</ele>
      </rtept>
      <rtept lat="33.273569" lon="126.23289">
         <ele>50</ele>
      </rtept>
      <rtept lat="33.273437" lon="126.232916">
         <ele>50</ele>
      </rtept>
      <rtept lat="33.272962" lon="126.233071">
         <ele>50</ele>
      </rtept>
      <rtept lat="33.272359" lon="126.233236">
         <ele>50</ele>
      </rtept>
      <rtept lat="33.272265" lon="126.23323">
         <ele>50</ele>
      </rtept>
      <rtept lat="33.272177" lon="126.233171">
         <ele>50</ele>
      </rtept>
      <rtept lat="33.272039" lon="126.23317">
         <ele>50</ele>
      </rtept>
      <rtept lat="33.271756" lon="126.233167">
         <ele>50</ele>
      </rtept>
      <rtept lat="33.271502" lon="126.232368">
         <ele>40</ele>
      </rtept>
      <rtept lat="33.271502" lon="126.23229">
         <ele>40</ele>
      </rtept>
      <rtept lat="33.271502" lon="126.231714">
         <ele>40</ele>
      </rtept>
      <rtept lat="33.271471" lon="126.231407">
         <ele>40</ele>
      </rtept>
      <rtept lat="33.271337" lon="126.231111">
         <ele>40</ele>
      </rtept>
      <rtept lat="33.27132" lon="126.230886">
         <ele>40</ele>
      </rtept>
      <rtept lat="33.271298" lon="126.230596">
         <ele>40</ele>
      </rtept>
      <rtept lat="33.271285" lon="126.230419">
         <ele>40</ele>
      </rtept>
      <rtept lat="33.271338" lon="126.230373">
         <ele>40</ele>
      </rtept>
      <rtept lat="33.271551" lon="126.23046">
         <ele>40</ele>
      </rtept>
      <rtept lat="33.271809" lon="126.230464">
         <ele>40</ele>
      </rtept>
      <rtept lat="33.272054" lon="126.2304">
         <ele>40</ele>
      </rtept>
      <rtept lat="33.272207" lon="126.230319">
         <ele>40</ele>
      </rtept>
      <rtept lat="33.272214" lon="126.230128">
         <ele>40</ele>
      </rtept>
      <rtept lat="33.272242" lon="126.229755">
         <ele>40</ele>
      </rtept>
      <rtept lat="33.272337" lon="126.229424">
         <ele>40</ele>
      </rtept>
      <rtept lat="33.272363" lon="126.229382">
         <ele>40</ele>
      </rtept>
      <rtept lat="33.272482" lon="126.229187">
         <ele>40</ele>
      </rtept>
      <rtept lat="33.272605" lon="126.229069">
         <ele>40</ele>
      </rtept>
      <rtept lat="33.27266" lon="126.229016">
         <ele>40</ele>
      </rtept>
      <rtept lat="33.272882" lon="126.22892">
         <ele>40</ele>
      </rtept>
      <rtept lat="33.272923" lon="126.228915">
         <ele>40</ele>
      </rtept>
      <rtept lat="33.273066" lon="126.228896">
         <ele>40</ele>
      </rtept>
      <rtept lat="33.273127" lon="126.228895">
         <ele>40</ele>
      </rtept>
      <rtept lat="33.273188" lon="126.228894">
         <ele>40</ele>
      </rtept>
      <rtept lat="33.273249" lon="126.228892">
         <ele>40</ele>
      </rtept>
      <rtept lat="33.27331" lon="126.228891">
         <ele>40</ele>
      </rtept>
      <rtept lat="33.273371" lon="126.22889">
         <ele>40</ele>
      </rtept>
      <rtept lat="33.273432" lon="126.228886">
         <ele>40</ele>
      </rtept>
      <rtept lat="33.273548" lon="126.22887">
         <ele>40</ele>
      </rtept>
      <rtept lat="33.273724" lon="126.228845">
         <ele>40</ele>
      </rtept>
      <rtept lat="33.273923" lon="126.228843">
         <ele>40</ele>
      </rtept>
      <rtept lat="33.274164" lon="126.22884">
         <ele>40</ele>
      </rtept>
      <rtept lat="33.274412" lon="126.228853">
         <ele>50</ele>
      </rtept>
      <rtept lat="33.274577" lon="126.22882">
         <ele>50</ele>
      </rtept>
      <rtept lat="33.274667" lon="126.228798">
         <ele>50</ele>
      </rtept>
      <rtept lat="33.274746" lon="126.228737">
         <ele>50</ele>
      </rtept>
      <rtept lat="33.274852" lon="126.228656">
         <ele>50</ele>
      </rtept>
      <rtept lat="33.274895" lon="126.228623">
         <ele>50</ele>
      </rtept>
      <rtept lat="33.274948" lon="126.228609">
         <ele>50</ele>
      </rtept>
      <rtept lat="33.275044" lon="126.228583">
         <ele>50</ele>
      </rtept>
      <rtept lat="33.27514" lon="126.228556">
         <ele>50</ele>
      </rtept>
      <rtept lat="33.275236" lon="126.22853">
         <ele>50</ele>
      </rtept>
      <rtept lat="33.275281" lon="126.228518">
         <ele>50</ele>
      </rtept>
      <rtept lat="33.275298" lon="126.228401">
         <ele>50</ele>
      </rtept>
      <rtept lat="33.275324" lon="126.228217">
         <ele>50</ele>
      </rtept>
      <rtept lat="33.275355" lon="126.228">
         <ele>50</ele>
      </rtept>
      <rtept lat="33.275385" lon="126.227783">
         <ele>50</ele>
      </rtept>
      <rtept lat="33.275416" lon="126.227566">
         <ele>50</ele>
      </rtept>
      <rtept lat="33.275418" lon="126.227553">
         <ele>50</ele>
      </rtept>
      <rtept lat="33.27547" lon="126.227562">
         <ele>50</ele>
      </rtept>
      <rtept lat="33.275549" lon="126.227576">
         <ele>50</ele>
      </rtept>
      <rtept lat="33.275623" lon="126.227589">
         <ele>50</ele>
      </rtept>
      <rtept lat="33.275697" lon="126.227603">
         <ele>50</ele>
      </rtept>
      <rtept lat="33.277166" lon="126.227864">
         <ele>50</ele>
      </rtept>
      <rtept lat="33.2772" lon="126.22787">
         <ele>50</ele>
      </rtept>
      <rtept lat="33.277255" lon="126.22788">
         <ele>50</ele>
      </rtept>
      <rtept lat="33.27731" lon="126.22789">
         <ele>50</ele>
      </rtept>
      <rtept lat="33.277365" lon="126.2279">
         <ele>50</ele>
      </rtept>
      <rtept lat="33.27742" lon="126.227909">
         <ele>50</ele>
      </rtept>
      <rtept lat="33.277435" lon="126.227912">
         <ele>50</ele>
      </rtept>
      <rtept lat="33.277438" lon="126.227885">
         <ele>50</ele>
      </rtept>
      <rtept lat="33.277448" lon="126.227813">
         <ele>50</ele>
      </rtept>
      <rtept lat="33.277456" lon="126.227752">
         <ele>50</ele>
      </rtept>
      <rtept lat="33.277479" lon="126.227576">
         <ele>50</ele>
      </rtept>
      <rtept lat="33.27752" lon="126.227261">
         <ele>50</ele>
      </rtept>
      <rtept lat="33.277725" lon="126.225686">
         <ele>50</ele>
      </rtept>
      <rtept lat="33.277728" lon="126.225662">
         <ele>50</ele>
      </rtept>
      <rtept lat="33.277748" lon="126.225667">
         <ele>50</ele>
      </rtept>
      <rtept lat="33.277811" lon="126.225681">
         <ele>50</ele>
      </rtept>
      <rtept lat="33.277959" lon="126.225716">
         <ele>50</ele>
      </rtept>
      <rtept lat="33.278092" lon="126.225668">
         <ele>50</ele>
      </rtept>
      <rtept lat="33.278259" lon="126.22558">
         <ele>50</ele>
      </rtept>
      <rtept lat="33.278314" lon="126.225566">
         <ele>50</ele>
      </rtept>
      <rtept lat="33.278385" lon="126.225582">
         <ele>50</ele>
      </rtept>
      <rtept lat="33.278509" lon="126.225609">
         <ele>50</ele>
      </rtept>
      <rtept lat="33.278539" lon="126.225615">
         <ele>50</ele>
      </rtept>
      <rtept lat="33.278637" lon="126.225588">
         <ele>50</ele>
      </rtept>
      <rtept lat="33.278746" lon="126.225539">
         <ele>50</ele>
      </rtept>
      <rtept lat="33.278768" lon="126.225183">
         <ele>50</ele>
      </rtept>
      <rtept lat="33.278767" lon="126.225163">
         <ele>50</ele>
      </rtept>
      <rtept lat="33.278764" lon="126.225003">
         <ele>50</ele>
      </rtept>
      <rtept lat="33.278761" lon="126.224895">
         <ele>50</ele>
      </rtept>
      <rtept lat="33.278758" lon="126.224721">
         <ele>50</ele>
      </rtept>
      <rtept lat="33.278739" lon="126.224316">
         <ele>50</ele>
      </rtept>
      <rtept lat="33.278817" lon="126.224177">
         <ele>50</ele>
      </rtept>
      <rtept lat="33.278936" lon="126.224035">
         <ele>50</ele>
      </rtept>
      <rtept lat="33.27902" lon="126.223935">
         <ele>50</ele>
      </rtept>
      <rtept lat="33.279029" lon="126.223864">
         <ele>50</ele>
      </rtept>
      <rtept lat="33.279052" lon="126.223687">
         <ele>50</ele>
      </rtept>
      <rtept lat="33.279064" lon="126.223578">
         <ele>50</ele>
      </rtept>
      <rtept lat="33.279219" lon="126.223592">
         <ele>50</ele>
      </rtept>
      <rtept lat="33.279243" lon="126.223594">
         <ele>50</ele>
      </rtept>
      <rtept lat="33.279276" lon="126.223598">
         <ele>50</ele>
      </rtept>
      <rtept lat="33.279309" lon="126.223601">
         <ele>50</ele>
      </rtept>
      <rtept lat="33.279342" lon="126.223605">
         <ele>50</ele>
      </rtept>
      <rtept lat="33.279375" lon="126.223609">
         <ele>50</ele>
      </rtept>
      <rtept lat="33.279408" lon="126.223612">
         <ele>50</ele>
      </rtept>
      <rtept lat="33.279441" lon="126.223616">
         <ele>50</ele>
      </rtept>
      <rtept lat="33.279474" lon="126.223619">
         <ele>50</ele>
      </rtept>
      <rtept lat="33.279503" lon="126.22361">
         <ele>50</ele>
      </rtept>
      <rtept lat="33.279534" lon="126.223596">
         <ele>50</ele>
      </rtept>
      <rtept lat="33.279565" lon="126.223583">
         <ele>50</ele>
      </rtept>
      <rtept lat="33.27958" lon="126.223576">
         <ele>50</ele>
      </rtept>
      <rtept lat="33.279596" lon="126.223569">
         <ele>50</ele>
      </rtept>
      <rtept lat="33.27961" lon="126.223563">
         <ele>50</ele>
      </rtept>
      <rtept lat="33.279602" lon="126.223537">
         <ele>50</ele>
      </rtept>
      <rtept lat="33.279595" lon="126.223511">
         <ele>50</ele>
      </rtept>
      <rtept lat="33.279587" lon="126.223485">
         <ele>50</ele>
      </rtept>
      <rtept lat="33.27958" lon="126.223459">
         <ele>50</ele>
      </rtept>
      <rtept lat="33.279573" lon="126.223434">
         <ele>50</ele>
      </rtept>
      <rtept lat="33.279568" lon="126.223419">
         <ele>50</ele>
      </rtept>
      <rtept lat="33.27956" lon="126.223389">
         <ele>50</ele>
      </rtept>
      <rtept lat="33.279544" lon="126.223331">
         <ele>50</ele>
      </rtept>
      <rtept lat="33.279538" lon="126.223298">
         <ele>50</ele>
      </rtept>
      <rtept lat="33.279534" lon="126.223248">
         <ele>50</ele>
      </rtept>
      <rtept lat="33.27953" lon="126.223198">
         <ele>50</ele>
      </rtept>
      <rtept lat="33.279522" lon="126.223101">
         <ele>50</ele>
      </rtept>
      <rtept lat="33.279532" lon="126.223031">
         <ele>50</ele>
      </rtept>
      <rtept lat="33.279553" lon="126.222837">
         <ele>50</ele>
      </rtept>
      <rtept lat="33.279569" lon="126.222595">
         <ele>50</ele>
      </rtept>
      <rtept lat="33.279582" lon="126.222595">
         <ele>50</ele>
      </rtept>
      <rtept lat="33.280722" lon="126.222499">
         <ele>50</ele>
      </rtept>
      <rtept lat="33.28092" lon="126.22182">
         <ele>50</ele>
      </rtept>
      <rtept lat="33.280935" lon="126.221768">
         <ele>50</ele>
      </rtept>
      <rtept lat="33.280921" lon="126.221235">
         <ele>50</ele>
      </rtept>
      <rtept lat="33.280921" lon="126.220907">
         <ele>50</ele>
      </rtept>
      <rtept lat="33.280962" lon="126.220631">
         <ele>50</ele>
      </rtept>
      <rtept lat="33.281064" lon="126.220346">
         <ele>50</ele>
      </rtept>
      <rtept lat="33.281129" lon="126.220038">
         <ele>50</ele>
      </rtept>
      <rtept lat="33.280967" lon="126.219364">
         <ele>50</ele>
      </rtept>
      <rtept lat="33.280921" lon="126.219021">
         <ele>50</ele>
      </rtept>
      <rtept lat="33.280921" lon="126.218779">
         <ele>50</ele>
      </rtept>
      <rtept lat="33.280921" lon="126.218517">
         <ele>50</ele>
      </rtept>
      <rtept lat="33.280962" lon="126.218253">
         <ele>50</ele>
      </rtept>
      <rtept lat="33.280982" lon="126.218127">
         <ele>50</ele>
      </rtept>
      <rtept lat="33.280918" lon="126.21739">
         <ele>50</ele>
      </rtept>
      <rtept lat="33.280914" lon="126.217346">
         <ele>50</ele>
      </rtept>
      <rtept lat="33.280997" lon="126.217027">
         <ele>50</ele>
      </rtept>
      <rtept lat="33.28103" lon="126.216899">
         <ele>50</ele>
      </rtept>
      <rtept lat="33.281031" lon="126.21641">
         <ele>50</ele>
      </rtept>
      <rtept lat="33.281047" lon="126.21576">
         <ele>50</ele>
      </rtept>
      <rtept lat="33.281118" lon="126.214997">
         <ele>50</ele>
      </rtept>
      <rtept lat="33.281291" lon="126.214866">
         <ele>50</ele>
      </rtept>
      <rtept lat="33.2813" lon="126.214454">
         <ele>40</ele>
      </rtept>
      <rtept lat="33.281318" lon="126.214231">
         <ele>40</ele>
      </rtept>
      <rtept lat="33.281248" lon="126.21403">
         <ele>40</ele>
      </rtept>
      <rtept lat="33.281209" lon="126.213726">
         <ele>40</ele>
      </rtept>
      <rtept lat="33.281221" lon="126.213686">
         <ele>40</ele>
      </rtept>
      <rtept lat="33.281295" lon="126.213432">
         <ele>40</ele>
      </rtept>
      <rtept lat="33.281443" lon="126.213133">
         <ele>40</ele>
      </rtept>
      <rtept lat="33.281426" lon="126.21289">
         <ele>40</ele>
      </rtept>
      <rtept lat="33.281389" lon="126.211714">
         <ele>40</ele>
      </rtept>
      <rtept lat="33.281451" lon="126.21134">
         <ele>40</ele>
      </rtept>
      <rtept lat="33.2814" lon="126.210341">
         <ele>40</ele>
      </rtept>
      <rtept lat="33.281377" lon="126.210187">
         <ele>40</ele>
      </rtept>
      <rtept lat="33.281431" lon="126.209808">
         <ele>40</ele>
      </rtept>
      <rtept lat="33.281439" lon="126.20945">
         <ele>40</ele>
      </rtept>
      <rtept lat="33.281507" lon="126.209017">
         <ele>40</ele>
      </rtept>
      <rtept lat="33.281468" lon="126.208908">
         <ele>40</ele>
      </rtept>
      <rtept lat="33.281378" lon="126.208824">
         <ele>40</ele>
      </rtept>
      <rtept lat="33.281315" lon="126.208684">
         <ele>40</ele>
      </rtept>
      <rtept lat="33.281288" lon="126.208556">
         <ele>40</ele>
      </rtept>
      <rtept lat="33.281303" lon="126.208471">
         <ele>40</ele>
      </rtept>
      <rtept lat="33.281371" lon="126.208375">
         <ele>40</ele>
      </rtept>
      <rtept lat="33.281396" lon="126.208271">
         <ele>40</ele>
      </rtept>
      <rtept lat="33.281389" lon="126.208082">
         <ele>40</ele>
      </rtept>
      <rtept lat="33.281347" lon="126.207836">
         <ele>40</ele>
      </rtept>
      <rtept lat="33.281388" lon="126.207651">
         <ele>40</ele>
      </rtept>
      <rtept lat="33.28166" lon="126.20707">
         <ele>40</ele>
      </rtept>
      <rtept lat="33.281725" lon="126.206716">
         <ele>40</ele>
      </rtept>
      <rtept lat="33.281707" lon="126.206444">
         <ele>40</ele>
      </rtept>
      <rtept lat="33.281494" lon="126.205977">
         <ele>30</ele>
      </rtept>
      <rtept lat="33.281464" lon="126.205478">
         <ele>30</ele>
      </rtept>
      <rtept lat="33.281334" lon="126.20535">
         <ele>30</ele>
      </rtept>
      <rtept lat="33.281231" lon="126.20511">
         <ele>30</ele>
      </rtept>
      <rtept lat="33.281307" lon="126.203467">
         <ele>30</ele>
      </rtept>
      <rtept lat="33.281456" lon="126.203267">
         <ele>30</ele>
      </rtept>
      <rtept lat="33.281928" lon="126.203158">
         <ele>30</ele>
      </rtept>
      <rtept lat="33.281999" lon="126.203099">
         <ele>30</ele>
      </rtept>
      <rtept lat="33.281876" lon="126.202972">
         <ele>30</ele>
      </rtept>
      <rtept lat="33.281732" lon="126.202865">
         <ele>30</ele>
      </rtept>
      <rtept lat="33.281575" lon="126.202774">
         <ele>30</ele>
      </rtept>
      <rtept lat="33.281405" lon="126.202639">
         <ele>30</ele>
      </rtept>
      <rtept lat="33.28119" lon="126.202398">
         <ele>30</ele>
      </rtept>
      <rtept lat="33.28106" lon="126.201932">
         <ele>30</ele>
      </rtept>
      <rtept lat="33.28084" lon="126.201443">
         <ele>30</ele>
      </rtept>
      <rtept lat="33.280669" lon="126.20119">
         <ele>30</ele>
      </rtept>
      <rtept lat="33.279791" lon="126.200064">
         <ele>40</ele>
      </rtept>
      <rtept lat="33.279157" lon="126.199485">
         <ele>40</ele>
      </rtept>
      <rtept lat="33.278549" lon="126.198337">
         <ele>50</ele>
      </rtept>
      <rtept lat="33.278586" lon="126.198299">
         <ele>50</ele>
      </rtept>
      <rtept lat="33.278699" lon="126.197974">
         <ele>50</ele>
      </rtept>
      <rtept lat="33.278727" lon="126.197682">
         <ele>50.57888</ele>
      </rtept>
      <rtept lat="33.278812" lon="126.197398">
         <ele>54.06023</ele>
      </rtept>
      <rtept lat="33.278959" lon="126.197053">
         <ele>60.00016</ele>
      </rtept>
      <rtept lat="33.278939" lon="126.196736">
         <ele>64.05373</ele>
      </rtept>
      <rtept lat="33.278864" lon="126.196188">
         <ele>67.1537</ele>
      </rtept>
      <rtept lat="33.278828" lon="126.195754">
         <ele>67.07616</ele>
      </rtept>
      <rtept lat="33.278844" lon="126.195483">
         <ele>66.72092</ele>
      </rtept>
      <rtept lat="33.278957" lon="126.195291">
         <ele>68.32274</ele>
      </rtept>
      <rtept lat="33.279168" lon="126.195291">
         <ele>72.92279</ele>
      </rtept>
      <rtept lat="33.279402" lon="126.195497">
         <ele>79.32325</ele>
      </rtept>
      <rtept lat="33.279543" lon="126.195698">
         <ele>77.95435</ele>
      </rtept>
      <rtept lat="33.279773" lon="126.195772">
         <ele>80</ele>
      </rtept>
      <rtept lat="33.280046" lon="126.19573">
         <ele>80</ele>
      </rtept>
      <rtept lat="33.280222" lon="126.195628">
         <ele>80</ele>
      </rtept>
      <rtept lat="33.280413" lon="126.195455">
         <ele>77.4774</ele>
      </rtept>
      <rtept lat="33.280449" lon="126.195151">
         <ele>79.64649</ele>
      </rtept>
      <rtept lat="33.280464" lon="126.194838">
         <ele>73.84721</ele>
      </rtept>
      <rtept lat="33.280339" lon="126.194633">
         <ele>69.30337</ele>
      </rtept>
      <rtept lat="33.280128" lon="126.19454">
         <ele>69.3625</ele>
      </rtept>
      <rtept lat="33.279832" lon="126.194483">
         <ele>67.52436</ele>
      </rtept>
      <rtept lat="33.27959" lon="126.194521">
         <ele>66.90678</ele>
      </rtept>
      <rtept lat="33.279316" lon="126.194647">
         <ele>66.51252</ele>
      </rtept>
      <rtept lat="33.279184" lon="126.194497">
         <ele>61.77795</ele>
      </rtept>
      <rtept lat="33.279086" lon="126.194301">
         <ele>56.9151</ele>
      </rtept>
      <rtept lat="33.27891" lon="126.193676">
         <ele>45.94932</ele>
      </rtept>
      <rtept lat="33.278856" lon="126.193349">
         <ele>41.93573</ele>
      </rtept>
      <rtept lat="33.278864" lon="126.193255">
         <ele>40.95036</ele>
      </rtept>
      <rtept lat="33.278848" lon="126.193185">
         <ele>40.06899</ele>
      </rtept>
      <rtept lat="33.278784" lon="126.193105">
         <ele>40</ele>
      </rtept>
      <rtept lat="33.278774" lon="126.193092">
         <ele>40</ele>
      </rtept>
      <rtept lat="33.278817" lon="126.19305">
         <ele>40</ele>
      </rtept>
      <rtept lat="33.27881" lon="126.192973">
         <ele>40</ele>
      </rtept>
      <rtept lat="33.278718" lon="126.192782">
         <ele>40</ele>
      </rtept>
      <rtept lat="33.278643" lon="126.192781">
         <ele>40</ele>
      </rtept>
      <rtept lat="33.278604" lon="126.192662">
         <ele>40</ele>
      </rtept>
      <rtept lat="33.278594" lon="126.192293">
         <ele>40</ele>
      </rtept>
      <rtept lat="33.278802" lon="126.192357">
         <ele>40</ele>
      </rtept>
      <rtept lat="33.27912" lon="126.192006">
         <ele>40</ele>
      </rtept>
      <rtept lat="33.279099" lon="126.191824">
         <ele>40</ele>
      </rtept>
      <rtept lat="33.27897" lon="126.191621">
         <ele>40</ele>
      </rtept>
      <rtept lat="33.27895" lon="126.191561">
         <ele>40</ele>
      </rtept>
      <rtept lat="33.278851" lon="126.191271">
         <ele>40</ele>
      </rtept>
      <rtept lat="33.278851" lon="126.191102">
         <ele>40</ele>
      </rtept>
      <rtept lat="33.278964" lon="126.190972">
         <ele>40</ele>
      </rtept>
      <rtept lat="33.278939" lon="126.190816">
         <ele>40</ele>
      </rtept>
      <rtept lat="33.279138" lon="126.190669">
         <ele>40</ele>
      </rtept>
      <rtept lat="33.278912" lon="126.190504">
         <ele>40</ele>
      </rtept>
      <rtept lat="33.278777" lon="126.190544">
         <ele>40</ele>
      </rtept>
      <rtept lat="33.278484" lon="126.190585">
         <ele>40</ele>
      </rtept>
      <rtept lat="33.277893" lon="126.190723">
         <ele>30</ele>
      </rtept>
      <rtept lat="33.277717" lon="126.190812">
         <ele>30</ele>
      </rtept>
      <rtept lat="33.277361" lon="126.190924">
         <ele>30</ele>
      </rtept>
      <rtept lat="33.276968" lon="126.190999">
         <ele>30</ele>
      </rtept>
      <rtept lat="33.276461" lon="126.190928">
         <ele>30</ele>
      </rtept>
      <rtept lat="33.276207" lon="126.190877">
         <ele>30</ele>
      </rtept>
      <rtept lat="33.275996" lon="126.190763">
         <ele>30</ele>
      </rtept>
      <rtept lat="33.275771" lon="126.190487">
         <ele>30</ele>
      </rtept>
      <rtept lat="33.275672" lon="126.190263">
         <ele>30</ele>
      </rtept>
      <rtept lat="33.275461" lon="126.1897">
         <ele>30</ele>
      </rtept>
      <rtept lat="33.275104" lon="126.189188">
         <ele>30</ele>
      </rtept>
      <rtept lat="33.274477" lon="126.188372">
         <ele>30</ele>
      </rtept>
      <rtept lat="33.274353" lon="126.188124">
         <ele>30</ele>
      </rtept>
      <rtept lat="33.274223" lon="126.187657">
         <ele>20</ele>
      </rtept>
      <rtept lat="33.274042" lon="126.187375">
         <ele>20</ele>
      </rtept>
      <rtept lat="33.273343" lon="126.186587">
         <ele>20</ele>
      </rtept>
      <rtept lat="33.273185" lon="126.186366">
         <ele>20</ele>
      </rtept>
      <rtept lat="33.273055" lon="126.184693">
         <ele>20</ele>
      </rtept>
      <rtept lat="33.272785" lon="126.183964">
         <ele>20</ele>
      </rtept>
      <rtept lat="33.272149" lon="126.182708">
         <ele>20</ele>
      </rtept>
      <rtept lat="33.27201" lon="126.182513">
         <ele>20</ele>
      </rtept>
      <rtept lat="33.272097" lon="126.182241">
         <ele>20</ele>
      </rtept>
      <rtept lat="33.272172" lon="126.181872">
         <ele>20</ele>
      </rtept>
      <rtept lat="33.272123" lon="126.181581">
         <ele>20</ele>
      </rtept>
      <rtept lat="33.271953" lon="126.180948">
         <ele>20</ele>
      </rtept>
      <rtept lat="33.271973" lon="126.180668">
         <ele>20</ele>
      </rtept>
      <rtept lat="33.271831" lon="126.180394">
         <ele>10</ele>
      </rtept>
      <rtept lat="33.272294" lon="126.180065">
         <ele>10</ele>
      </rtept>
      <rtept lat="33.272612" lon="126.179944">
         <ele>10</ele>
      </rtept>
      <rtept lat="33.272901" lon="126.179835">
         <ele>14</ele>
      </rtept>
      <rtept lat="33.272996" lon="126.179724">
         <ele>14</ele>
      </rtept>
      <rtept lat="33.273336" lon="126.179564">
         <ele>14</ele>
      </rtept>
      <rtept lat="33.2732" lon="126.1789">
         <ele>14</ele>
      </rtept>
      <rtept lat="33.273054" lon="126.178575">
         <ele>14</ele>
      </rtept>
      <rtept lat="33.272785" lon="126.177794">
         <ele>10</ele>
      </rtept>
      <rtept lat="33.272721" lon="126.177111">
         <ele>10</ele>
      </rtept>
      <rtept lat="33.272504" lon="126.176563">
         <ele>10</ele>
      </rtept>
      <rtept lat="33.272405" lon="126.176458">
         <ele>10</ele>
      </rtept>
      <rtept lat="33.271971" lon="126.176271">
         <ele>10</ele>
      </rtept>
      <rtept lat="33.27185" lon="126.176128">
         <ele>10</ele>
      </rtept>
      <rtept lat="33.27178" lon="126.175928">
         <ele>10</ele>
      </rtept>
      <rtept lat="33.271784" lon="126.175688">
         <ele>10</ele>
      </rtept>
      <rtept lat="33.271409" lon="126.175706">
         <ele>10</ele>
      </rtept>
      <rtept lat="33.271309" lon="126.175734">
         <ele>10</ele>
      </rtept>
      <rtept lat="33.271108" lon="126.175702">
         <ele>10</ele>
      </rtept>
      <rtept lat="33.270915" lon="126.175702">
         <ele>10</ele>
      </rtept>
      <rtept lat="33.270655" lon="126.175768">
         <ele>10</ele>
      </rtept>
      <rtept lat="33.271006" lon="126.175295">
         <ele>10</ele>
      </rtept>
      <rtept lat="33.271488" lon="126.174904">
         <ele>10</ele>
      </rtept>
      <rtept lat="33.271609" lon="126.174756">
         <ele>10</ele>
      </rtept>
      <rtept lat="33.271656" lon="126.17468">
         <ele>10</ele>
      </rtept>
      <rtept lat="33.271731" lon="126.17449">
         <ele>10</ele>
      </rtept>
      <rtept lat="33.271859" lon="126.174086">
         <ele>10</ele>
      </rtept>
      <rtept lat="33.272007" lon="126.173816">
         <ele>10</ele>
      </rtept>
      <rtept lat="33.272126" lon="126.173659">
         <ele>10</ele>
      </rtept>
      <rtept lat="33.27231" lon="126.173482">
         <ele>10</ele>
      </rtept>
      <rtept lat="33.272496" lon="126.173355">
         <ele>10</ele>
      </rtept>
      <rtept lat="33.2729" lon="126.173127">
         <ele>10</ele>
      </rtept>
      <rtept lat="33.273239" lon="126.172771">
         <ele>10</ele>
      </rtept>
      <rtept lat="33.2738" lon="126.172116">
         <ele>10</ele>
      </rtept>
      <rtept lat="33.273889" lon="126.172058">
         <ele>10</ele>
      </rtept>
      <rtept lat="33.273969" lon="126.17204">
         <ele>10</ele>
      </rtept>
      <rtept lat="33.274099" lon="126.172069">
         <ele>10</ele>
      </rtept>
      <rtept lat="33.274288" lon="126.172258">
         <ele>10</ele>
      </rtept>
      <rtept lat="33.27463" lon="126.17238">
         <ele>10</ele>
      </rtept>
      <rtept lat="33.274744" lon="126.172394">
         <ele>10</ele>
      </rtept>
      <rtept lat="33.274968" lon="126.172383">
         <ele>10</ele>
      </rtept>
      <rtept lat="33.275028" lon="126.172364">
         <ele>10</ele>
      </rtept>
      <rtept lat="33.275222" lon="126.172251">
         <ele>10</ele>
      </rtept>
      <rtept lat="33.275317" lon="126.172169">
         <ele>10</ele>
      </rtept>
      <rtept lat="33.27546" lon="126.172008">
         <ele>10</ele>
      </rtept>
      <rtept lat="33.275602" lon="126.171746">
         <ele>10</ele>
      </rtept>
      <rtept lat="33.275678" lon="126.171432">
         <ele>10</ele>
      </rtept>
      <rtept lat="33.275775" lon="126.171301">
         <ele>10</ele>
      </rtept>
      <rtept lat="33.275878" lon="126.171204">
         <ele>10</ele>
      </rtept>
      <rtept lat="33.276008" lon="126.171103">
         <ele>10</ele>
      </rtept>
      <rtept lat="33.276492" lon="126.17081">
         <ele>10</ele>
      </rtept>
      <rtept lat="33.276579" lon="126.170933">
         <ele>10</ele>
      </rtept>
      <rtept lat="33.276574" lon="126.171022">
         <ele>10</ele>
      </rtept>
      <rtept lat="33.276537" lon="126.171246">
         <ele>10</ele>
      </rtept>
      <rtept lat="33.27645" lon="126.171598">
         <ele>10</ele>
      </rtept>
      <rtept lat="33.276475" lon="126.171742">
         <ele>10</ele>
      </rtept>
      <rtept lat="33.27665" lon="126.172233">
         <ele>10</ele>
      </rtept>
      <rtept lat="33.276975" lon="126.172178">
         <ele>10</ele>
      </rtept>
      <rtept lat="33.277191" lon="126.172114">
         <ele>10</ele>
      </rtept>
      <rtept lat="33.277389" lon="126.172194">
         <ele>10</ele>
      </rtept>
      <rtept lat="33.277639" lon="126.172178">
         <ele>10</ele>
      </rtept>
      <rtept lat="33.277872" lon="126.172093">
         <ele>10</ele>
      </rtept>
      <rtept lat="33.278105" lon="126.17184">
         <ele>10</ele>
      </rtept>
      <rtept lat="33.278855" lon="126.17161">
         <ele>10</ele>
      </rtept>
      <rtept lat="33.279698" lon="126.17138">
         <ele>10</ele>
      </rtept>
      <rtept lat="33.27973" lon="126.171613">
         <ele>10</ele>
      </rtept>
      <rtept lat="33.279882" lon="126.172234">
         <ele>10</ele>
      </rtept>
      <rtept lat="33.279855" lon="126.172868">
         <ele>10</ele>
      </rtept>
      <rtept lat="33.2802" lon="126.173135">
         <ele>10</ele>
      </rtept>
      <rtept lat="33.280634" lon="126.173237">
         <ele>10</ele>
      </rtept>
      <rtept lat="33.280883" lon="126.173271">
         <ele>10</ele>
      </rtept>
      <rtept lat="33.28127" lon="126.173575">
         <ele>10</ele>
      </rtept>
      <rtept lat="33.281635" lon="126.173703">
         <ele>10</ele>
      </rtept>
      <rtept lat="33.282014" lon="126.17374">
         <ele>10</ele>
      </rtept>
      <rtept lat="33.281999" lon="126.174011">
         <ele>10</ele>
      </rtept>
      <rtept lat="33.282116" lon="126.17423">
         <ele>10</ele>
      </rtept>
      <rtept lat="33.282316" lon="126.174139">
         <ele>10</ele>
      </rtept>
      <rtept lat="33.282676" lon="126.174095">
         <ele>10</ele>
      </rtept>
      <rtept lat="33.283448" lon="126.173934">
         <ele>10</ele>
      </rtept>
      <rtept lat="33.283518" lon="126.173903">
         <ele>10</ele>
      </rtept>
      <rtept lat="33.283671" lon="126.173778">
         <ele>10</ele>
      </rtept>
      <rtept lat="33.283799" lon="126.173635">
         <ele>10</ele>
      </rtept>
      <rtept lat="33.284247" lon="126.173063">
         <ele>10</ele>
      </rtept>
      <rtept lat="33.284361" lon="126.17296">
         <ele>10</ele>
      </rtept>
      <rtept lat="33.284945" lon="126.172605">
         <ele>10</ele>
      </rtept>
      <rtept lat="33.285167" lon="126.172453">
         <ele>10</ele>
      </rtept>
      <rtept lat="33.28529" lon="126.172362">
         <ele>10</ele>
      </rtept>
      <rtept lat="33.285644" lon="126.172017">
         <ele>10</ele>
      </rtept>
      <rtept lat="33.286012" lon="126.171882">
         <ele>10</ele>
      </rtept>
      <rtept lat="33.286119" lon="126.171795">
         <ele>10</ele>
      </rtept>
      <rtept lat="33.286185" lon="126.171719">
         <ele>10</ele>
      </rtept>
      <rtept lat="33.286269" lon="126.171577">
         <ele>10</ele>
      </rtept>
      <rtept lat="33.286562" lon="126.170935">
         <ele>10</ele>
      </rtept>
      <rtept lat="33.286632" lon="126.170648">
         <ele>10</ele>
      </rtept>
      <rtept lat="33.286637" lon="126.170453">
         <ele>10</ele>
      </rtept>
      <rtept lat="33.287505" lon="126.169316">
         <ele>10</ele>
      </rtept>
      <rtept lat="33.289078" lon="126.167275">
         <ele>10</ele>
      </rtept>
      <rtept lat="33.289564" lon="126.167344">
         <ele>10</ele>
      </rtept>
      <rtept lat="33.289599" lon="126.167192">
         <ele>10</ele>
      </rtept>
      <rtept lat="33.2896" lon="126.167077">
         <ele>10</ele>
      </rtept>
      <rtept lat="33.289544" lon="126.166706">
         <ele>10</ele>
      </rtept>
      <rtept lat="33.289438" lon="126.166273">
         <ele>10</ele>
      </rtept>
      <rtept lat="33.289648" lon="126.16612">
         <ele>10</ele>
      </rtept>
      <rtept lat="33.290197" lon="126.165893">
         <ele>10</ele>
      </rtept>
      <rtept lat="33.290173" lon="126.165716">
         <ele>10</ele>
      </rtept>
      <rtept lat="33.290982" lon="126.164668">
         <ele>20</ele>
      </rtept>
      <rtept lat="33.291247" lon="126.165034">
         <ele>20</ele>
      </rtept>
      <rtept lat="33.291574" lon="126.165629">
         <ele>20</ele>
      </rtept>
      <rtept lat="33.291713" lon="126.165526">
         <ele>20</ele>
      </rtept>
      <rtept lat="33.292137" lon="126.165265">
         <ele>25.73178</ele>
      </rtept>
      <rtept lat="33.292278" lon="126.165039">
         <ele>30</ele>
      </rtept>
      <rtept lat="33.292368" lon="126.164833">
         <ele>30</ele>
      </rtept>
      <rtept lat="33.292505" lon="126.164648">
         <ele>32.49618</ele>
      </rtept>
      <rtept lat="33.292485" lon="126.16438">
         <ele>34.56285</ele>
      </rtept>
      <rtept lat="33.292515" lon="126.164231">
         <ele>36.07151</ele>
      </rtept>
      <rtept lat="33.29259" lon="126.164045">
         <ele>38.31194</ele>
      </rtept>
      <rtept lat="33.292702" lon="126.163903">
         <ele>40.62801</ele>
      </rtept>
      <rtept lat="33.293094" lon="126.163278">
         <ele>49.48751</ele>
      </rtept>
      <rtept lat="33.29322" lon="126.163128">
         <ele>47.75924</ele>
      </rtept>
      <rtept lat="33.293095" lon="126.163279">
         <ele>49.48126</ele>
      </rtept>
      <rtept lat="33.292703" lon="126.163904">
         <ele>40.62924</ele>
      </rtept>
      <rtept lat="33.292591" lon="126.164045">
         <ele>38.32125</ele>
      </rtept>
      <rtept lat="33.292561" lon="126.16412">
         <ele>37.42621</ele>
      </rtept>
      <rtept lat="33.292591" lon="126.164045">
         <ele>38.32125</ele>
      </rtept>
      <rtept lat="33.292703" lon="126.163904">
         <ele>40.62924</ele>
      </rtept>
      <rtept lat="33.293095" lon="126.163279">
         <ele>49.48126</ele>
      </rtept>
      <rtept lat="33.293185" lon="126.16318">
         <ele>47.9658</ele>
      </rtept>
      <rtept lat="33.293293" lon="126.163021">
         <ele>48.32582</ele>
      </rtept>
      <rtept lat="33.293591" lon="126.163335">
         <ele>46.47832</ele>
      </rtept>
      <rtept lat="33.293816" lon="126.163486">
         <ele>46.17974</ele>
      </rtept>
      <rtept lat="33.294019" lon="126.163649">
         <ele>50</ele>
      </rtept>
      <rtept lat="33.294219" lon="126.163342">
         <ele>46.89366</ele>
      </rtept>
      <rtept lat="33.294778" lon="126.163732">
         <ele>46.55341</ele>
      </rtept>
      <rtept lat="33.295124" lon="126.163897">
         <ele>46.69021</ele>
      </rtept>
      <rtept lat="33.295294" lon="126.164003">
         <ele>46.8889</ele>
      </rtept>
      <rtept lat="33.295423" lon="126.164119">
         <ele>47.11382</ele>
      </rtept>
      <rtept lat="33.295605" lon="126.164348">
         <ele>47.36827</ele>
      </rtept>
      <rtept lat="33.296899" lon="126.166453">
         <ele>34.13064</ele>
      </rtept>
      <rtept lat="33.297483" lon="126.167211">
         <ele>25.56889</ele>
      </rtept>
      <rtept lat="33.297924" lon="126.167685">
         <ele>16.05502</ele>
      </rtept>
      <rtept lat="33.298119" lon="126.167808">
         <ele>17.59444</ele>
      </rtept>
      <rtept lat="33.29832" lon="126.167895">
         <ele>19.98253</ele>
      </rtept>
      <rtept lat="33.2988" lon="126.168003">
         <ele>14.63188</ele>
      </rtept>
      <rtept lat="33.298983" lon="126.168081">
         <ele>14.17378</ele>
      </rtept>
      <rtept lat="33.299093" lon="126.168233">
         <ele>14.25858</ele>
      </rtept>
      <rtept lat="33.299198" lon="126.168583">
         <ele>10</ele>
      </rtept>
      <rtept lat="33.299205" lon="126.16785">
         <ele>10</ele>
      </rtept>
      <rtept lat="33.299372" lon="126.167698">
         <ele>10</ele>
      </rtept>
      <rtept lat="33.299483" lon="126.167615">
         <ele>10</ele>
      </rtept>
      <rtept lat="33.299559" lon="126.167584">
         <ele>10</ele>
      </rtept>
      <rtept lat="33.299712" lon="126.167595">
         <ele>10</ele>
      </rtept>
      <rtept lat="33.299827" lon="126.167582">
         <ele>10</ele>
      </rtept>
      <rtept lat="33.299942" lon="126.167528">
         <ele>10</ele>
      </rtept>
      <rtept lat="33.300067" lon="126.167506">
         <ele>10</ele>
      </rtept>
      <rtept lat="33.300184" lon="126.167485">
         <ele>10</ele>
      </rtept>
      <rtept lat="33.300677" lon="126.167207">
         <ele>10</ele>
      </rtept>
      <rtept lat="33.300866" lon="126.167201">
         <ele>10</ele>
      </rtept>
      <rtept lat="33.301003" lon="126.167147">
         <ele>10</ele>
      </rtept>
      <rtept lat="33.301218" lon="126.167002">
         <ele>10</ele>
      </rtept>
      <rtept lat="33.30135" lon="126.166889">
         <ele>10</ele>
      </rtept>
      <rtept lat="33.301477" lon="126.16672">
         <ele>10</ele>
      </rtept>
      <rtept lat="33.301895" lon="126.166326">
         <ele>10</ele>
      </rtept>
      <rtept lat="33.302206" lon="126.166091">
         <ele>10</ele>
      </rtept>
      <rtept lat="33.302297" lon="126.16604">
         <ele>10</ele>
      </rtept>
      <rtept lat="33.302636" lon="126.166">
         <ele>10</ele>
      </rtept>
      <rtept lat="33.302821" lon="126.165937">
         <ele>10</ele>
      </rtept>
      <rtept lat="33.303036" lon="126.165759">
         <ele>10</ele>
      </rtept>
      <rtept lat="33.303275" lon="126.165725">
         <ele>10</ele>
      </rtept>
      <rtept lat="33.303524" lon="126.165582">
         <ele>10</ele>
      </rtept>
      <rtept lat="33.303704" lon="126.165375">
         <ele>10</ele>
      </rtept>
      <rtept lat="33.303895" lon="126.165206">
         <ele>10</ele>
      </rtept>
      <rtept lat="33.304239" lon="126.165096">
         <ele>10</ele>
      </rtept>
      <rtept lat="33.304489" lon="126.165072">
         <ele>10</ele>
      </rtept>
      <rtept lat="33.304712" lon="126.165102">
         <ele>10</ele>
      </rtept>
      <rtept lat="33.304845" lon="126.165067">
         <ele>10</ele>
      </rtept>
      <rtept lat="33.305189" lon="126.164872">
         <ele>10</ele>
      </rtept>
      <rtept lat="33.305405" lon="126.16466">
         <ele>10</ele>
      </rtept>
      <rtept lat="33.305543" lon="126.164403">
         <ele>10</ele>
      </rtept>
      <rtept lat="33.305725" lon="126.164311">
         <ele>10</ele>
      </rtept>
      <rtept lat="33.306084" lon="126.164277">
         <ele>10</ele>
      </rtept>
      <rtept lat="33.306637" lon="126.164019">
         <ele>10</ele>
      </rtept>
      <rtept lat="33.306792" lon="126.163971">
         <ele>10</ele>
      </rtept>
      <rtept lat="33.307468" lon="126.163986">
         <ele>10</ele>
      </rtept>
      <rtept lat="33.307649" lon="126.164043">
         <ele>10</ele>
      </rtept>
      <rtept lat="33.307739" lon="126.164045">
         <ele>10</ele>
      </rtept>
      <rtept lat="33.307796" lon="126.164103">
         <ele>10</ele>
      </rtept>
      <rtept lat="33.30793" lon="126.164174">
         <ele>10</ele>
      </rtept>
      <rtept lat="33.308062" lon="126.16418">
         <ele>10</ele>
      </rtept>
      <rtept lat="33.308545" lon="126.164201">
         <ele>10</ele>
      </rtept>
      <rtept lat="33.308774" lon="126.164234">
         <ele>10</ele>
      </rtept>
      <rtept lat="33.30892" lon="126.164289">
         <ele>10</ele>
      </rtept>
      <rtept lat="33.309013" lon="126.164381">
         <ele>10</ele>
      </rtept>
      <rtept lat="33.309069" lon="126.16451">
         <ele>10</ele>
      </rtept>
      <rtept lat="33.309095" lon="126.16471">
         <ele>10</ele>
      </rtept>
      <rtept lat="33.309098" lon="126.165029">
         <ele>10</ele>
      </rtept>
      <rtept lat="33.309066" lon="126.165211">
         <ele>10</ele>
      </rtept>
      <rtept lat="33.30855" lon="126.165548">
         <ele>10</ele>
      </rtept>
      <rtept lat="33.308133" lon="126.165895">
         <ele>10</ele>
      </rtept>
      <rtept lat="33.307803" lon="126.166253">
         <ele>10</ele>
      </rtept>
      <rtept lat="33.306849" lon="126.167592">
         <ele>15.06013</ele>
      </rtept>
      <rtept lat="33.306416" lon="126.168287">
         <ele>20</ele>
      </rtept>
      <rtept lat="33.306685" lon="126.168634">
         <ele>22.05186</ele>
      </rtept>
      <rtept lat="33.306861" lon="126.168783">
         <ele>21.03622</ele>
      </rtept>
      <rtept lat="33.307302" lon="126.16872">
         <ele>27.40054</ele>
      </rtept>
      <rtept lat="33.307549" lon="126.168788">
         <ele>32.90373</ele>
      </rtept>
      <rtept lat="33.307879" lon="126.168603">
         <ele>36.78765</ele>
      </rtept>
      <rtept lat="33.308151" lon="126.168584">
         <ele>42.68583</ele>
      </rtept>
      <rtept lat="33.308496" lon="126.168738">
         <ele>53.94265</ele>
      </rtept>
      <rtept lat="33.30872" lon="126.168669">
         <ele>57.84055</ele>
      </rtept>
      <rtept lat="33.30894" lon="126.168519">
         <ele>59.99986</ele>
      </rtept>
      <rtept lat="33.30902" lon="126.168381">
         <ele>58.91405</ele>
      </rtept>
      <rtept lat="33.309208" lon="126.168054">
         <ele>55.28967</ele>
      </rtept>
      <rtept lat="33.309347" lon="126.167758">
         <ele>49.99549</ele>
      </rtept>
      <rtept lat="33.309775" lon="126.167398">
         <ele>43.65125</ele>
      </rtept>
      <rtept lat="33.310251" lon="126.167174">
         <ele>40.54519</ele>
      </rtept>
      <rtept lat="33.310735" lon="126.166978">
         <ele>39.12536</ele>
      </rtept>
      <rtept lat="33.311593" lon="126.166824">
         <ele>38.3488</ele>
      </rtept>
      <rtept lat="33.312936" lon="126.166845">
         <ele>31.46581</ele>
      </rtept>
      <rtept lat="33.313261" lon="126.166912">
         <ele>29.9158</ele>
      </rtept>
      <rtept lat="33.31345" lon="126.167001">
         <ele>29.99815</ele>
      </rtept>
      <rtept lat="33.313607" lon="126.167128">
         <ele>29.28102</ele>
      </rtept>
      <rtept lat="33.313761" lon="126.167153">
         <ele>28.58716</ele>
      </rtept>
      <rtept lat="33.314057" lon="126.167238">
         <ele>26.10184</ele>
      </rtept>
      <rtept lat="33.31432" lon="126.16734">
         <ele>24.38557</ele>
      </rtept>
      <rtept lat="33.314541" lon="126.167264">
         <ele>17.81576</ele>
      </rtept>
      <rtept lat="33.314712" lon="126.167301">
         <ele>18.61123</ele>
      </rtept>
      <rtept lat="33.314896" lon="126.167296">
         <ele>19.85164</ele>
      </rtept>
      <rtept lat="33.315028" lon="126.167255">
         <ele>19.12051</ele>
      </rtept>
      <rtept lat="33.315136" lon="126.167183">
         <ele>17.82853</ele>
      </rtept>
      <rtept lat="33.315304" lon="126.167194">
         <ele>18.32973</ele>
      </rtept>
      <rtept lat="33.315407" lon="126.167184">
         <ele>17.82698</ele>
      </rtept>
      <rtept lat="33.315512" lon="126.167201">
         <ele>17.00234</ele>
      </rtept>
      <rtept lat="33.315675" lon="126.167329">
         <ele>15.68377</ele>
      </rtept>
      <rtept lat="33.31568" lon="126.167403">
         <ele>16.03999</ele>
      </rtept>
      <rtept lat="33.31563" lon="126.1675">
         <ele>18.18367</ele>
      </rtept>
      <rtept lat="33.315613" lon="126.167634">
         <ele>19.68587</ele>
      </rtept>
      <rtept lat="33.315707" lon="126.168015">
         <ele>19.34797</ele>
      </rtept>
      <rtept lat="33.315852" lon="126.168224">
         <ele>17.7853</ele>
      </rtept>
      <rtept lat="33.315955" lon="126.168229">
         <ele>16.20756</ele>
      </rtept>
      <rtept lat="33.316052" lon="126.168164">
         <ele>14.43761</ele>
      </rtept>
      <rtept lat="33.316135" lon="126.168146">
         <ele>13.4325</ele>
      </rtept>
      <rtept lat="33.316211" lon="126.168217">
         <ele>12.56691</ele>
      </rtept>
      <rtept lat="33.316334" lon="126.168442">
         <ele>12.14191</ele>
      </rtept>
      <rtept lat="33.316382" lon="126.1685">
         <ele>12.04121</ele>
      </rtept>
      <rtept lat="33.316508" lon="126.168525">
         <ele>11.29366</ele>
      </rtept>
      <rtept lat="33.316685" lon="126.168534">
         <ele>10</ele>
      </rtept>
      <rtept lat="33.316872" lon="126.168499">
         <ele>10</ele>
      </rtept>
      <rtept lat="33.317" lon="126.168511">
         <ele>10</ele>
      </rtept>
      <rtept lat="33.317118" lon="126.168474">
         <ele>10</ele>
      </rtept>
      <rtept lat="33.317402" lon="126.168281">
         <ele>10</ele>
      </rtept>
      <rtept lat="33.317453" lon="126.168203">
         <ele>10</ele>
      </rtept>
      <rtept lat="33.317497" lon="126.168016">
         <ele>10</ele>
      </rtept>
      <rtept lat="33.31751" lon="126.167884">
         <ele>10</ele>
      </rtept>
      <rtept lat="33.317463" lon="126.167745">
         <ele>10</ele>
      </rtept>
      <rtept lat="33.317472" lon="126.167634">
         <ele>10</ele>
      </rtept>
      <rtept lat="33.317524" lon="126.167548">
         <ele>10</ele>
      </rtept>
      <rtept lat="33.317604" lon="126.167556">
         <ele>10</ele>
      </rtept>
      <rtept lat="33.317707" lon="126.167599">
         <ele>10</ele>
      </rtept>
      <rtept lat="33.318126" lon="126.167825">
         <ele>10</ele>
      </rtept>
      <rtept lat="33.318421" lon="126.167918">
         <ele>10</ele>
      </rtept>
      <rtept lat="33.318565" lon="126.167922">
         <ele>10</ele>
      </rtept>
      <rtept lat="33.318676" lon="126.167889">
         <ele>10</ele>
      </rtept>
      <rtept lat="33.318846" lon="126.167694">
         <ele>10</ele>
      </rtept>
      <rtept lat="33.319024" lon="126.167622">
         <ele>10</ele>
      </rtept>
      <rtept lat="33.319163" lon="126.167543">
         <ele>10</ele>
      </rtept>
      <rtept lat="33.319226" lon="126.167531">
         <ele>10</ele>
      </rtept>
      <rtept lat="33.319318" lon="126.167568">
         <ele>10</ele>
      </rtept>
      <rtept lat="33.319466" lon="126.167597">
         <ele>10</ele>
      </rtept>
      <rtept lat="33.319707" lon="126.167602">
         <ele>10</ele>
      </rtept>
      <rtept lat="33.319952" lon="126.167454">
         <ele>10</ele>
      </rtept>
      <rtept lat="33.320055" lon="126.167431">
         <ele>10</ele>
      </rtept>
      <rtept lat="33.320261" lon="126.167312">
         <ele>10</ele>
      </rtept>
      <rtept lat="33.320411" lon="126.167246">
         <ele>10</ele>
      </rtept>
      <rtept lat="33.320518" lon="126.167249">
         <ele>10</ele>
      </rtept>
      <rtept lat="33.320847" lon="126.167174">
         <ele>10</ele>
      </rtept>
      <rtept lat="33.321104" lon="126.16693">
         <ele>10</ele>
      </rtept>
      <rtept lat="33.321404" lon="126.166693">
         <ele>10</ele>
      </rtept>
      <rtept lat="33.321581" lon="126.16662">
         <ele>10</ele>
      </rtept>
      <rtept lat="33.321873" lon="126.166588">
         <ele>10</ele>
      </rtept>
      <rtept lat="33.322335" lon="126.166498">
         <ele>10</ele>
      </rtept>
      <rtept lat="33.322567" lon="126.166522">
         <ele>10</ele>
      </rtept>
      <rtept lat="33.322696" lon="126.166547">
         <ele>10</ele>
      </rtept>
      <rtept lat="33.322993" lon="126.166774">
         <ele>10</ele>
      </rtept>
      <rtept lat="33.323144" lon="126.166864">
         <ele>10</ele>
      </rtept>
      <rtept lat="33.323218" lon="126.166888">
         <ele>10</ele>
      </rtept>
      <rtept lat="33.32351" lon="126.166694">
         <ele>10</ele>
      </rtept>
      <rtept lat="33.323548" lon="126.166654">
         <ele>10</ele>
      </rtept>
      <rtept lat="33.323557" lon="126.166721">
         <ele>10</ele>
      </rtept>
   </rte>
</gpx>