<?xml version="1.0" encoding="utf-8"?>
<gpx version="1.1" creator="Movescount - http://www.movescount.com" xmlns:xsi="http://www.w3.org/2001/XMLSchema-instance" xsi:schemaLocation="http://www.topografix.com/GPX/1/1 http://www.topografix.com/GPX/1/1/gpx.xsd http://www.cluetrust.com/XML/GPXDATA/1/0 http://www.cluetrust.com/Schemas/gpxdata10.xsd http://www.garmin.com/xmlschemas/TrackPointExtension/v1 http://www.garmin.com/xmlschemas/TrackPointExtensionv1.xsd" xmlns:gpxdata="http://www.cluetrust.com/XML/GPXDATA/1/0" xmlns:gpxtpx="http://www.garmin.com/xmlschemas/TrackPointExtension/v1" xmlns="http://www.topografix.com/GPX/1/1">
   <rte>
      <name>jeju ollegil 7-1</name>
      <rtept lat="33.248673" lon="126.510091">
         <ele>80</ele>
      </rtept>
      <rtept lat="33.248847" lon="126.510163">
         <ele>80</ele>
      </rtept>
      <rtept lat="33.249469" lon="126.508029">
         <ele>80</ele>
      </rtept>
      <rtept lat="33.249586" lon="126.508093">
         <ele>80</ele>
      </rtept>
      <rtept lat="33.2496" lon="126.508047">
         <ele>80</ele>
      </rtept>
      <rtept lat="33.249734" lon="126.507611">
         <ele>80</ele>
      </rtept>
      <rtept lat="33.250178" lon="126.507782">
         <ele>80</ele>
      </rtept>
      <rtept lat="33.250533" lon="126.507918">
         <ele>90</ele>
      </rtept>
      <rtept lat="33.250605" lon="126.507681">
         <ele>90</ele>
      </rtept>
      <rtept lat="33.250651" lon="126.507532">
         <ele>90</ele>
      </rtept>
      <rtept lat="33.25075" lon="126.507575">
         <ele>90</ele>
      </rtept>
      <rtept lat="33.250841" lon="126.507546">
         <ele>90</ele>
      </rtept>
      <rtept lat="33.250923" lon="126.507483">
         <ele>90</ele>
      </rtept>
      <rtept lat="33.251131" lon="126.507367">
         <ele>90</ele>
      </rtept>
      <rtept lat="33.251258" lon="126.507368">
         <ele>90</ele>
      </rtept>
      <rtept lat="33.251407" lon="126.507385">
         <ele>90</ele>
      </rtept>
      <rtept lat="33.251735" lon="126.507522">
         <ele>94.92757</ele>
      </rtept>
      <rtept lat="33.251768" lon="126.507536">
         <ele>95.22419</ele>
      </rtept>
      <rtept lat="33.251819" lon="126.507338">
         <ele>95.23502</ele>
      </rtept>
      <rtept lat="33.252473" lon="126.50481">
         <ele>100</ele>
      </rtept>
      <rtept lat="33.252548" lon="126.504826">
         <ele>100</ele>
      </rtept>
      <rtept lat="33.254238" lon="126.505181">
         <ele>110</ele>
      </rtept>
      <rtept lat="33.25725" lon="126.505647">
         <ele>144.7581</ele>
      </rtept>
      <rtept lat="33.257156" lon="126.505342">
         <ele>143.0561</ele>
      </rtept>
      <rtept lat="33.256862" lon="126.504386">
         <ele>138.071</ele>
      </rtept>
      <rtept lat="33.257202" lon="126.504164">
         <ele>142.8546</ele>
      </rtept>
      <rtept lat="33.257326" lon="126.503862">
         <ele>145.729</ele>
      </rtept>
      <rtept lat="33.257326" lon="126.503357">
         <ele>148.8494</ele>
      </rtept>
      <rtept lat="33.257228" lon="126.502728">
         <ele>153.0303</ele>
      </rtept>
      <rtept lat="33.256991" lon="126.502352">
         <ele>152.9104</ele>
      </rtept>
      <rtept lat="33.256553" lon="126.502044">
         <ele>148.4867</ele>
      </rtept>
      <rtept lat="33.256167" lon="126.501826">
         <ele>142.5632</ele>
      </rtept>
      <rtept lat="33.256025" lon="126.501401">
         <ele>141.1836</ele>
      </rtept>
      <rtept lat="33.255812" lon="126.500513">
         <ele>135.3855</ele>
      </rtept>
      <rtept lat="33.255895" lon="126.500166">
         <ele>135.9955</ele>
      </rtept>
      <rtept lat="33.256061" lon="126.499642">
         <ele>137.608</ele>
      </rtept>
      <rtept lat="33.256132" lon="126.499101">
         <ele>136.8718</ele>
      </rtept>
      <rtept lat="33.255901" lon="126.498828">
         <ele>130.3127</ele>
      </rtept>
      <rtept lat="33.255865" lon="126.498591">
         <ele>128.4476</ele>
      </rtept>
      <rtept lat="33.255919" lon="126.498359">
         <ele>129.4006</ele>
      </rtept>
      <rtept lat="33.255945" lon="126.498248">
         <ele>130.1342</ele>
      </rtept>
      <rtept lat="33.256087" lon="126.497908">
         <ele>133.2014</ele>
      </rtept>
      <rtept lat="33.256109" lon="126.497645">
         <ele>134.1613</ele>
      </rtept>
      <rtept lat="33.256126" lon="126.497446">
         <ele>135.0528</ele>
      </rtept>
      <rtept lat="33.256355" lon="126.496989">
         <ele>139.9343</ele>
      </rtept>
      <rtept lat="33.256737" lon="126.496867">
         <ele>144.0507</ele>
      </rtept>
      <rtept lat="33.257101" lon="126.496835">
         <ele>150</ele>
      </rtept>
      <rtept lat="33.257211" lon="126.496761">
         <ele>150</ele>
      </rtept>
      <rtept lat="33.257457" lon="126.496336">
         <ele>150</ele>
      </rtept>
      <rtept lat="33.257667" lon="126.496143">
         <ele>150</ele>
      </rtept>
      <rtept lat="33.258371" lon="126.495109">
         <ele>150</ele>
      </rtept>
      <rtept lat="33.258327" lon="126.49484">
         <ele>140</ele>
      </rtept>
      <rtept lat="33.25849" lon="126.494596">
         <ele>140</ele>
      </rtept>
      <rtept lat="33.258762" lon="126.494339">
         <ele>140</ele>
      </rtept>
      <rtept lat="33.259079" lon="126.494172">
         <ele>140</ele>
      </rtept>
      <rtept lat="33.259372" lon="126.494209">
         <ele>140</ele>
      </rtept>
      <rtept lat="33.259643" lon="126.494329">
         <ele>140</ele>
      </rtept>
      <rtept lat="33.259906" lon="126.494464">
         <ele>140</ele>
      </rtept>
      <rtept lat="33.260176" lon="126.494414">
         <ele>140</ele>
      </rtept>
      <rtept lat="33.260874" lon="126.494317">
         <ele>140</ele>
      </rtept>
      <rtept lat="33.261631" lon="126.494222">
         <ele>140</ele>
      </rtept>
      <rtept lat="33.262975" lon="126.494332">
         <ele>150</ele>
      </rtept>
      <rtept lat="33.263649" lon="126.494035">
         <ele>157.3252</ele>
      </rtept>
      <rtept lat="33.263968" lon="126.494051">
         <ele>160</ele>
      </rtept>
      <rtept lat="33.264223" lon="126.49404">
         <ele>162.9225</ele>
      </rtept>
      <rtept lat="33.264654" lon="126.493809">
         <ele>170</ele>
      </rtept>
      <rtept lat="33.266058" lon="126.493536">
         <ele>180</ele>
      </rtept>
      <rtept lat="33.26653" lon="126.493407">
         <ele>180</ele>
      </rtept>
      <rtept lat="33.266875" lon="126.494417">
         <ele>190</ele>
      </rtept>
      <rtept lat="33.267086" lon="126.495254">
         <ele>190</ele>
      </rtept>
      <rtept lat="33.267051" lon="126.49541">
         <ele>190</ele>
      </rtept>
      <rtept lat="33.267131" lon="126.495805">
         <ele>180</ele>
      </rtept>
      <rtept lat="33.267127" lon="126.496204">
         <ele>180</ele>
      </rtept>
      <rtept lat="33.267214" lon="126.496485">
         <ele>180</ele>
      </rtept>
      <rtept lat="33.267235" lon="126.496552">
         <ele>180</ele>
      </rtept>
      <rtept lat="33.267193" lon="126.496779">
         <ele>180</ele>
      </rtept>
      <rtept lat="33.267281" lon="126.497122">
         <ele>180</ele>
      </rtept>
      <rtept lat="33.267274" lon="126.497269">
         <ele>180</ele>
      </rtept>
      <rtept lat="33.267413" lon="126.497802">
         <ele>180</ele>
      </rtept>
      <rtept lat="33.267604" lon="126.498039">
         <ele>180</ele>
      </rtept>
      <rtept lat="33.267719" lon="126.498318">
         <ele>190</ele>
      </rtept>
      <rtept lat="33.2681" lon="126.498896">
         <ele>191.0585</ele>
      </rtept>
      <rtept lat="33.268085" lon="126.499086">
         <ele>190.0981</ele>
      </rtept>
      <rtept lat="33.2682" lon="126.499385">
         <ele>194.2186</ele>
      </rtept>
      <rtept lat="33.268265" lon="126.49942">
         <ele>195.5033</ele>
      </rtept>
      <rtept lat="33.268359" lon="126.499538">
         <ele>197.9423</ele>
      </rtept>
      <rtept lat="33.26844" lon="126.499471">
         <ele>201.4191</ele>
      </rtept>
      <rtept lat="33.26826" lon="126.499077">
         <ele>192.6727</ele>
      </rtept>
      <rtept lat="33.268435" lon="126.499056">
         <ele>195.4682</ele>
      </rtept>
      <rtept lat="33.268488" lon="126.498755">
         <ele>194.637</ele>
      </rtept>
      <rtept lat="33.268567" lon="126.498524">
         <ele>194.9756</ele>
      </rtept>
      <rtept lat="33.268402" lon="126.498298">
         <ele>191.1207</ele>
      </rtept>
      <rtept lat="33.267719" lon="126.498318">
         <ele>190</ele>
      </rtept>
      <rtept lat="33.267604" lon="126.498039">
         <ele>180</ele>
      </rtept>
      <rtept lat="33.267413" lon="126.497802">
         <ele>180</ele>
      </rtept>
      <rtept lat="33.267274" lon="126.497269">
         <ele>180</ele>
      </rtept>
      <rtept lat="33.267281" lon="126.497122">
         <ele>180</ele>
      </rtept>
      <rtept lat="33.26703" lon="126.497098">
         <ele>180</ele>
      </rtept>
      <rtept lat="33.267008" lon="126.497406">
         <ele>180</ele>
      </rtept>
      <rtept lat="33.267237" lon="126.498468">
         <ele>180</ele>
      </rtept>
      <rtept lat="33.267237" lon="126.498725">
         <ele>180</ele>
      </rtept>
      <rtept lat="33.267035" lon="126.499336">
         <ele>190</ele>
      </rtept>
      <rtept lat="33.266827" lon="126.499863">
         <ele>193.0018</ele>
      </rtept>
      <rtept lat="33.266752" lon="126.500111">
         <ele>195.985</ele>
      </rtept>
      <rtept lat="33.266544" lon="126.500757">
         <ele>203.5807</ele>
      </rtept>
      <rtept lat="33.266464" lon="126.501066">
         <ele>206.973</ele>
      </rtept>
      <rtept lat="33.266411" lon="126.501363">
         <ele>210</ele>
      </rtept>
      <rtept lat="33.266372" lon="126.50172">
         <ele>212.9594</ele>
      </rtept>
      <rtept lat="33.266294" lon="126.501957">
         <ele>214.7986</ele>
      </rtept>
      <rtept lat="33.266944" lon="126.502135">
         <ele>217.5197</ele>
      </rtept>
      <rtept lat="33.267325" lon="126.502151">
         <ele>220.5201</ele>
      </rtept>
      <rtept lat="33.267471" lon="126.502005">
         <ele>220.055</ele>
      </rtept>
      <rtept lat="33.267631" lon="126.50194">
         <ele>221.2104</ele>
      </rtept>
      <rtept lat="33.267583" lon="126.502196">
         <ele>224.7072</ele>
      </rtept>
      <rtept lat="33.267512" lon="126.502379">
         <ele>226.8699</ele>
      </rtept>
      <rtept lat="33.267335" lon="126.502985">
         <ele>235.2592</ele>
      </rtept>
      <rtept lat="33.267275" lon="126.503122">
         <ele>236.8361</ele>
      </rtept>
      <rtept lat="33.267207" lon="126.503277">
         <ele>238.477</ele>
      </rtept>
      <rtept lat="33.26705" lon="126.503518">
         <ele>239.7031</ele>
      </rtept>
      <rtept lat="33.267072" lon="126.503631">
         <ele>241.3762</ele>
      </rtept>
      <rtept lat="33.267045" lon="126.503872">
         <ele>243.6246</ele>
      </rtept>
      <rtept lat="33.266965" lon="126.504108">
         <ele>244.7026</ele>
      </rtept>
      <rtept lat="33.26701" lon="126.504156">
         <ele>245.9838</ele>
      </rtept>
      <rtept lat="33.267337" lon="126.504317">
         <ele>248.001</ele>
      </rtept>
      <rtept lat="33.26754" lon="126.504625">
         <ele>255.7993</ele>
      </rtept>
      <rtept lat="33.267314" lon="126.504927">
         <ele>255.9843</ele>
      </rtept>
      <rtept lat="33.266982" lon="126.505482">
         <ele>256.7875</ele>
      </rtept>
      <rtept lat="33.26667" lon="126.50582">
         <ele>255.7138</ele>
      </rtept>
      <rtept lat="33.266352" lon="126.506001">
         <ele>252.0529</ele>
      </rtept>
      <rtept lat="33.266092" lon="126.506205">
         <ele>248.4103</ele>
      </rtept>
      <rtept lat="33.266139" lon="126.506875">
         <ele>254.3474</ele>
      </rtept>
      <rtept lat="33.266577" lon="126.506698">
         <ele>262.4276</ele>
      </rtept>
      <rtept lat="33.26676" lon="126.506875">
         <ele>267.4988</ele>
      </rtept>
      <rtept lat="33.266842" lon="126.507141">
         <ele>271.3116</ele>
      </rtept>
      <rtept lat="33.267123" lon="126.507198">
         <ele>276.3354</ele>
      </rtept>
      <rtept lat="33.267381" lon="126.507277">
         <ele>279.2776</ele>
      </rtept>
      <rtept lat="33.267685" lon="126.507464">
         <ele>284.6008</ele>
      </rtept>
      <rtept lat="33.267943" lon="126.50751">
         <ele>286.5764</ele>
      </rtept>
      <rtept lat="33.267921" lon="126.507783">
         <ele>288.879</ele>
      </rtept>
      <rtept lat="33.267569" lon="126.507927">
         <ele>287.3493</ele>
      </rtept>
      <rtept lat="33.267547" lon="126.508659">
         <ele>293.7393</ele>
      </rtept>
      <rtept lat="33.267485" lon="126.509115">
         <ele>298.2201</ele>
      </rtept>
      <rtept lat="33.267319" lon="126.509553">
         <ele>302.1414</ele>
      </rtept>
      <rtept lat="33.267131" lon="126.50994">
         <ele>305.0931</ele>
      </rtept>
      <rtept lat="33.26687" lon="126.510221">
         <ele>305.2332</ele>
      </rtept>
      <rtept lat="33.266659" lon="126.510365">
         <ele>303.8475</ele>
      </rtept>
      <rtept lat="33.266347" lon="126.510459">
         <ele>299.6971</ele>
      </rtept>
      <rtept lat="33.266218" lon="126.510814">
         <ele>303.4848</ele>
      </rtept>
      <rtept lat="33.266218" lon="126.511281">
         <ele>313.6462</ele>
      </rtept>
      <rtept lat="33.266702" lon="126.512075">
         <ele>343.8867</ele>
      </rtept>
      <rtept lat="33.266681" lon="126.512652">
         <ele>359.9701</ele>
      </rtept>
      <rtept lat="33.266659" lon="126.512674">
         <ele>359.7066</ele>
      </rtept>
      <rtept lat="33.266331" lon="126.512997">
         <ele>359.7539</ele>
      </rtept>
      <rtept lat="33.26613" lon="126.513644">
         <ele>358.5139</ele>
      </rtept>
      <rtept lat="33.26613" lon="126.514143">
         <ele>356.3149</ele>
      </rtept>
      <rtept lat="33.266285" lon="126.514488">
         <ele>357.9558</ele>
      </rtept>
      <rtept lat="33.266625" lon="126.514698">
         <ele>363.7247</ele>
      </rtept>
      <rtept lat="33.267058" lon="126.514772">
         <ele>369.6092</ele>
      </rtept>
      <rtept lat="33.267289" lon="126.514692">
         <ele>367.6638</ele>
      </rtept>
      <rtept lat="33.267496" lon="126.514254">
         <ele>370</ele>
      </rtept>
      <rtept lat="33.267583" lon="126.513952">
         <ele>366.5862</ele>
      </rtept>
      <rtept lat="33.267609" lon="126.513595">
         <ele>367.3433</ele>
      </rtept>
      <rtept lat="33.267511" lon="126.513299">
         <ele>368.1777</ele>
      </rtept>
      <rtept lat="33.267274" lon="126.51304">
         <ele>369.706</ele>
      </rtept>
      <rtept lat="33.267552" lon="126.512757">
         <ele>362.1829</ele>
      </rtept>
      <rtept lat="33.267794" lon="126.512929">
         <ele>362.2517</ele>
      </rtept>
      <rtept lat="33.267917" lon="126.512891">
         <ele>359.6078</ele>
      </rtept>
      <rtept lat="33.268418" lon="126.512738">
         <ele>346.5911</ele>
      </rtept>
      <rtept lat="33.268861" lon="126.512541">
         <ele>333.7319</ele>
      </rtept>
      <rtept lat="33.269206" lon="126.512517">
         <ele>325.1348</ele>
      </rtept>
      <rtept lat="33.269417" lon="126.512942">
         <ele>321.8361</ele>
      </rtept>
      <rtept lat="33.269634" lon="126.513535">
         <ele>317.1083</ele>
      </rtept>
      <rtept lat="33.270226" lon="126.513503">
         <ele>306.1199</ele>
      </rtept>
      <rtept lat="33.270935" lon="126.513439">
         <ele>300</ele>
      </rtept>
      <rtept lat="33.270792" lon="126.513975">
         <ele>300</ele>
      </rtept>
      <rtept lat="33.270397" lon="126.51508">
         <ele>298.3242</ele>
      </rtept>
      <rtept lat="33.270146" lon="126.515982">
         <ele>296.4174</ele>
      </rtept>
      <rtept lat="33.270011" lon="126.516776">
         <ele>294.4534</ele>
      </rtept>
      <rtept lat="33.269751" lon="126.517366">
         <ele>291.213</ele>
      </rtept>
      <rtept lat="33.269832" lon="126.517934">
         <ele>285.0462</ele>
      </rtept>
      <rtept lat="33.270173" lon="126.518986">
         <ele>274.2768</ele>
      </rtept>
      <rtept lat="33.270119" lon="126.519447">
         <ele>270</ele>
      </rtept>
      <rtept lat="33.270075" lon="126.519449">
         <ele>270</ele>
      </rtept>
      <rtept lat="33.269571" lon="126.519469">
         <ele>266.0515</ele>
      </rtept>
      <rtept lat="33.268971" lon="126.519544">
         <ele>263.1021</ele>
      </rtept>
      <rtept lat="33.267767" lon="126.520111">
         <ele>254.2688</ele>
      </rtept>
      <rtept lat="33.266805" lon="126.520599">
         <ele>245.098</ele>
      </rtept>
      <rtept lat="33.265739" lon="126.520723">
         <ele>241.5008</ele>
      </rtept>
      <rtept lat="33.265419" lon="126.520871">
         <ele>236.6689</ele>
      </rtept>
      <rtept lat="33.263321" lon="126.522418">
         <ele>205.4221</ele>
      </rtept>
      <rtept lat="33.263064" lon="126.522558">
         <ele>201.1847</ele>
      </rtept>
      <rtept lat="33.262562" lon="126.522733">
         <ele>195.0809</ele>
      </rtept>
      <rtept lat="33.262253" lon="126.522971">
         <ele>190</ele>
      </rtept>
      <rtept lat="33.261276" lon="126.524347">
         <ele>178.5248</ele>
      </rtept>
      <rtept lat="33.26113" lon="126.52437">
         <ele>176.596</ele>
      </rtept>
      <rtept lat="33.260958" lon="126.524786">
         <ele>174.1255</ele>
      </rtept>
      <rtept lat="33.26016" lon="126.526094">
         <ele>163.5225</ele>
      </rtept>
      <rtept lat="33.259179" lon="126.525774">
         <ele>153.4143</ele>
      </rtept>
      <rtept lat="33.258693" lon="126.526909">
         <ele>146.7906</ele>
      </rtept>
      <rtept lat="33.258726" lon="126.527022">
         <ele>146.9359</ele>
      </rtept>
      <rtept lat="33.258483" lon="126.527323">
         <ele>144.2224</ele>
      </rtept>
      <rtept lat="33.258436" lon="126.527375">
         <ele>143.7369</ele>
      </rtept>
      <rtept lat="33.258315" lon="126.527608">
         <ele>140</ele>
      </rtept>
      <rtept lat="33.258191" lon="126.5277">
         <ele>140</ele>
      </rtept>
      <rtept lat="33.258041" lon="126.527952">
         <ele>140</ele>
      </rtept>
      <rtept lat="33.257974" lon="126.528198">
         <ele>140</ele>
      </rtept>
      <rtept lat="33.25745" lon="126.527761">
         <ele>140</ele>
      </rtept>
      <rtept lat="33.257052" lon="126.52829">
         <ele>140</ele>
      </rtept>
      <rtept lat="33.25657" lon="126.528102">
         <ele>130</ele>
      </rtept>
      <rtept lat="33.256401" lon="126.528128">
         <ele>130</ele>
      </rtept>
      <rtept lat="33.256042" lon="126.528349">
         <ele>130</ele>
      </rtept>
      <rtept lat="33.255029" lon="126.529214">
         <ele>120</ele>
      </rtept>
      <rtept lat="33.254856" lon="126.529362">
         <ele>120</ele>
      </rtept>
      <rtept lat="33.254589" lon="126.529544">
         <ele>120</ele>
      </rtept>
      <rtept lat="33.25449" lon="126.529649">
         <ele>120</ele>
      </rtept>
      <rtept lat="33.254369" lon="126.529728">
         <ele>120</ele>
      </rtept>
      <rtept lat="33.254403" lon="126.53011">
         <ele>120</ele>
      </rtept>
      <rtept lat="33.254134" lon="126.530239">
         <ele>120</ele>
      </rtept>
      <rtept lat="33.254162" lon="126.530652">
         <ele>120</ele>
      </rtept>
      <rtept lat="33.254175" lon="126.530834">
         <ele>120</ele>
      </rtept>
      <rtept lat="33.254318" lon="126.531226">
         <ele>120</ele>
      </rtept>
      <rtept lat="33.254377" lon="126.532508">
         <ele>110</ele>
      </rtept>
      <rtept lat="33.254471" lon="126.533007">
         <ele>110</ele>
      </rtept>
      <rtept lat="33.254717" lon="126.533602">
         <ele>120</ele>
      </rtept>
      <rtept lat="33.254892" lon="126.53431">
         <ele>120</ele>
      </rtept>
      <rtept lat="33.254839" lon="126.534718">
         <ele>120</ele>
      </rtept>
      <rtept lat="33.254982" lon="126.536402">
         <ele>120</ele>
      </rtept>
      <rtept lat="33.255036" lon="126.537223">
         <ele>120</ele>
      </rtept>
      <rtept lat="33.255046" lon="126.538474">
         <ele>120</ele>
      </rtept>
      <rtept lat="33.255478" lon="126.538481">
         <ele>120</ele>
      </rtept>
      <rtept lat="33.255628" lon="126.538502">
         <ele>120</ele>
      </rtept>
      <rtept lat="33.25532" lon="126.540065">
         <ele>110</ele>
      </rtept>
      <rtept lat="33.25526" lon="126.540475">
         <ele>110</ele>
      </rtept>
      <rtept lat="33.255256" lon="126.540598">
         <ele>110</ele>
      </rtept>
      <rtept lat="33.255159" lon="126.540608">
         <ele>110</ele>
      </rtept>
      <rtept lat="33.255086" lon="126.540692">
         <ele>110</ele>
      </rtept>
      <rtept lat="33.254916" lon="126.540767">
         <ele>110</ele>
      </rtept>
      <rtept lat="33.254807" lon="126.540521">
         <ele>110</ele>
      </rtept>
      <rtept lat="33.254663" lon="126.540285">
         <ele>110</ele>
      </rtept>
      <rtept lat="33.253691" lon="126.539238">
         <ele>110</ele>
      </rtept>
      <rtept lat="33.253304" lon="126.539488">
         <ele>110</ele>
      </rtept>
      <rtept lat="33.253263" lon="126.539528">
         <ele>110</ele>
      </rtept>
      <rtept lat="33.253147" lon="126.539474">
         <ele>110</ele>
      </rtept>
      <rtept lat="33.253071" lon="126.53949">
         <ele>106.5195</ele>
      </rtept>
      <rtept lat="33.252718" lon="126.539763">
         <ele>109.0709</ele>
      </rtept>
      <rtept lat="33.252316" lon="126.539963">
         <ele>101.355</ele>
      </rtept>
      <rtept lat="33.25195" lon="126.540051">
         <ele>93.70293</ele>
      </rtept>
      <rtept lat="33.251792" lon="126.540022">
         <ele>91.94103</ele>
      </rtept>
      <rtept lat="33.251412" lon="126.539768">
         <ele>92.42883</ele>
      </rtept>
      <rtept lat="33.25118" lon="126.539836">
         <ele>88.09</ele>
      </rtept>
      <rtept lat="33.250865" lon="126.539779">
         <ele>87.07899</ele>
      </rtept>
      <rtept lat="33.250687" lon="126.539821">
         <ele>85.39694</ele>
      </rtept>
      <rtept lat="33.250499" lon="126.540443">
         <ele>73.97331</ele>
      </rtept>
      <rtept lat="33.250435" lon="126.540903">
         <ele>70</ele>
      </rtept>
      <rtept lat="33.250383" lon="126.541468">
         <ele>65.01156</ele>
      </rtept>
      <rtept lat="33.250434" lon="126.541671">
         <ele>60</ele>
      </rtept>
      <rtept lat="33.250621" lon="126.541907">
         <ele>60</ele>
      </rtept>
      <rtept lat="33.250809" lon="126.541952">
         <ele>60</ele>
      </rtept>
      <rtept lat="33.250943" lon="126.545006">
         <ele>60</ele>
      </rtept>
      <rtept lat="33.250902" lon="126.545231">
         <ele>60</ele>
      </rtept>
      <rtept lat="33.250832" lon="126.545416">
         <ele>60</ele>
      </rtept>
      <rtept lat="33.250755" lon="126.545585">
         <ele>60</ele>
      </rtept>
      <rtept lat="33.250634" lon="126.54577">
         <ele>60</ele>
      </rtept>
      <rtept lat="33.249521" lon="126.54682">
         <ele>60</ele>
      </rtept>
      <rtept lat="33.249405" lon="126.546922">
         <ele>60</ele>
      </rtept>
      <rtept lat="33.249333" lon="126.547222">
         <ele>60</ele>
      </rtept>
      <rtept lat="33.248986" lon="126.548056">
         <ele>60</ele>
      </rtept>
      <rtept lat="33.248728" lon="126.548897">
         <ele>60</ele>
      </rtept>
      <rtept lat="33.248694" lon="126.549141">
         <ele>60</ele>
      </rtept>
      <rtept lat="33.248697" lon="126.54945">
         <ele>60</ele>
      </rtept>
      <rtept lat="33.248722" lon="126.549446">
         <ele>60</ele>
      </rtept>
      <rtept lat="33.248849" lon="126.549423">
         <ele>60</ele>
      </rtept>
      <rtept lat="33.249029" lon="126.549622">
         <ele>60</ele>
      </rtept>
      <rtept lat="33.249392" lon="126.550233">
         <ele>60</ele>
      </rtept>
      <rtept lat="33.249742" lon="126.550625">
         <ele>57.32599</ele>
      </rtept>
      <rtept lat="33.250141" lon="126.55099">
         <ele>57.87184</ele>
      </rtept>
      <rtept lat="33.250343" lon="126.551092">
         <ele>58.32711</ele>
      </rtept>
      <rtept lat="33.250595" lon="126.551104">
         <ele>59.87342</ele>
      </rtept>
      <rtept lat="33.250793" lon="126.551085">
         <ele>58.98456</ele>
      </rtept>
      <rtept lat="33.251386" lon="126.551354">
         <ele>59.90894</ele>
      </rtept>
      <rtept lat="33.251607" lon="126.551671">
         <ele>57.03723</ele>
      </rtept>
      <rtept lat="33.251654" lon="126.551831">
         <ele>55.52428</ele>
      </rtept>
      <rtept lat="33.251762" lon="126.551985">
         <ele>54.58071</ele>
      </rtept>
      <rtept lat="33.252039" lon="126.552227">
         <ele>54.17109</ele>
      </rtept>
      <rtept lat="33.252034" lon="126.552241">
         <ele>54.04753</ele>
      </rtept>
      <rtept lat="33.251927" lon="126.552697">
         <ele>50</ele>
      </rtept>
      <rtept lat="33.25191" lon="126.552995">
         <ele>50</ele>
      </rtept>
      <rtept lat="33.251916" lon="126.553313">
         <ele>50</ele>
      </rtept>
      <rtept lat="33.251936" lon="126.55351">
         <ele>50</ele>
      </rtept>
      <rtept lat="33.251994" lon="126.553781">
         <ele>50</ele>
      </rtept>
      <rtept lat="33.252058" lon="126.55423">
         <ele>50</ele>
      </rtept>
      <rtept lat="33.251352" lon="126.554826">
         <ele>50</ele>
      </rtept>
      <rtept lat="33.25132" lon="126.55499">
         <ele>50</ele>
      </rtept>
      <rtept lat="33.251212" lon="126.555506">
         <ele>50</ele>
      </rtept>
      <rtept lat="33.250264" lon="126.555361">
         <ele>50</ele>
      </rtept>
      <rtept lat="33.250169" lon="126.555758" />
      <rtept lat="33.250129" lon="126.555731" />
      <rtept lat="33.250055" lon="126.555729" />
      <rtept lat="33.249879" lon="126.555555" />
      <rtept lat="33.249783" lon="126.555511" />
      <rtept lat="33.249648" lon="126.555522" />
      <rtept lat="33.249531" lon="126.555568">
         <ele>50</ele>
      </rtept>
      <rtept lat="33.2494" lon="126.555654">
         <ele>50</ele>
      </rtept>
      <rtept lat="33.249341" lon="126.555723">
         <ele>50</ele>
      </rtept>
      <rtept lat="33.249281" lon="126.555741">
         <ele>50</ele>
      </rtept>
      <rtept lat="33.249235" lon="126.555735">
         <ele>50</ele>
      </rtept>
      <rtept lat="33.249061" lon="126.55571">
         <ele>50</ele>
      </rtept>
      <rtept lat="33.248885" lon="126.555631">
         <ele>50</ele>
      </rtept>
      <rtept lat="33.248745" lon="126.555686">
         <ele>45.95957</ele>
      </rtept>
      <rtept lat="33.248681" lon="126.55598">
         <ele>47.69683</ele>
      </rtept>
      <rtept lat="33.248748" lon="126.556189">
         <ele>50</ele>
      </rtept>
      <rtept lat="33.248956" lon="126.556419">
         <ele>51.58072</ele>
      </rtept>
      <rtept lat="33.248898" lon="126.55652">
         <ele>52.59139</ele>
      </rtept>
      <rtept lat="33.248852" lon="126.556606">
         <ele>53.41687</ele>
      </rtept>
      <rtept lat="33.248878" lon="126.55663">
         <ele>53.63715</ele>
      </rtept>
      <rtept lat="33.248549" lon="126.557195">
         <ele>57.04715</ele>
      </rtept>
      <rtept lat="33.248245" lon="126.557653">
         <ele>58.06926</ele>
      </rtept>
      <rtept lat="33.24823" lon="126.557675">
         <ele>58.09372</ele>
      </rtept>
      <rtept lat="33.248299" lon="126.558494">
         <ele>60</ele>
      </rtept>
      <rtept lat="33.247682" lon="126.558504">
         <ele>58.58524</ele>
      </rtept>
      <rtept lat="33.247523" lon="126.558506">
         <ele>56.46643</ele>
      </rtept>
      <rtept lat="33.247523" lon="126.558619">
         <ele>57.52642</ele>
      </rtept>
   </rte>
</gpx>