<?xml version="1.0" encoding="utf-8"?>
<kml xmlns:gx="http://www.google.com/kml/ext/2.2" xmlns="http://www.opengis.net/kml/2.2">
  <Document>
    <Style id="base_track_style">
      <LineStyle>
        <color>7f00ffff</color>
        <width>4</width>
      </LineStyle>
    </Style>
    <Folder><Placemark>
  <styleUrl>#base_track_style</styleUrl>
  <name>route</name>
  <MultiGeometry>
    <LineString>
      <coordinates>126.262341,33.418639,0
126.262415,33.41865,0
126.262113,33.419753,0
126.26202,33.420038,0
126.261921,33.421585,0
126.261922,33.421784,0
126.261996,33.422126,0
126.262483,33.422925,0
126.263638,33.424777,0
126.263845,33.424871,0
126.264407,33.424979,0
126.264479,33.425033,0
126.26449,33.425156,0
126.264253,33.426108,0
126.264942,33.426207,10
126.264995,33.426215,10
126.265184,33.426323,10
126.265517,33.426462,10
126.265721,33.426494,10
126.266549,33.4264,10
126.26698,33.426188,10
126.267179,33.426202,10
126.267436,33.426059,10
126.267526,33.426038,10
126.267923,33.426093,10
126.268055,33.426177,10
126.268418,33.426232,10
126.268584,33.426179,10
126.26875,33.426087,10
126.268839,33.426131,10
126.269102,33.42632,10
126.269091,33.426513,10
126.269064,33.426563,10
126.268883,33.426682,10
126.26886,33.426724,0
126.268824,33.426953,0
126.269182,33.426993,0
126.269538,33.427123,0
126.26972,33.427163,0
126.270094,33.427436,0
126.270205,33.427517,0
126.271219,33.426767,0
126.273329,33.425252,20
126.273448,33.425167,20
126.274943,33.426595,20
126.275085,33.426492,20
126.276468,33.425495,0
126.276576,33.425436,0
126.27664,33.425419,0
126.277041,33.425443,0
126.277128,33.425423,0
126.27729,33.425342,0
126.277424,33.425337,0
126.277604,33.425423,0
126.277624,33.425292,0
126.277705,33.425303,0
126.277644,33.425547,0
126.277776,33.425654,0
126.277892,33.42572,0
126.277956,33.425757,0
126.278031,33.425774,0
126.278111,33.425824,0
126.278537,33.426259,0
126.278842,33.426438,0
126.279112,33.426657,0
126.279206,33.426704,0
126.279266,33.426852,0
126.279379,33.427018,0
126.279524,33.427167,0
126.279603,33.427284,0
126.279629,33.427437,0
126.280262,33.427531,0
126.280384,33.427549,0
126.280523,33.427599,0
126.280878,33.427804,0
126.280918,33.427848,0
126.280947,33.427922,0
126.28097,33.428132,0
126.281027,33.428246,0
126.28141,33.428503,0
126.281457,33.428571,0
126.281493,33.428703,0
126.281618,33.428822,0
126.281731,33.42891,0
126.282304,33.429252,0
126.282402,33.429289,0
126.282509,33.429057,0
126.282724,33.428927,0
126.283099,33.429097,30
126.283369,33.429352,30
126.283427,33.429438,30
126.283442,33.429539,30
126.283405,33.429622,30
126.283392,33.429696,30
126.2834,33.429747,30
126.283507,33.42983,30
126.28367,33.430212,30
126.28389,33.430328,30
126.284008,33.430366,30
126.284138,33.430373,30
126.284263,33.430295,30
126.284271,33.430259,30
126.284372,33.430198,30
126.284457,33.430247,30
126.284787,33.430591,30
126.284881,33.430804,30
126.285118,33.430892,30
126.285312,33.430987,30
126.285389,33.431097,30
126.285432,33.431215,30
126.285529,33.43151,0
126.285601,33.431599,0
126.285935,33.431864,0
126.286171,33.431882,0
126.286253,33.431921,0
126.286346,33.431993,0
126.286488,33.432145,0
126.286575,33.432321,0
126.286611,33.432458,0
126.286588,33.432474,0
126.286703,33.43253,0
126.286869,33.432515,0
126.286958,33.432539,0
126.2871,33.432648,0
126.287234,33.432716,0
126.28735,33.432739,30
126.287464,33.432728,30
126.287574,33.432756,30
126.287728,33.432813,30
126.287944,33.432692,30
126.288195,33.432615,30
126.288253,33.432612,30
126.288589,33.432864,30
126.288968,33.432947,30
126.289078,33.433094,30
126.289255,33.433206,30
126.289442,33.433224,30
126.289626,33.433405,30
126.289767,33.433478,30
126.289997,33.433422,30
126.290352,33.433431,30
126.290586,33.433467,30
126.290832,33.433422,30
126.290975,33.433446,30
126.29105,33.433567,30
126.291212,33.434007,30
126.291279,33.43406,30
126.291438,33.434078,30
126.291814,33.434344,30
126.291842,33.434395,30
126.291842,33.434503,30
126.291892,33.434547,30
126.292104,33.434583,30
126.292267,33.434682,30
126.292316,33.434724,30
126.292515,33.434771,30
126.292982,33.43494,30
126.293059,33.435023,30
126.293222,33.434537,30
126.293265,33.434332,30
126.293934,33.434159,30
126.294729,33.434122,30
126.294966,33.434115,0
126.295255,33.433979,0
126.295688,33.433951,0
126.295954,33.433965,0
126.296084,33.43381,0
126.296165,33.43377,0
126.29645,33.433701,0
126.297853,33.432907,0
126.297901,33.432911,0
126.298019,33.432331,40
126.298168,33.432329,40
126.298542,33.432208,40
126.299413,33.43189,40
126.299483,33.431897,40
126.299584,33.431651,40
126.299725,33.431514,40
126.299927,33.431413,40
126.300332,33.431234,40
126.30065,33.43116,40
126.300979,33.431048,40
126.301068,33.431101,40
126.301185,33.430842,40
126.301291,33.430152,40
126.301302,33.430142,40
126.301447,33.430155,40
126.301566,33.430165,40
126.301816,33.430138,40
126.30195,33.430093,40
126.302299,33.429916,40
126.302414,33.429882,40
126.302631,33.42991,40
126.302875,33.429972,40
126.302942,33.429967,40
126.303219,33.429851,40
126.303396,33.429755,40
126.303698,33.429537,40
126.30376,33.429547,40
126.304311,33.429541,40
126.304524,33.429521,40
126.304688,33.429589,40
126.304809,33.42964,40
126.304774,33.429781,40
126.304647,33.430029,40
126.304612,33.43016,40
126.304551,33.430301,40
126.304532,33.430437,40
126.304512,33.430558,40
126.304277,33.430777,40
126.304242,33.430891,40
126.304257,33.431093,40
126.3043,33.431187,40
126.304324,33.431662,40
126.304607,33.431861,40
126.304741,33.431906,40
126.304977,33.431892,40
126.305309,33.431482,40
126.305564,33.43131,40
126.305652,33.43119,40
126.305882,33.430879,40
126.305921,33.430696,40
126.305978,33.430563,40
126.306276,33.430394,40
126.306594,33.430138,40
126.307033,33.429919,40
126.30723,33.429735,40
126.307381,33.430057,40
126.30763,33.43025,40
126.307806,33.43033,40
126.308139,33.430415,40
126.308464,33.430577,50
126.308593,33.430695,50
126.308675,33.430737,50
126.308813,33.430704,50
126.308863,33.430478,50
126.308943,33.430455,50
126.309502,33.430636,50
126.310397,33.430959,60
126.310677,33.431001,60
126.310836,33.430736,60
126.310765,33.430657,60
126.310529,33.430598,60
126.310467,33.430535,60
126.310429,33.430427,60
126.31055,33.430315,60
126.310728,33.430263,60
126.310952,33.43011,60
126.311069,33.430064,60
126.311396,33.429987,60
126.31152,33.429958,60
126.311652,33.42997,60
126.312069,33.430181,60
126.312202,33.430189,64.88104
126.312377,33.430068,70
126.312742,33.429914,70
126.312876,33.429795,70
126.312951,33.429679,70
126.313145,33.429581,70
126.313144,33.429793,70
126.312989,33.430236,70
126.312975,33.430442,70
126.313035,33.430721,70
126.313051,33.431146,70
126.313043,33.431372,70
126.313067,33.431579,70
126.31303,33.4317,70
126.312936,33.431853,70
126.312706,33.432132,70
126.31302,33.432229,70
126.313283,33.432157,70
126.31337,33.432186,70
126.313439,33.432336,70
126.313385,33.43284,70
126.313449,33.432973,70
126.31357,33.433057,70
126.313714,33.433265,70
126.313755,33.433366,70
126.313887,33.433564,70
126.314001,33.433952,70
126.314115,33.434023,70
126.314377,33.434111,70
126.314547,33.434288,70
126.314503,33.43433,70
126.314468,33.434424,70
126.314473,33.434493,70
126.314528,33.434631,70
126.314507,33.434707,70
126.314642,33.434793,70
126.314715,33.434894,70
126.314875,33.435014,70
126.315047,33.435221,70
126.31517,33.435273,70
126.315328,33.435253,70
126.315499,33.435273,70
126.315588,33.435298,0
126.31561,33.43549,0
126.315717,33.4356,60
126.315988,33.435696,60
126.3162,33.435974,60
126.316331,33.436276,60
126.316358,33.436404,57.32751
126.316334,33.436692,55.65868
126.316586,33.43697,50
126.316817,33.436936,50
126.31702,33.436952,50
126.317232,33.436997,50
126.317517,33.437121,50
126.317576,33.437066,50
126.317615,33.436886,50
126.317837,33.436526,50
126.317961,33.436077,50
126.318135,33.435727,55.37186
126.318185,33.435456,60
126.318159,33.435134,60
126.318078,33.434779,64.04887
126.318039,33.434688,64.99535
126.318123,33.434581,65.87917
126.318306,33.434451,66.79811
126.31857,33.43413,70
126.318635,33.433944,70
126.318518,33.433333,70
126.318442,33.433188,70
126.318544,33.432905,70
126.31873,33.432649,80
126.318819,33.4325,80
126.31886,33.432268,80
126.318947,33.432077,80
126.319242,33.43167,80
126.319287,33.431543,80
126.319299,33.431257,80
126.319343,33.431098,80
126.319198,33.430785,80
126.319112,33.430432,80
126.319057,33.43004,0
126.321143,33.432032,80
126.321538,33.432365,80
126.321987,33.432681,80
126.322371,33.432887,80
126.322713,33.433188,80
126.323057,33.433168,80
126.323153,33.433102,80
126.323216,33.43299,80
126.323222,33.432662,85.49717
126.323248,33.43255,86.65007
126.323519,33.432387,90
126.323873,33.432276,89.93842
126.324173,33.432203,89.71577
126.324388,33.432107,89.24028
126.324591,33.431977,90
126.324752,33.431825,90
126.324752,33.431657,90
126.32468,33.431487,90
126.3249,33.431388,90
126.325147,33.431451,90
126.325208,33.431366,90
126.325447,33.431194,90
126.325785,33.430865,96.48474
126.326086,33.431035,95.16438
126.326617,33.431409,90
126.326696,33.431312,92.05457
126.327471,33.431672,90
126.32757,33.431779,90
126.327588,33.431875,90
126.327581,33.432052,85.45616
126.327548,33.432229,84.08793
126.327685,33.432577,80
126.327752,33.432652,80
126.327648,33.432866,80
126.32756,33.432981,80
126.327723,33.433068,80
126.327884,33.433054,80
126.328044,33.433153,80
126.328524,33.433203,80
126.328494,33.433384,80
126.328851,33.433468,80
126.329018,33.433547,80
126.329317,33.433802,83.12292
126.329379,33.43391,83.27251
126.329449,33.434202,82.89664
126.329547,33.434381,83.19534
126.329789,33.434685,84.25894
126.330038,33.43482,85.92845
126.330067,33.43486,85.91265
126.330262,33.434813,88.21976
126.330432,33.434472,90
126.330488,33.433915,90
126.330984,33.433702,97.12027
126.331091,33.43375,100
126.331105,33.433747,100
126.331105,33.433893,100
126.331159,33.434121,100
126.330952,33.434463,94.57104
126.33062,33.434575,90
126.330432,33.434472,90
126.330262,33.434813,88.21976
126.330067,33.43486,85.91265
126.330067,33.434941,85.24056
126.330032,33.435064,83.80767
126.329985,33.435513,80
126.329902,33.435837,80
126.329918,33.435937,80
126.329974,33.436018,80
126.330008,33.436146,80
126.330003,33.43627,80
126.329985,33.436394,80
126.329897,33.436694,80
126.329845,33.436948,80
126.329918,33.437065,80
126.330272,33.437399,80
126.330436,33.437566,0
126.330515,33.437743,0
126.330562,33.437911,0
126.33054,33.438358,70
126.330564,33.438513,70
126.33046,33.438741,70
126.330354,33.4389,70
126.330001,33.43896,70
126.329161,33.439218,70
126.328948,33.43935,70
126.328777,33.439529,70
126.328563,33.439661,70
126.328144,33.439814,70
126.327947,33.440117,60
126.327698,33.440529,60
126.327682,33.440591,60
126.327739,33.440824,60
126.327742,33.440903,60
126.327688,33.441075,60
126.327264,33.44179,60
126.327088,33.442129,60
126.327058,33.442423,60
126.327129,33.442712,60
126.327149,33.44291,60
126.327142,33.443029,60
126.327073,33.443346,60
126.326876,33.443432,60
126.326532,33.443879,60
126.326383,33.444326,60
126.32629,33.444721,60
126.326219,33.444915,60
126.326089,33.445124,60
126.326117,33.445518,60.14777
126.326098,33.445544,60.68623
126.325865,33.44586,67.16809
126.325725,33.446141,73.80119
126.325557,33.446718,91.38928
126.325746,33.447299,98.80885
126.325775,33.447819,105.691
126.325807,33.448398,107.9947
126.325606,33.448811,111.9183
126.325155,33.449227,112.8962
126.32491,33.449415,109.0615
126.324523,33.449836,100
126.324238,33.450226,97.36454
126.324233,33.450487,94.703
126.324289,33.450592,93.67622
126.324345,33.4509,90
126.324527,33.451266,90
126.324896,33.451468,84.70319
126.325134,33.451511,80
126.325387,33.451628,80
126.325517,33.451702,80
126.325723,33.451854,80
126.325961,33.451858,76.7792
126.326073,33.451905,75.79286
126.326264,33.452018,73.97523
126.326643,33.452365,70
126.326391,33.452478,70
126.326092,33.452571,70
126.32598,33.452673,70
126.325825,33.452871,70
126.325769,33.452988,70
126.325867,33.453125,70
126.325981,33.453342,66.03999
126.326436,33.453668,60
126.326702,33.454423,54.39649
126.326921,33.454164,55.84015
126.327036,33.453979,60
126.327115,33.453984,60
126.327166,33.453942,60
126.327312,33.453972,60
126.327791,33.454322,50
126.32784,33.454571,50
126.328025,33.454656,50
126.32858,33.454769,50
126.328725,33.454921,50
126.328811,33.455209,50
126.328925,33.455394,50
126.329107,33.455602,50
126.329175,33.455623,50
126.329335,33.455569,50
126.329729,33.455366,50
126.329929,33.455371,50
126.330105,33.455538,50
126.33,33.455826,50
126.32952,33.45605,50
126.329517,33.45617,50
126.329631,33.456361,50
126.329846,33.456494,50
126.330023,33.456558,50
126.33009,33.456582,50
126.33037,33.456607,50
126.330734,33.456571,50
126.330974,33.456481,50
126.331239,33.45643,50
126.331547,33.456325,50
126.331827,33.456286,50
126.331886,33.456366,50
126.331895,33.456543,50
126.332046,33.456564,50
126.332256,33.456566,50
126.332339,33.456605,50
126.332619,33.456553,50
126.332876,33.45656,60
126.332858,33.456895,60
126.332754,33.457019,60
126.332777,33.457411,60
126.332999,33.457357,60
126.333283,33.457313,60
126.333449,33.457262,60
126.333939,33.457039,60
126.334145,33.456973,60
126.334468,33.456903,60
126.334604,33.456855,60
126.334835,33.456732,62.04623
126.334928,33.456857,62.35781
126.334839,33.457102,60.30769
126.334821,33.457293,60.81989
126.334975,33.457433,60.00421
126.335063,33.457632,60.37962
126.335208,33.45769,61.03897
126.335347,33.458187,57.25527
126.335463,33.458285,57.14339
126.335622,33.458462,56.29333
126.335751,33.458542,56.71752
126.335916,33.458672,56.95204
126.336036,33.458826,56.03424
126.336156,33.458954,55.4968
126.336339,33.459099,55.64085
126.336489,33.459239,55.08623
126.33666,33.459455,52.67208
126.336795,33.459578,51.92789
126.336881,33.459654,51.41185
126.337019,33.459809,50.20086
126.337192,33.459956,50.66711
126.337459,33.46004,52.78849
126.337815,33.460144,58.30197
126.338063,33.460282,60.76032
126.338201,33.460472,59.3052
126.338185,33.460754,51.81266
126.338058,33.460945,45.28855
126.337695,33.462452,23.57268
126.337363,33.462359,20
126.337333,33.462475,20
126.337328,33.462514,20
126.337642,33.462593,20
126.338729,33.462932,22.48327
126.339195,33.463273,20
126.339835,33.463934,20
126.339531,33.464114,20
126.339744,33.464405,20
126.339928,33.464556,20
126.339904,33.464586,20
126.339824,33.464877,20
126.339756,33.465078,0
126.339696,33.465142,0
126.339379,33.465359,10
126.339196,33.465551,10
126.339122,33.465597,10
126.338832,33.465946,10
126.338748,33.466188,10
126.338687,33.46625,10
126.338456,33.46639,10
126.338448,33.466633,10
126.338373,33.466701,10
126.338195,33.466722,10
126.338116,33.466749,10
126.338094,33.466894,10
</coordinates>
    </LineString>
  </MultiGeometry>
</Placemark></Folder>
  </Document>
</kml>