<?xml version="1.0" encoding="utf-8"?>
<kml xmlns:gx="http://www.google.com/kml/ext/2.2" xmlns="http://www.opengis.net/kml/2.2">
  <Document>
    <Style id="base_track_style">
      <LineStyle>
        <color>7f00ffff</color>
        <width>4</width>
      </LineStyle>
    </Style>
    <Folder><Placemark>
  <styleUrl>#base_track_style</styleUrl>
  <name>route</name>
  <MultiGeometry>
    <LineString>
      <coordinates>126.904117,33.404989,0
126.904131,33.404974,0
126.903995,33.404886,0
126.904017,33.40464,0
126.903722,33.40473,0
126.903638,33.404572,0
126.903618,33.404456,0
126.903603,33.403937,0
126.903522,33.403787,0
126.902984,33.403484,0
126.902888,33.403329,0
126.902918,33.402555,0
126.902857,33.402161,0
126.902775,33.401881,0
126.902777,33.401789,0
126.9028,33.401718,0
126.902895,33.401567,0
126.903321,33.401095,0
126.903471,33.400957,0
126.903347,33.400853,0
126.903245,33.400823,10
126.902903,33.400607,10
126.902728,33.400457,10
126.902573,33.400385,10
126.902096,33.400345,10
126.901512,33.400438,10
126.901202,33.40053,20
126.90111,33.400509,20
126.901064,33.400453,20
126.900991,33.400478,20
126.900789,33.400057,20
126.90075,33.400019,20
126.900464,33.400248,20
126.900308,33.400349,20
126.900196,33.400373,20
126.899943,33.400354,20
126.899834,33.400385,20
126.899649,33.400467,20
126.899449,33.400634,20
126.899091,33.400761,20
126.899038,33.400811,20
126.898959,33.400836,20
126.898623,33.401011,20
126.898522,33.401045,20
126.898448,33.401049,20
126.898341,33.400993,20
126.898229,33.400767,20
126.898113,33.400684,20
126.898001,33.400655,20
126.897668,33.400657,20
126.897583,33.400614,20
126.89752,33.400543,20
126.897292,33.400392,20
126.896828,33.400186,20
126.896784,33.40013,20
126.896683,33.400056,20
126.89568,33.399854,20
126.895467,33.399793,20
126.895291,33.399716,20
126.895124,33.399734,20
126.895099,33.399668,20
126.895085,33.399631,0
126.894886,33.399683,0
126.894825,33.39951,0
126.894804,33.399451,0
126.894724,33.399468,0
126.894259,33.399352,0
126.893982,33.399363,0
126.89393,33.399347,0
126.893778,33.399248,0
126.893613,33.399189,0
126.893356,33.399144,0
126.893116,33.399132,0
126.892956,33.399146,30
126.892547,33.399251,30
126.892242,33.399378,30
126.892014,33.399527,30
126.89188,33.399671,30
126.891674,33.399846,30
126.89153,33.399741,30
126.891102,33.399556,30
126.890611,33.399473,30
126.89019,33.399322,30
126.890123,33.399278,30
126.88998,33.399111,30
126.889903,33.399079,30
126.88978,33.399068,30
126.889445,33.399101,30
126.888989,33.39899,30
126.888202,33.399096,40
126.887988,33.398874,40
126.88779,33.398545,40
126.887232,33.398473,40
126.886829,33.398301,40
126.88646,33.397964,40
126.886142,33.3979,40
126.885893,33.39785,0
126.884692,33.398093,0
126.884434,33.398,0
126.883885,33.397262,0
126.883782,33.396975,0
126.883337,33.396833,0
126.882982,33.396217,0
126.883001,33.395965,0
126.882701,33.395621,0
126.882374,33.395542,0
126.88234,33.395427,0
126.882718,33.39494,30
126.882915,33.39456,30
126.882823,33.39427,30
126.882392,33.393852,30
126.882371,33.393758,30
126.882047,33.393541,30
126.881932,33.39348,30
126.881821,33.393462,30
126.881602,33.39349,30
126.880975,33.393693,30
126.880886,33.393684,30
126.88056,33.393578,30
126.880374,33.393613,30
126.879959,33.393442,30
126.879886,33.39339,30
126.879833,33.393295,30
126.87977,33.393065,30
126.879739,33.392858,30
126.879661,33.392705,30
126.87913,33.392425,30
126.878865,33.392235,30
126.878791,33.392115,30
126.878784,33.391995,30
126.878736,33.391898,30
126.878644,33.391839,30
126.878561,33.391831,30
126.878501,33.391851,30
126.878611,33.392264,30
126.878638,33.392497,30
126.878639,33.392762,30
126.878512,33.392762,30
126.878388,33.392727,30
126.878217,33.392718,30
126.877981,33.392776,30
126.877862,33.392828,30
126.877415,33.393165,30
126.877228,33.393261,30
126.8769,33.393471,30
126.876749,33.393491,30
126.87654,33.39343,30
126.876434,33.393437,30
126.876347,33.393503,34.01351
126.876317,33.393546,34.32434
126.876143,33.393668,35.7455
126.875782,33.39379,40
126.875664,33.393889,40
126.875376,33.394041,40
126.875321,33.394151,40
126.875262,33.394351,40
126.875212,33.394417,40
126.87516,33.394449,40
126.874659,33.394533,40
126.874125,33.39465,50
126.873977,33.394633,50
126.873791,33.394553,50
126.873404,33.394481,50
126.872981,33.394329,50
126.872749,33.394572,50
126.872713,33.394637,50
126.872675,33.394917,50
126.872609,33.395018,50
126.872408,33.395118,50
126.872341,33.39513,50
126.87184,33.39508,60
126.871778,33.395088,60
126.871638,33.395176,60
126.871552,33.395328,60
126.871306,33.39606,60
126.871267,33.396242,60
126.871289,33.396325,60
126.871455,33.396637,60
126.871477,33.396699,60
126.87147,33.396791,60
126.871321,33.397065,60
126.871246,33.397135,60
126.871077,33.397236,60
126.870975,33.397359,60
126.870948,33.397453,60
126.870795,33.397681,60
126.870726,33.397922,60
126.870464,33.398111,60
126.870394,33.398201,60
126.870027,33.398148,60
126.869323,33.397997,60
126.869092,33.398079,70
126.868828,33.398212,70
126.868641,33.398372,70
126.868437,33.39843,70
126.868351,33.398408,70
126.86824,33.398629,70
126.867957,33.399061,70
126.867265,33.398789,70
126.867018,33.398733,70
126.866724,33.398554,70
126.866512,33.39853,70
126.866343,33.398545,70
126.866262,33.398507,70
126.865392,33.397837,70
126.864706,33.397768,80
126.863921,33.397954,80
126.863256,33.397616,80
126.862837,33.397372,80
126.862491,33.39712,80
126.862358,33.397044,80
126.862014,33.396903,80
126.86157,33.396776,80
126.861434,33.396716,80
126.861349,33.396664,80
126.861264,33.396558,80
126.860622,33.396269,80
126.860229,33.396224,90
126.860134,33.396311,90
126.859953,33.395995,90
126.859631,33.39611,90
126.859529,33.396175,90
126.85945,33.396238,90
126.85936,33.39639,90
126.859271,33.396462,90
126.859195,33.39649,90
126.859018,33.396508,90
126.858819,33.39649,90
126.858759,33.396498,90
126.858213,33.396911,90
126.857853,33.396732,90
126.857587,33.396578,100
126.857255,33.396582,100
126.856952,33.396779,100
126.856737,33.396918,100
126.856349,33.396925,100
126.85581,33.396574,104.0019
126.855286,33.3965,106.3858
126.854261,33.396494,104.5239
126.854222,33.396395,105.9856
126.854249,33.39615,109.8361
126.854211,33.395876,113.39
126.854047,33.395614,115.701
126.853975,33.395406,117.1222
126.854026,33.395317,118.0661
126.854243,33.395108,120
126.854436,33.395012,120
126.854611,33.394925,120
126.855643,33.3946,124.2041
126.855791,33.394179,125.0956
126.855853,33.393706,124.551
126.855759,33.392811,120
126.855802,33.392412,120
126.855737,33.392177,120
126.855633,33.392002,115.8057
126.855437,33.39181,110
126.855161,33.391684,110
126.854659,33.391548,110
126.854127,33.391556,114.1317
126.854109,33.391421,112.828
126.854018,33.390863,110
126.854056,33.390705,110
126.854086,33.3906,110
126.854161,33.390547,110
126.854422,33.390597,110
126.854449,33.390522,110
126.85437,33.390453,110
126.854391,33.390266,114.1579
126.854415,33.390239,114.6605
126.855654,33.389958,119.042
126.856168,33.38986,119.9303
126.856457,33.38971,121.1116
126.856653,33.389587,121.4324
126.856745,33.389511,121.5463
126.857437,33.388685,120
126.857276,33.388608,121.7322
126.857072,33.388562,123.9486
126.856574,33.388562,129.1732
126.856239,33.388469,130
126.855964,33.388577,130
126.855475,33.389017,130
126.855268,33.389072,130
126.855064,33.389059,130
126.854869,33.389126,130
126.854413,33.389049,130
126.853632,33.388827,128.3464
126.85325,33.388291,123.3105
126.853312,33.388008,120.9722
126.853417,33.387808,119.8494
126.853836,33.387358,117.9613
126.854368,33.387065,118.0704
126.854797,33.386864,116.1998
126.855329,33.386807,116.6932
126.855621,33.386577,110.5681
126.855633,33.386276,102.2477
126.855558,33.386016,95.44569
126.855354,33.385765,88.50758
126.855132,33.385438,80.72739
126.854985,33.385123,76.2034
126.854752,33.384997,73.38713
126.854984,33.38467,72.06033
126.855169,33.384251,70
126.855231,33.384174,70
126.855295,33.384137,70
126.85551,33.38393,70.29013
126.855836,33.383431,70
126.856259,33.382213,63.78082
126.85623,33.382107,62.79929
126.856385,33.382049,63.2622
126.856691,33.382009,64.52695
126.856781,33.382011,64.9508
126.85746,33.382256,70
126.857571,33.382272,70
126.857728,33.38227,70
126.858412,33.382118,70
126.858765,33.382134,70
126.858815,33.382114,70
126.858888,33.382025,70
126.858951,33.382003,70
126.859557,33.382105,70
126.860164,33.382279,70
126.860275,33.38227,70
126.860329,33.382249,70
126.860383,33.38221,70
126.860477,33.382078,70
126.860713,33.382169,70
126.860842,33.382187,70
126.860918,33.382157,70
126.860968,33.382127,70
126.861111,33.381867,70
126.861173,33.381825,70
126.861326,33.381768,70
126.861474,33.381737,70
126.861758,33.381741,70
126.861879,33.381481,70
126.861994,33.381108,60
126.862066,33.380937,60
126.862218,33.380405,60
126.862253,33.38033,60
126.86232,33.380242,60
126.862546,33.38014,60
126.862941,33.38006,60
126.863167,33.37996,60
126.863346,33.379799,50
126.864,33.379468,50
126.864511,33.379148,50
126.864606,33.379051,50
126.864718,33.378893,50
126.864929,33.378682,40
126.865234,33.378463,40
126.865474,33.378142,40
126.865607,33.377878,40
126.86564,33.377767,40
126.865689,33.377701,40
126.865416,33.377552,40
126.86485,33.377366,40
126.864559,33.377229,40
126.863816,33.377156,40
126.863535,33.377153,40
126.863279,33.377097,40
126.863214,33.377059,40
126.86298,33.37676,40
126.862685,33.376464,40
126.862534,33.37636,40
126.862161,33.37651,40
126.861855,33.376604,40
126.86138,33.37665,40
126.861026,33.376626,40
126.860755,33.376567,40
126.860543,33.376478,40
126.860427,33.376337,40
126.860147,33.375859,40
126.859749,33.375946,40
126.859603,33.37596,40
126.859506,33.375997,40
126.859455,33.376035,40
126.859408,33.376104,40
126.85923,33.376428,40
126.859121,33.376521,40
126.85886,33.376651,40
126.858803,33.376545,40
126.858749,33.376498,40
126.858642,33.37645,40
126.858444,33.376395,40
126.85798,33.376304,40
126.857888,33.376323,40
126.857639,33.376225,50
126.857476,33.376263,50
126.85731,33.376336,50
126.857085,33.3762,50
126.856542,33.375936,50
126.85607,33.375669,50
126.855388,33.375224,50
126.855141,33.375095,50
126.854935,33.374954,50
126.854708,33.374766,50
126.8546,33.374706,50
126.85444,33.374503,50
126.854258,33.374412,50
126.854112,33.374262,50
126.854006,33.374183,50
126.853742,33.374111,50
126.853565,33.374092,50
126.852673,33.374181,50
126.852555,33.374177,50
126.852249,33.374006,50
126.85217,33.374044,50
126.852046,33.37384,50
126.852094,33.373552,50
126.852089,33.373278,50
126.854295,33.372481,50
126.854988,33.372295,50
126.855843,33.37214,40
126.856714,33.372033,40
126.857626,33.371867,30
126.85949,33.371812,30
126.860819,33.371424,30
126.860763,33.371349,30
126.860661,33.371283,30
126.86045,33.371186,30
126.859779,33.37068,30
126.859617,33.370514,30
126.859277,33.370239,30
126.859266,33.370167,30
126.859202,33.370098,30
126.858857,33.369968,30
126.858693,33.369854,30
126.858671,33.369801,30
126.858333,33.369614,30
126.858418,33.369451,30
126.858444,33.369368,30
126.858531,33.368866,30
126.858567,33.368645,0
126.858622,33.368566,0
126.858959,33.368336,0
126.859685,33.368062,0
126.859813,33.367991,0
126.859853,33.367947,0
126.859878,33.367841,0
126.859835,33.367676,0
126.859846,33.367608,0
126.860239,33.366986,0
126.860276,33.366894,0
126.860279,33.366749,0
126.860303,33.366655,0
126.860404,33.366557,0
126.860216,33.366341,0
126.860185,33.366259,0
126.859977,33.365555,0
126.859927,33.365457,0
126.859912,33.36513,30
126.859892,33.365053,30
126.859825,33.364914,30
126.859742,33.364855,30
126.859334,33.364668,30
126.859729,33.364494,30
126.85985,33.364475,30
126.859955,33.364484,30
126.860107,33.364524,30
126.860569,33.364395,30
126.860906,33.364271,30
126.861335,33.364187,30
126.861465,33.364127,30
126.86159,33.36404,30
126.861626,33.363997,30
126.861756,33.363732,30
126.861887,33.363664,30
126.861954,33.363652,30
126.862125,33.363669,30
126.862616,33.363758,30
126.863017,33.363621,30
126.863158,33.363551,30
126.863243,33.36347,30
126.863297,33.363389,30
126.863541,33.363191,20
126.863639,33.363092,20
126.863751,33.362938,20
126.864491,33.363201,20
126.864898,33.363234,20
126.864977,33.363169,20
126.865016,33.363199,20
126.865267,33.363155,20
126.865325,33.362657,20
126.865569,33.362592,20
126.865649,33.36257,0
126.86575,33.36247,0
126.865801,33.362384,0
126.865891,33.362099,0
126.865909,33.361921,0
126.865663,33.361302,20
126.865331,33.360307,20
126.866595,33.360194,10
126.867304,33.360131,10
126.8674,33.359853,10
126.867415,33.359393,10
126.867577,33.358624,10
126.868206,33.357138,10
126.868206,33.355998,10
126.86824,33.355274,10
126.86794,33.354715,10
126.867502,33.353969,10
126.866981,33.353365,10
126.866902,33.352727,10
126.866641,33.352553,10
126.865871,33.35204,10
126.865485,33.351696,10
126.864641,33.350675,10
126.863633,33.349416,10
126.863242,33.349313,10
126.86272,33.349274,10
126.862209,33.349049,10
126.861803,33.348843,10
126.861423,33.348763,10
126.861173,33.348489,10
126.86106,33.348488,10
126.86014,33.348379,10
126.859514,33.34803,10
126.858921,33.348099,10
126.858788,33.347982,10
126.858039,33.347614,10
126.857857,33.347997,10
126.857717,33.348127,10
126.857524,33.348535,10
126.857465,33.348835,10
126.857326,33.348988,10
126.856966,33.349077,10
126.856757,33.349252,10
126.856483,33.349221,10
126.85629,33.348956,10
126.856092,33.348826,10
126.855711,33.348728,10
126.855577,33.348665,10
126.855427,33.348481,10
126.855378,33.348284,10
126.855303,33.347702,10
126.854912,33.347419,10
126.854772,33.347289,10
126.854659,33.347083,10
126.854598,33.347028,10
126.854472,33.346915,0
126.85448,33.346804,0
126.854418,33.346728,0
126.853885,33.346568,0
126.85386,33.346215,0
126.854124,33.345549,0
126.854336,33.345231,10
126.854414,33.345049,10
126.854416,33.344833,10
126.854482,33.344613,10
126.854484,33.34438,10
126.854437,33.344238,10
126.854365,33.344144,10
126.854088,33.343932,10
126.854057,33.343866,10
126.854051,33.343707,10
126.853967,33.343191,10
126.85389,33.343064,10
126.853926,33.343047,10
126.853856,33.342978,10
126.853606,33.342818,10
126.853173,33.342843,10
126.853115,33.342806,10
126.852899,33.342584,10
126.853287,33.342451,10
126.853409,33.342377,10
126.853618,33.342164,10
126.853773,33.34188,10
126.853848,33.341808,10
126.85409,33.341816,10
126.854174,33.341798,10
126.854347,33.341637,10
126.854513,33.341581,10
126.854758,33.34146,10
126.855049,33.341254,10
126.855126,33.341215,10
126.855282,33.341098,0
126.855176,33.340684,0
126.855091,33.340054,0
126.854984,33.339841,0
126.855229,33.339602,0
126.855271,33.339562,0
126.855346,33.339402,0
126.855352,33.339356,0
126.854965,33.33923,0
126.85468,33.339312,0
126.854532,33.339326,0
126.85352,33.339279,0
126.853237,33.33923,0
126.853111,33.339212,0
126.852781,33.339035,0
126.852584,33.33891,0
126.852122,33.338599,0
126.852038,33.33846,0
126.851986,33.338419,0
126.85145,33.338118,0
126.851375,33.338068,0
126.851203,33.33791,0
126.850642,33.337685,0
126.850362,33.337492,0
126.850276,33.337263,0
126.850302,33.336969,0
126.850079,33.336919,0
126.84975,33.337064,0
126.849644,33.337095,0
126.849382,33.336717,0
126.849096,33.336802,0
126.849011,33.336827,0
126.849175,33.336599,0
126.848882,33.336395,0
126.848561,33.336289,0
126.84798,33.336156,0
126.847544,33.336002,0
126.846989,33.33568,0
126.845951,33.334325,0
126.845908,33.3342,0
126.845693,33.334014,0
126.84511,33.333692,0
126.844523,33.333449,0
126.84435,33.333353,0
126.844168,33.333253,0
126.843887,33.333036,0
126.843755,33.332822,0
126.843567,33.332363,0
126.843117,33.332121,0
126.842556,33.331895,0
126.842319,33.331436,0
126.842071,33.331073,0
126.842034,33.330787,0
126.841974,33.330561,0
126.841865,33.330336,0
126.841698,33.330056,0
126.841183,33.330038,0
126.841004,33.329944,0
126.840667,33.32993,0
126.840419,33.330025,0
126.840156,33.330095,0
126.839943,33.330092,0
126.839503,33.329928,0
126.839333,33.329776,0
126.837762,33.329751,0
126.837134,33.329505,0
126.836818,33.329178,0
126.8367,33.328847,0
126.83667,33.327702,0
126.836928,33.326465,0
126.837049,33.326474,0
126.837176,33.326439,0
126.837586,33.325895,0
126.837591,33.325819,0
126.837931,33.325737,0
126.83801,33.325733,0
126.838096,33.325762,0
126.839319,33.325791,0
126.839478,33.325849,0
126.839898,33.326054,0
126.839977,33.32608,0
126.840025,33.326079,0
126.840228,33.326006,0
126.840303,33.325962,0
126.842198,33.325923,0
126.842224,33.325827,0
126.842314,33.325748,0
126.842406,33.325719,0
126.842522,33.325721,0
126.842507,33.325558,0
</coordinates>
    </LineString>
  </MultiGeometry>
</Placemark></Folder>
  </Document>
</kml>