<?xml version="1.0" encoding="utf-8"?>
<kml xmlns:gx="http://www.google.com/kml/ext/2.2" xmlns="http://www.opengis.net/kml/2.2">
  <Document>
    <Style id="base_track_style">
      <LineStyle>
        <color>7f00ffff</color>
        <width>4</width>
      </LineStyle>
    </Style>
    <Folder><Placemark>
  <styleUrl>#base_track_style</styleUrl>
  <name>route</name>
  <MultiGeometry>
    <LineString>
      <coordinates>126.718622,33.278086,0
126.718607,33.278002,0
126.718272,33.277398,0
126.718093,33.277098,0
126.717825,33.276731,0
126.717552,33.276482,0
126.71699,33.276169,0
126.716838,33.276147,0
126.716563,33.276165,0
126.715282,33.276561,0
126.714799,33.276555,0
126.714522,33.276517,0
126.714044,33.276331,0
126.713942,33.276311,0
126.713527,33.276303,0
126.713352,33.276276,0
126.713145,33.2762,0
126.712931,33.276061,0
126.712793,33.275916,0
126.712686,33.275747,0
126.712558,33.275426,0
126.712322,33.275198,0
126.712148,33.275185,0
126.711006,33.274806,0
126.710167,33.274648,10
126.709566,33.2746,10
126.70916,33.274497,10
126.708885,33.274533,10
126.708722,33.274325,10
126.708516,33.274225,10
126.708001,33.274289,10
126.706971,33.274117,10
126.706276,33.274146,11.07209
126.70564,33.273995,13.07923
126.705289,33.273808,12.92711
126.704988,33.273521,11.69543
126.704422,33.273328,10
126.704018,33.27322,10
126.703615,33.27289,10
126.70322,33.272875,10
126.702654,33.272789,10
126.702319,33.272703,10
126.701933,33.272388,10
126.701409,33.27228,10
126.700954,33.272036,10
126.700623,33.271949,10
126.700483,33.271917,10
126.700396,33.272356,13.88825
126.700355,33.272396,14.429
126.699867,33.272346,15.54219
126.69965,33.272342,15.91412
126.699161,33.272376,20
126.697765,33.273495,20
126.696302,33.27384,20
126.696239,33.273865,20
126.695838,33.274111,20
126.695861,33.273858,20
126.695918,33.273743,20
126.695884,33.273166,20
126.695789,33.272844,20
126.695749,33.272816,20
126.69528,33.272767,20
126.69498,33.272693,20
126.694662,33.272581,20
126.694611,33.271735,20
126.694628,33.27116,14.80828
126.694474,33.270916,10
126.6945,33.270787,10
126.693971,33.270762,10
126.693598,33.270744,10
126.6928,33.270443,10
126.6921,33.270331,10
126.691963,33.270288,10
126.691792,33.270272,10
126.691464,33.27031,10
126.690398,33.270592,10
126.690393,33.27038,10
126.690308,33.270338,10
126.690043,33.270269,10
126.689889,33.270194,10
126.689659,33.270036,10
126.689553,33.27,10
126.689052,33.269949,10
126.688622,33.269959,10
126.688446,33.269982,10
126.68812,33.269986,10
126.687941,33.269957,10
126.687461,33.269974,10
126.686594,33.269902,10
126.686427,33.269873,10
126.686014,33.269718,10
126.685865,33.269757,10
126.684917,33.270151,10
126.683795,33.27028,10
126.683592,33.27032,10
126.683392,33.270312,10
126.683128,33.270273,10
126.682971,33.270314,10
126.682815,33.270391,10
126.682716,33.270489,10
126.682693,33.270549,10
126.682691,33.270615,10
126.682647,33.270671,10
126.682588,33.270711,10
126.682507,33.270735,10
126.682438,33.270678,10
126.68205,33.27065,10
126.681826,33.270698,10
126.681746,33.270735,10
126.6817,33.270905,10
126.681599,33.271003,10
126.681432,33.271075,10
126.681195,33.271102,10
126.680988,33.271614,10
126.680805,33.271839,10
126.680682,33.272255,10
126.68054,33.272383,10
126.679841,33.272804,10
126.679811,33.272786,10
126.679453,33.272715,10
126.679172,33.272623,10
126.67898,33.272557,10
126.678808,33.272546,10
126.678545,33.272631,10
126.678449,33.272681,10
126.678341,33.272782,10
126.678183,33.272782,10
126.677728,33.272646,10
126.677557,33.272466,10
126.67675,33.272466,10
126.676612,33.272444,10
126.676072,33.272412,10
126.674923,33.272568,10
126.67483,33.272604,10
126.674632,33.272757,10
126.674451,33.272955,10
126.674392,33.27307,10
126.673923,33.27312,10
126.673707,33.273159,10
126.673623,33.27295,10
126.673497,33.272476,10
126.673462,33.272311,10
126.67346,33.272109,10
126.673501,33.271836,10
126.673605,33.271356,10
126.673679,33.271219,10
126.673862,33.270978,10
126.673996,33.270752,10
126.674086,33.270457,10
126.674145,33.269987,10
126.674018,33.269983,10
126.673772,33.269914,10
126.673603,33.269911,10
126.673339,33.26998,10
126.672423,33.270142,10
126.672163,33.270208,10
126.672016,33.270318,10
126.671887,33.27055,10
126.671069,33.271242,10
126.670622,33.271196,10
126.670132,33.271239,10
126.670066,33.271215,10
126.66984,33.271132,0
126.66954,33.271103,0
126.669008,33.271225,10
126.668733,33.271225,10
126.66821,33.270838,10
126.667997,33.270571,10
126.666665,33.270816,10
126.665987,33.270737,10
126.665523,33.270723,10
126.665077,33.270952,10
126.664785,33.271426,10
126.664407,33.271656,10
126.664227,33.271687,10
126.664132,33.271704,0
126.663951,33.271626,0
126.663678,33.271655,0
126.663219,33.271915,0
126.663139,33.27198,0
126.66298,33.272191,0
126.662887,33.272346,0
126.66269,33.271956,0
126.66262,33.271861,0
126.662088,33.271315,0
126.661821,33.271472,0
126.661848,33.271695,0
126.662228,33.272111,0
126.662406,33.272142,0
126.66256,33.272482,0
126.663041,33.272748,0
126.662876,33.274061,0
126.66239,33.274227,0
126.662223,33.27435,0
126.66234,33.274566,0
126.662402,33.274744,10
126.662393,33.274714,10
126.662402,33.274744,10
126.662373,33.274999,10
126.661056,33.274862,10
126.660645,33.274824,10
126.659552,33.274747,10
126.659534,33.274648,10
126.659513,33.27424,10
126.658933,33.274191,10
126.658128,33.273963,10
126.658018,33.273994,10
126.657604,33.274271,10
126.657501,33.274372,10
126.657465,33.274438,10
126.657383,33.274416,10
126.657332,33.274367,10
126.657278,33.274237,10
126.657317,33.274186,10
126.657858,33.273756,10
126.657914,33.273673,10
126.657807,33.273355,10
126.657801,33.273295,10
126.657848,33.273161,10
126.657916,33.273097,10
126.65799,33.273066,10
126.658133,33.27304,10
126.658277,33.272952,10
126.658411,33.27281,10
126.658513,33.272633,10
126.658898,33.271569,10
126.659128,33.270927,0
126.658619,33.27081,0
126.658254,33.270113,0
126.658054,33.26987,0
126.657962,33.269501,0
126.657568,33.269204,0
126.657364,33.26905,0
126.657011,33.269084,0
126.656497,33.269194,0
126.656083,33.269328,0
126.655556,33.26925,0
126.65494,33.26903,0
126.65461,33.268793,0
126.654388,33.2688,0
126.653757,33.269097,0
126.653545,33.269177,0
126.653371,33.26945,0
126.653297,33.269631,0
126.653312,33.270021,10
126.653377,33.270436,10
126.653409,33.270985,10
126.65338,33.271045,10
126.652989,33.270859,10
126.652635,33.27085,10
126.652293,33.270777,10
126.651988,33.27069,10
126.65216,33.269812,10
126.652237,33.269625,10
126.652073,33.269533,10
126.651722,33.269338,10
126.651481,33.268728,10
126.651215,33.268333,10
126.650863,33.268197,10
126.650616,33.268127,10
126.650559,33.26813,10
126.650421,33.268061,10
126.65032,33.268074,10
126.650127,33.268145,10
126.649791,33.268459,10
126.649348,33.268707,10
126.648979,33.268819,10
126.648773,33.268679,10
126.647946,33.268633,10
126.647827,33.268604,10
126.647335,33.268302,10
126.647112,33.268061,10
126.646889,33.267936,10
126.646272,33.26777,10
126.646006,33.267727,10
126.645857,33.267681,10
126.645309,33.267433,10
126.644782,33.267319,10
126.644308,33.267101,10
126.643934,33.267027,10
126.643784,33.26691,10
126.643554,33.266623,10
126.643254,33.26654,10
126.642964,33.266339,10
126.64272,33.266209,10
126.642395,33.266138,10
126.641975,33.265968,10
126.641783,33.265782,10
126.641414,33.265334,10
126.641121,33.265039,10
126.640999,33.264818,10
126.64082,33.264821,10
126.640779,33.264722,10
126.640547,33.264611,10
126.640374,33.264415,10
126.64026,33.264331,10
126.639927,33.26415,10
126.639375,33.263789,10
126.638768,33.263424,10
126.638676,33.263294,10
126.638837,33.263096,10
126.639114,33.262754,10
126.63956,33.262391,10
126.640318,33.261952,10
126.640564,33.261551,10
126.640474,33.26134,10
126.64013,33.261383,10
126.639819,33.261243,10
126.639683,33.261031,10
126.639625,33.260896,10
126.63967,33.260804,10
126.639632,33.26062,10
126.639476,33.260474,10
126.639221,33.26032,10
126.638867,33.2601,10
126.638881,33.260089,10
126.639319,33.259765,10
126.639314,33.258876,10
126.639501,33.258059,10
126.639076,33.257779,10
126.638732,33.257655,10
126.637545,33.257366,10
126.637341,33.257397,10
126.637074,33.257427,10
126.636914,33.257427,10
126.636688,33.257462,10
126.636448,33.257448,10
126.635983,33.257319,10
126.635791,33.257217,10
126.635499,33.25708,10
126.635304,33.256997,10
126.635151,33.256907,10
126.634946,33.256821,10
126.63464,33.256741,10.24386
126.634523,33.257022,13.03746
126.633735,33.25716,23.41209
126.633412,33.257338,28.19991
126.633217,33.257466,30.84771
126.632791,33.257893,35.70507
126.632578,33.258055,37.59283
126.632395,33.258168,38.95759
126.63223,33.258222,40.30358
126.632041,33.258275,41.72147
126.631865,33.258331,42.79071
126.631271,33.258499,45.0335
126.630779,33.258587,45.95761
126.629929,33.258888,40.69399
126.629431,33.258896,37.78783
126.629138,33.258743,36.99766
126.629012,33.258768,35.92289
126.628667,33.258941,32.1619
126.628173,33.259189,30
126.625985,33.258444,30
126.62475,33.258403,20
126.623523,33.258363,20
126.623369,33.257301,20
126.623015,33.256597,20
126.622787,33.256099,20
126.622643,33.255232,20
126.62258,33.253829,10
126.622686,33.253098,10
126.623031,33.252387,10
126.623282,33.252331,10
126.623505,33.252123,0
126.623274,33.251904,0
126.622998,33.251705,0
</coordinates>
    </LineString>
  </MultiGeometry>
</Placemark></Folder>
  </Document>
</kml>