<?xml version="1.0" encoding="utf-8"?>
<kml xmlns:gx="http://www.google.com/kml/ext/2.2" xmlns="http://www.opengis.net/kml/2.2">
  <Document>
    <Style id="base_track_style">
      <LineStyle>
        <color>7f00ffff</color>
        <width>4</width>
      </LineStyle>
    </Style>
    <Folder><Placemark>
  <styleUrl>#base_track_style</styleUrl>
  <name>route</name>
  <MultiGeometry>
    <LineString>
      <coordinates>126.895914,33.477192,10
126.895741,33.477106,10
126.895659,33.477085,10
126.895569,33.477079,10
126.895454,33.477098,10
126.895352,33.477166,10
126.895221,33.477312,10
126.895127,33.477346,10
126.89499,33.477349,10
126.894495,33.477169,10
126.894322,33.477007,10
126.893234,33.476596,10
126.892605,33.476402,10
126.891909,33.476157,10
126.891748,33.476078,10
126.891508,33.475909,10
126.891292,33.475799,10
126.890834,33.475697,20
126.890673,33.475639,20
126.890498,33.475529,20
126.89031,33.475446,20
126.889626,33.475287,23.98241
126.889566,33.475252,24.36147
126.889545,33.475215,24.47893
126.889388,33.47509,25.29912
126.889009,33.475062,30
126.888561,33.474989,30
126.888374,33.474988,30.58474
126.888154,33.47496,32.31116
126.887535,33.474833,35.93502
126.887426,33.474779,36.33719
126.886729,33.474565,40.64584
126.886532,33.474585,41.73581
126.88639,33.474567,43.18209
126.886064,33.474471,45.73166
126.88574,33.474297,47.47777
126.885527,33.474209,50
126.885156,33.474025,50
126.885073,33.474008,50
126.884431,33.474564,60
126.884293,33.474809,61.52848
126.884255,33.475615,77.63669
126.884178,33.475704,80.01989
126.883939,33.475817,82.68316
126.884195,33.475985,88.37971
126.883931,33.476178,87.9204
126.884161,33.476319,94.73133
126.884794,33.476405,95.02348
126.885402,33.47663,94.61967
126.885505,33.476647,94.85291
126.885933,33.476786,96.76849
126.886107,33.476862,97.93932
126.886808,33.477249,97.55546
126.887243,33.477483,97.34071
126.887387,33.477637,97.31112
126.887572,33.477891,97.79077
126.887769,33.478063,99.57447
126.887851,33.478177,97.5918
126.887937,33.478436,94.83334
126.888137,33.478729,88.00398
126.888166,33.47898,88.60637
126.888042,33.479062,87.5496
126.88798,33.479069,87.2243
126.887913,33.479044,86.94976
126.887381,33.47841,100
126.887207,33.478146,100
126.886958,33.477964,100
126.886873,33.47806,100
126.886792,33.478287,100
126.886766,33.47846,100
126.886798,33.478551,100
126.886781,33.478616,100
126.886613,33.478616,100
126.886517,33.478696,100
126.886155,33.478484,100
126.885993,33.478443,100
126.885772,33.47841,100
126.884315,33.478284,100
126.884006,33.478277,100
126.883841,33.478328,100
126.883847,33.47834,100
126.883739,33.478349,100
126.882893,33.478665,90
126.882573,33.478723,90
126.882363,33.478784,90
126.881806,33.479242,90
126.881362,33.47958,90
126.881926,33.480069,90
126.882115,33.480274,90
126.882476,33.480281,91.29861
126.882623,33.480298,92.79757
126.882821,33.480392,94.87227
126.883005,33.48042,96.71317
126.883224,33.480489,98.86585
126.883362,33.480594,100
126.883712,33.48075,103.6752
126.883839,33.480868,104.8733
126.88394,33.48093,105.9234
126.884386,33.480891,111.2967
126.884755,33.480858,115.1824
126.884971,33.480813,117.3051
126.885135,33.480735,118.4104
126.885234,33.480793,120
126.885286,33.48086,120
126.88541,33.481096,120
126.885335,33.4813,119.8019
126.884826,33.481762,110.9175
126.884541,33.482085,105.0033
126.884421,33.482333,101.6577
126.884176,33.482598,100
126.884063,33.482819,96.3801
126.884065,33.48294,95.84058
126.883847,33.482959,94.47448
126.8835,33.482914,90
126.883439,33.482944,90
126.883327,33.483019,90
126.883244,33.483184,90
126.883163,33.483235,90
126.883013,33.483402,87.2688
126.88292,33.48346,86.32307
126.882872,33.483481,85.87725
126.882419,33.483551,80
126.882344,33.483804,79.48506
126.882248,33.483944,78.20833
126.882177,33.483982,77.19975
126.882083,33.484004,76.19898
126.881858,33.483985,74.69417
126.881345,33.483777,73.81155
126.881125,33.483735,73.07265
126.880341,33.483449,71.29679
126.879894,33.483376,67.70927
126.879657,33.483245,66.41132
126.879518,33.483252,64.7943
126.879453,33.483387,62.70793
126.879403,33.483544,60.50523
126.879425,33.483633,60.22216
126.879509,33.483712,60.18118
126.879586,33.483756,60.12584
126.879789,33.483812,61.60235
126.880003,33.483849,63.25124
126.880116,33.483912,63.4256
126.880151,33.48395,63.18501
126.880265,33.484194,60.39516
126.880531,33.484404,60.98921
126.880771,33.484643,62.11398
126.880816,33.484723,60
126.880834,33.484825,60
126.880917,33.484948,60
126.881033,33.484996,56.55265
126.881168,33.485089,56.21537
126.881226,33.485112,56.22445
126.881478,33.48512,57.18399
126.881552,33.485138,57.36392
126.881671,33.485188,57.431
126.881732,33.485246,57.188
126.881803,33.485444,55.73365
126.881891,33.485587,54.93208
126.8819,33.485852,50
126.88192,33.485999,50
126.881953,33.486091,50
126.882095,33.486268,50
126.882134,33.486409,50
126.882137,33.48657,50
126.882242,33.48665,50
126.882285,33.486703,50
126.882316,33.486777,50
126.882315,33.486832,50
126.882196,33.487027,50
126.882116,33.487243,50
126.881976,33.487485,50
126.881904,33.487547,50
126.881703,33.487669,50
126.881649,33.487723,50
126.881604,33.487797,50
126.881597,33.487944,50
126.881854,33.487938,50
126.881965,33.487905,50
126.882088,33.487829,50
126.882159,33.487758,50
126.882283,33.487702,50
126.882693,33.48782,50
126.882761,33.487821,50
126.883002,33.487739,50
126.883071,33.487696,50
126.883124,33.487612,50
126.883098,33.4874,50
126.883112,33.487336,50
126.883156,33.487283,50
126.883344,33.487191,50
126.88346,33.487169,50
126.883842,33.48718,50
126.88415,33.487153,50
126.884388,33.487116,50
126.884657,33.48703,50
126.88472,33.487037,50
126.884896,33.487153,50
126.885194,33.487486,50
126.885491,33.487689,40
126.88572,33.487911,40
126.885811,33.487937,40
126.885963,33.487933,40
126.886224,33.488034,40
126.886424,33.488084,40
126.88647,33.488113,40
126.886518,33.488163,40
126.886549,33.488248,40
126.886542,33.488293,40
126.886564,33.488383,40
126.886554,33.488485,40
126.886578,33.488609,40
126.886653,33.488711,40
126.886753,33.488784,40
126.886831,33.488815,40
126.886935,33.488826,40
126.887102,33.488811,40
126.887223,33.488759,40
126.887346,33.488735,40
126.887453,33.488806,40
126.887549,33.48898,30
126.887714,33.489156,30
126.887916,33.4895,30
126.888012,33.489606,30
126.888172,33.489742,30
126.888255,33.489948,30
126.888286,33.490181,30
126.888292,33.490492,30
126.888939,33.490617,20
126.8892,33.490691,20
126.889588,33.490842,20
126.88998,33.49106,20
126.8908,33.491236,20
126.891458,33.4914,20
126.89216,33.491542,20
126.892606,33.491725,20
126.892764,33.491731,20
126.893157,33.49169,20
126.89333,33.491721,20
126.893657,33.491864,20
126.894465,33.492259,10
126.895051,33.492408,10
126.895897,33.492689,10
126.896387,33.492715,10
126.896892,33.492983,10
126.897663,33.49284,10
126.89835,33.493183,10
126.898728,33.493113,10
126.898964,33.493343,10
126.899985,33.493029,10
126.900029,33.492607,10
126.90032,33.492602,10
126.901825,33.491561,10
126.902137,33.491375,10
126.903192,33.491043,10
126.903768,33.490978,10
126.904312,33.490782,10
126.90482,33.490333,10
126.904805,33.490264,10
126.905223,33.489606,10
126.905334,33.489431,10
126.90532,33.489366,10
126.905066,33.489133,10
126.905028,33.489031,10
126.905072,33.488864,10
126.904146,33.488427,10
126.903627,33.488006,10
126.903179,33.487487,10
126.903045,33.4873,10
126.902892,33.487045,10
126.902352,33.486235,10
126.902156,33.48589,10
126.902127,33.485738,10
126.901849,33.484485,10
126.901768,33.483934,10
126.901715,33.482297,10
126.901749,33.482026,10
126.901849,33.481716,10
126.902059,33.481424,10
126.903284,33.479936,10
126.903753,33.479451,10
126.903977,33.479291,10
126.904181,33.479179,10
126.904552,33.479035,10
126.908013,33.478287,10
126.908335,33.478206,10
126.908321,33.478175,10
126.908335,33.478206,10
126.90843,33.478178,10
126.909254,33.477851,10
126.909452,33.47775,10
126.909629,33.477628,10
126.909817,33.477438,10
126.90995,33.477223,10
126.910004,33.477097,10
126.910191,33.476109,10
126.910233,33.475965,10
126.91032,33.475759,10
126.910554,33.475375,10
126.911037,33.474837,10
126.911164,33.474652,10
126.911207,33.47457,10
126.911285,33.474301,10
126.911437,33.473684,10
126.911489,33.473549,10
126.911582,33.473384,10
126.911649,33.473287,10
126.912189,33.472662,10
126.912375,33.472479,10
126.912577,33.472336,10
126.912927,33.472171,10
126.9135,33.472026,10
126.913905,33.471954,10
126.914111,33.471941,10
126.915782,33.471993,10
126.916103,33.471986,10
126.916367,33.471925,10
126.916535,33.471846,10
126.916615,33.471791,10
126.916802,33.471623,10
126.91706,33.471236,10
126.917187,33.471109,10
126.918067,33.470599,10
126.918646,33.470202,10
126.92004,33.469452,10
126.920612,33.469178,10
126.920644,33.469205,10
126.920612,33.469178,10
126.920752,33.469296,10
126.920894,33.469363,10
126.921216,33.469503,10
126.921368,33.469587,10
126.921483,33.4697,10
126.921615,33.469866,10
126.921722,33.470044,10
126.921822,33.470183,10
126.9219,33.470259,10
126.922007,33.470334,10
126.922106,33.470379,10
126.922194,33.470399,10
126.922465,33.470315,10
126.922576,33.47011,10
126.92254,33.469994,10
126.922541,33.469862,10
126.923028,33.469195,10
126.923227,33.468886,10
126.923233,33.468767,10
126.924203,33.468783,10
126.925589,33.468765,10
126.927824,33.468737,10
126.928729,33.468604,10
126.929235,33.469241,10
126.929373,33.46934,10
126.929514,33.469491,10
126.92969,33.469815,10
126.930581,33.47104,10
126.930716,33.471203,10
126.931187,33.471152,10
126.931422,33.471169,10
126.931659,33.471248,10
126.931797,33.471332,10
126.931889,33.471418,10
126.932382,33.47158,10
126.93327,33.471791,10
126.933284,33.471783,10
126.933434,33.471692,10
126.934094,33.47114,10
126.934345,33.470891,10
126.934429,33.470554,10
126.934595,33.470285,14.37974
126.934573,33.470154,15.19108
126.934801,33.46963,16.00177
126.935035,33.469336,13.88626
126.935185,33.469243,13.0375
126.935349,33.469198,10
126.935577,33.469161,10
126.935859,33.469075,10
126.935897,33.46898,10
126.935881,33.468869,10
126.935923,33.468664,10
126.93592,33.468607,10
126.935899,33.468153,10
126.93604,33.467555,10
126.93604,33.467296,10
126.935947,33.466967,10
126.93596,33.466633,10
126.935964,33.466536,10
126.936034,33.466144,10
126.936142,33.465786,10
126.936124,33.465445,10
126.93607,33.465309,10
126.936061,33.465231,10
126.935972,33.46495,10
126.935968,33.464746,10
126.935964,33.464507,10
126.936074,33.464477,10
126.93609,33.464473,10
126.936099,33.464435,10
126.93611,33.464358,10
126.936133,33.464139,10
126.936233,33.463954,10
126.936327,33.46376,12.13172
126.936139,33.463683,10
126.935983,33.463496,10
126.93593,33.463237,10
126.935964,33.46317,10
126.936136,33.463059,15.57895
126.936365,33.462948,16.83168
126.936412,33.462891,17.42595
126.936278,33.462474,20
126.936099,33.462503,20
126.935897,33.46179,17.1267
126.935741,33.461511,15.41587
126.935623,33.461338,13.95599
126.935397,33.461404,12.01078
126.935022,33.461517,10
126.934088,33.461793,10
126.933967,33.4615,10
126.933914,33.461317,0
126.933998,33.460854,0
126.933624,33.460821,10
126.933318,33.460725,10
126.932706,33.460534,10
126.931452,33.460012,10
126.930277,33.459317,10
126.929933,33.459181,10
126.929607,33.458909,10
126.929521,33.458837,10
126.928903,33.457892,10
126.92856,33.457169,10
126.927925,33.456481,10
126.927513,33.456088,10
126.927058,33.455694,10
126.926414,33.454813,10
126.92535,33.453817,10
126.92487,33.453179,10
126.924601,33.452708,10
126.924323,33.451761,10
126.924129,33.451815,10
</coordinates>
    </LineString>
  </MultiGeometry>
</Placemark></Folder>
  </Document>
</kml>