<?xml version="1.0" encoding="utf-8"?>
<kml xmlns:gx="http://www.google.com/kml/ext/2.2" xmlns="http://www.opengis.net/kml/2.2">
  <Document>
    <Style id="base_track_style">
      <LineStyle>
        <color>7f00ffff</color>
        <width>4</width>
      </LineStyle>
    </Style>
    <Folder><Placemark>
  <styleUrl>#base_track_style</styleUrl>
  <name>route</name>
  <MultiGeometry>
    <LineString>
      <coordinates>126.744939,33.55746,0
126.745127,33.557564,0
126.745547,33.557667,0
126.745607,33.557683,0
126.745616,33.557721,0
126.745644,33.557763,0
126.745817,33.557848,0
126.745844,33.557891,0
126.746,33.557999,0
126.746352,33.558063,0
126.746535,33.558065,0
126.746823,33.558062,0
126.746887,33.558032,0
126.747007,33.557976,0
126.747129,33.557701,0
126.747205,33.557618,0
126.747294,33.55757,0
126.747456,33.557529,0
126.747711,33.5575,0
126.747802,33.557388,0
126.748003,33.557463,0
126.748052,33.557596,0
126.748147,33.557738,0
126.748269,33.557846,0
126.748366,33.557895,0
126.748534,33.5579,0
126.748624,33.557963,0
126.7487,33.558008,0
126.748985,33.557898,0
126.749102,33.557837,0
126.749202,33.557715,0
126.749365,33.55776,0
126.749555,33.557684,0
126.749706,33.557749,0
126.749853,33.557768,0
126.74995,33.557806,0
126.750096,33.55779,0
126.750194,33.557796,0
126.750285,33.55801,0
126.750346,33.55806,0
126.750407,33.558082,0
126.750476,33.558083,0
126.750594,33.558043,0
126.750851,33.55793,0
126.751019,33.55784,0
126.75117,33.557728,0
126.75122,33.557747,0
126.751388,33.557875,0
126.75151,33.557869,0
126.75174,33.557864,0
126.75192,33.557832,0
126.75228,33.557629,0
126.752554,33.557394,0
126.752683,33.557476,0
126.752822,33.557699,0
126.753279,33.557903,0
126.753457,33.558037,0
126.753599,33.55819,0
126.753658,33.558308,0
126.753673,33.558444,0
126.753644,33.558716,0
126.753675,33.55885,0
126.753731,33.558928,0
126.753805,33.55897,0
126.753868,33.55898,0
126.75403,33.558916,0
126.754081,33.55889,0
126.754239,33.558881,0
126.754445,33.558504,0
126.754454,33.558487,0
126.754668,33.558493,0
126.754808,33.558454,0
126.75485,33.558363,0
126.755076,33.55829,0
126.755239,33.558134,0
126.755311,33.558036,0
126.755438,33.557779,0
126.755443,33.557769,0
126.755583,33.557787,0
126.756135,33.557757,0
126.756815,33.557686,0
126.757713,33.557563,0
126.758081,33.557365,0
126.758254,33.557211,0
126.75866,33.556763,0
126.758733,33.556702,0
126.759265,33.557015,0
126.759341,33.557036,0
126.759384,33.557128,0
126.759587,33.557243,0
126.759917,33.557459,0
126.760403,33.557981,0
126.760522,33.558055,0
126.760798,33.55814,0
126.761149,33.558142,0
126.761416,33.55828,0
126.761918,33.558405,0
126.762002,33.558456,0
126.762126,33.558603,0
126.762245,33.55878,0
126.762453,33.558971,0
126.762619,33.559207,0
126.76264,33.559312,0
126.762639,33.559437,0
126.762576,33.559817,0
126.76251,33.56,0
126.762467,33.560195,0
126.76248,33.560308,0
126.762452,33.56048,0
126.762517,33.560872,0
126.762579,33.560906,0
126.76263,33.560965,0
126.762614,33.561037,0
126.76264,33.561179,0
126.762619,33.561227,0
126.762503,33.561328,0
126.762328,33.561382,0
126.762219,33.561482,0
126.761983,33.561495,0
126.761858,33.561542,0
126.761795,33.561589,0
126.761643,33.561784,0
126.761519,33.56219,0
126.761729,33.562289,0
126.761943,33.562298,0
126.762228,33.562245,0
126.762343,33.562257,0
126.762576,33.56228,0
126.763038,33.562459,0
126.763343,33.562522,0
126.763898,33.562753,0
126.764013,33.562748,0
126.76425,33.563008,0
126.763794,33.563125,0
126.763558,33.563246,0
126.763408,33.56359,0
126.763596,33.563693,0
126.763617,33.56401,0
126.763488,33.56418,0
126.763574,33.564399,0
126.763526,33.564596,0
126.763681,33.564895,0
126.763869,33.565016,0
126.764633,33.565172,0
126.765055,33.565284,0
126.765226,33.565405,0
126.765399,33.565316,0
126.76547,33.565246,0
126.765496,33.565186,0
126.765913,33.565141,0
126.766095,33.564998,0
126.766181,33.564784,0
126.766385,33.564699,0
126.766455,33.564498,0
126.766476,33.564323,0
126.766707,33.564203,0
126.766868,33.564149,0
126.767131,33.56398,0
126.76857,33.563828,0
126.768869,33.563816,0
126.769052,33.563826,0
126.770223,33.56398,0
126.77051,33.564042,0
126.770693,33.564114,0
126.770855,33.564217,0
126.771203,33.564497,0
126.771642,33.564733,0
126.771885,33.564795,0
126.77219,33.564821,0
126.772321,33.564821,0
126.772699,33.56477,0
126.772939,33.56472,0
126.77648,33.563923,0
126.776995,33.563879,0
126.777601,33.563871,0
126.777868,33.563844,0
126.778313,33.563709,0
126.779747,33.563064,0
126.780003,33.562989,0
126.780267,33.562969,0
126.780286,33.562937,0
126.780441,33.562956,0
126.780641,33.563012,0
126.780786,33.563075,0
126.78098,33.563199,0
126.781067,33.563143,0
126.781372,33.563088,0
126.78151,33.563017,0
126.781811,33.562682,0
126.781988,33.562387,0
126.782133,33.562257,0
126.782915,33.561999,0
126.783298,33.56193,0
126.783419,33.561945,0
126.783535,33.561812,0
126.783833,33.561626,0
126.78398,33.561546,0
126.783976,33.561416,0
126.783924,33.561359,0
126.783959,33.561322,0
126.784253,33.561103,0
126.784421,33.561022,0
126.784508,33.561025,0
126.784756,33.561306,0
126.784848,33.561367,0
126.785089,33.561258,0
126.785053,33.561468,0
126.785295,33.561504,0
126.785596,33.561597,0
126.785724,33.561615,0
126.786342,33.561627,0
126.786542,33.561597,0
126.786638,33.56157,0
126.786814,33.561483,0
126.787099,33.561239,0
126.787282,33.561138,0
126.787481,33.561069,0
126.788214,33.560894,0
126.788347,33.56084,0
126.788726,33.560619,0
126.788867,33.560563,0
126.789454,33.560409,0
126.78972,33.560318,0
126.789939,33.560211,0
126.790226,33.56002,0
126.790559,33.559824,0
126.791013,33.559632,0
126.791196,33.559582,0
126.791459,33.559554,0
126.791824,33.559574,0
126.792639,33.559654,0
126.792747,33.55965,0
126.793016,33.559613,0
126.793142,33.559579,0
126.793457,33.559454,0
126.793655,33.559339,0
126.794398,33.558653,0
126.794735,33.55838,0
126.794841,33.55826,0
126.794902,33.558103,0
126.794912,33.557958,0
126.794882,33.557851,0
126.794837,33.557776,0
126.794749,33.557711,0
126.794653,33.557265,0
126.79465,33.557016,0
126.794752,33.55677,0
126.794813,33.556652,0
126.794888,33.556581,0
126.794915,33.556598,0
126.795003,33.556508,0
126.79523,33.556341,0
126.795802,33.555954,0
126.796135,33.555746,0
126.796301,33.555666,0
126.797544,33.555162,0
126.797894,33.555051,0
126.798114,33.555011,0
126.798344,33.55499,0
126.798854,33.554996,0
126.79921,33.555032,0
126.799224,33.554979,0
126.799355,33.555007,0
126.799735,33.55512,0
126.80001,33.555247,0
126.800284,33.555406,0
126.800526,33.55563,0
126.800649,33.555774,0
126.800868,33.556125,0
126.801212,33.556831,0
126.801465,33.557283,0
126.801644,33.557477,0
126.801973,33.55767,0
126.802276,33.557765,0
126.802582,33.557796,0
126.802862,33.557763,0
126.803108,33.557683,0
126.803577,33.557413,0
126.804595,33.556742,0
126.804838,33.556613,0
126.805006,33.556558,0
126.805201,33.556526,0
126.805336,33.556524,0
126.80602,33.556628,0
126.806362,33.556591,0
126.807156,33.556458,0
126.807755,33.556375,0
126.807712,33.557224,0
126.807871,33.557327,0
126.808001,33.557409,0
126.808174,33.55734,0
126.808314,33.557308,0
126.808398,33.557432,0
126.808626,33.557425,0
126.808732,33.557452,0
126.809365,33.5573,0
126.809431,33.557181,0
126.809406,33.557024,0
126.809707,33.55665,0
126.8098,33.556469,0
126.809983,33.556188,0
126.810197,33.556032,0
126.810081,33.555885,0
126.809829,33.555534,0
126.809755,33.555393,0
126.809715,33.555228,0
126.809369,33.554944,0
126.80936,33.554904,0
126.809495,33.554793,0
126.80955,33.554689,0
126.809769,33.5546,0
126.809888,33.554475,0
126.810019,33.554423,0
126.810554,33.554348,0
126.811099,33.554356,0
126.811365,33.554233,0
126.811338,33.554189,0
126.811287,33.554006,0
126.811118,33.553881,0
126.811029,33.553733,0
126.81108,33.553528,0
126.811233,33.553128,0
126.811252,33.552971,10
126.811428,33.552814,10
126.811477,33.552717,10
126.811484,33.552518,10
126.811501,33.552489,10
126.811671,33.552414,10
126.811927,33.552347,10
126.811998,33.552308,10
126.812029,33.552263,10
126.812042,33.552155,10
126.812187,33.552199,10
126.812252,33.552186,10
126.8124,33.552121,10
126.812501,33.551991,10
126.812579,33.551947,10
126.812653,33.551934,10
126.813018,33.552061,10
126.813518,33.552169,10
126.813665,33.552196,10
126.813715,33.55212,10
126.813802,33.552038,10
126.814088,33.551807,10
126.814298,33.551531,10
126.814362,33.551492,10
126.814457,33.551462,10
126.814548,33.551496,10
126.814608,33.551501,10
126.814709,33.551503,10
126.814782,33.55148,10
126.814892,33.551472,10
126.81506,33.551519,10
126.815274,33.551487,10
126.815599,33.551356,10
126.81589,33.551317,10
126.815974,33.551332,10
126.816157,33.551408,10
126.816266,33.551404,10
126.816649,33.55121,10
126.817035,33.551201,10
126.817083,33.551186,10
126.817212,33.551097,10
126.817602,33.551392,10
126.81783,33.55157,0
126.817937,33.551689,0
126.818206,33.551462,0
126.818313,33.55133,0
126.818469,33.551201,0
126.818594,33.550944,0
126.818657,33.550762,0
126.818727,33.550641,20
126.818931,33.550392,20
126.819073,33.550267,20
126.819128,33.550165,20
126.819148,33.550041,20
126.819106,33.549825,20
126.819143,33.549559,20
126.819198,33.549477,20
126.819303,33.549397,20
126.819432,33.549202,20
126.819472,33.549104,20
126.81946,33.548936,20
126.819504,33.548872,20
126.819629,33.548808,20
126.819911,33.548712,20
126.820095,33.548618,20
126.820184,33.548652,20
126.820382,33.548686,20
126.820544,33.548694,20
126.820623,33.548683,20
126.820654,33.548736,20
126.820727,33.548768,20
126.821023,33.548725,20
126.821377,33.548664,0
126.821695,33.548736,0
126.821987,33.548901,0
126.822101,33.548988,0
126.822159,33.54906,0
126.82256,33.549011,0
126.822779,33.549047,0
126.823105,33.549188,0
126.823303,33.549191,0
126.823513,33.549165,10
126.823707,33.549141,10
126.823869,33.549233,10
126.823958,33.549415,10
126.824638,33.549693,10
126.824709,33.549563,10
126.824894,33.549583,10
126.825008,33.549693,10
126.825083,33.549785,10
126.825102,33.549843,10
126.825064,33.54992,10
126.825054,33.549982,10
126.825104,33.550057,10
126.825312,33.549939,10
126.825391,33.54981,10
126.825414,33.549717,10
126.825392,33.549671,10
126.825292,33.549492,10
126.82512,33.549304,10
126.824872,33.549122,10
126.824877,33.549078,10
126.82479,33.548866,10
126.824655,33.548787,10
126.824593,33.548673,10
126.824432,33.548572,10
126.824391,33.548502,10
126.824387,33.548467,10
126.824436,33.548339,10
126.824425,33.548259,10
126.824323,33.548159,10
126.824291,33.548107,10
126.824297,33.548015,10
126.824219,33.547929,10
126.82414,33.5478,10
126.824117,33.547653,10
126.824122,33.547573,10
126.824256,33.547324,10
126.824251,33.547264,10
126.824133,33.547049,10
126.824082,33.546765,10
126.823986,33.546557,10
126.824,33.546506,10
126.824287,33.54626,10
126.824342,33.546182,10
126.824346,33.546142,10
126.824325,33.546074,10
126.82409,33.545667,10
126.824026,33.545485,10
126.82412,33.545291,10
126.824293,33.54509,10
126.824449,33.545013,10
126.824601,33.545066,10
126.824752,33.5453,10
126.825032,33.545554,10
126.825094,33.545608,10
126.825245,33.54567,10
126.82527,33.545726,10
126.82551,33.545857,10
126.82563,33.545896,10
126.825852,33.545935,10
126.82592,33.545911,10
126.826101,33.545762,10
126.826239,33.545595,10
126.826508,33.545539,10
126.826607,33.545464,10
126.826674,33.545382,10
126.826638,33.545197,10
126.826961,33.54491,10
126.82722,33.544804,10
126.827329,33.544694,10
126.827498,33.544612,0
126.827401,33.544336,10
126.827341,33.544077,10
126.827326,33.543868,10
126.827361,33.543409,10
126.827401,33.54332,10
126.82757,33.543133,10
126.827688,33.542972,10
126.827904,33.542585,10
126.82797,33.542427,0
126.827982,33.542348,0
126.827936,33.542128,0
126.827987,33.541783,0
126.827995,33.541507,0
126.828041,33.541358,0
126.828142,33.541254,0
126.828211,33.541109,0
126.828508,33.54121,0
126.82864,33.54128,0
126.829035,33.541034,0
126.829246,33.540882,0
126.829368,33.540706,0
126.829376,33.540599,0
126.829415,33.540536,0
126.829524,33.540424,0
126.829648,33.540298,0
126.829816,33.540437,0
126.830024,33.540655,0
126.830264,33.540593,0
126.830566,33.540596,0
126.83061,33.540623,0
126.830785,33.540546,0
126.830915,33.540528,0
126.831031,33.540349,0
126.831133,33.540282,0
126.831223,33.540247,0
126.831331,33.54023,0
126.831429,33.540222,0
126.83144,33.539989,0
126.831547,33.539868,0
126.831862,33.539692,0
126.832443,33.539313,0
126.832847,33.539103,0
126.83294,33.539049,0
126.833058,33.539188,0
126.833059,33.539219,0
126.832936,33.539359,0
126.832906,33.539415,0
126.832904,33.539445,0
126.832921,33.539463,0
126.833137,33.539705,0
126.833213,33.539667,0
126.833354,33.539766,0
126.833662,33.53973,0
126.833703,33.539765,0
126.83389,33.539657,0
126.834857,33.539112,0
126.835253,33.538734,0
126.835455,33.538445,0
126.835579,33.538109,0
126.835653,33.537832,0
126.835706,33.53715,0
126.835667,33.536678,0
126.835674,33.536369,0
126.835713,33.536091,0
126.835795,33.535706,0
126.83596,33.535888,0
126.83666,33.535476,0
126.836803,33.535392,0
126.836867,33.535298,0
126.837163,33.535027,0
126.837223,33.534942,0
126.837346,33.534874,0
126.837367,33.534788,0
126.837553,33.535105,0
126.837678,33.534995,0
126.837995,33.534803,0
126.838088,33.534773,0
126.83819,33.534796,0
126.838367,33.534897,0
126.838478,33.534807,0
126.838507,33.53475,0
126.838581,33.534697,0
126.838858,33.534681,0
126.838952,33.534656,0
126.839223,33.534539,0
126.839313,33.534482,0
126.839433,33.534359,0
126.839527,33.53418,0
126.839806,33.53397,0
126.840117,33.534063,0
126.840186,33.533765,0
126.840246,33.533549,0
126.840311,33.533434,0
126.840419,33.533296,0
126.840507,33.533225,0
126.840731,33.532571,10
126.841298,33.531865,10
126.841446,33.531659,10
126.841551,33.531585,10
126.841445,33.531471,10
126.841163,33.531083,10
126.840852,33.530738,10
126.841129,33.530545,10
126.841325,33.530729,10
126.841367,33.530737,10
126.841547,33.530638,10
126.841788,33.530399,10
126.842214,33.530266,10
126.842269,33.530231,10
126.842308,33.530139,10
126.842448,33.530176,10
126.842508,33.530177,10
126.842669,33.53005,10
126.842963,33.529857,10
126.843373,33.52953,10
126.843534,33.529806,10
126.844024,33.529571,10
126.844194,33.529543,10
126.844476,33.529605,10
126.845116,33.529816,10
126.845459,33.529945,10
126.845893,33.530137,10
126.846091,33.530014,10
126.846325,33.529821,10
126.846602,33.529641,10
126.846796,33.529588,10
126.846938,33.529496,10
126.847108,33.529462,10
126.847284,33.529467,10
126.847336,33.529445,10
126.847387,33.529375,10
126.847562,33.529403,10
126.847681,33.529511,10
126.847907,33.529671,10
126.847826,33.529901,10
126.848162,33.529578,10
126.84826,33.529512,10
126.848364,33.529479,10
126.848489,33.529415,10
126.84873,33.529252,10
126.848801,33.529189,10
126.84887,33.529072,10
126.848978,33.528989,10
126.849337,33.52881,10
126.849483,33.528674,10
126.849677,33.528524,10
126.849792,33.52839,10
126.84986,33.528247,10
126.849902,33.528195,10
126.850255,33.527972,10
126.850402,33.527846,10
126.850669,33.527689,10
126.850801,33.52775,10
126.850982,33.527833,0
126.851146,33.527666,0
126.851262,33.527519,0
126.851354,33.527367,0
126.851377,33.527275,0
126.851375,33.527055,10
126.851459,33.526923,10
126.851691,33.526947,10
126.85183,33.52692,10
126.852222,33.526731,10
126.852238,33.526664,10
126.852252,33.526531,0
126.852315,33.526456,0
126.8526,33.526202,0
126.852683,33.526106,0
126.852836,33.526555,0
126.852893,33.526673,0
126.853084,33.526591,0
126.85322,33.526681,0
126.853312,33.526743,0
126.853466,33.526721,0
126.853699,33.526818,0
126.853841,33.526792,0
126.853916,33.526835,0
126.854062,33.527018,0
126.854204,33.527147,0
126.854443,33.527039,0
126.854648,33.527363,0
126.856088,33.526726,0
126.856409,33.52657,0
126.856431,33.526615,0
126.856634,33.526558,0
126.858085,33.526149,0
126.858161,33.526106,0
126.858183,33.526072,0
126.858187,33.526013,0
126.857991,33.525503,0
126.857983,33.525321,0
126.858013,33.525242,0
126.858098,33.525123,0
126.858188,33.525054,0
126.8583,33.525007,0
126.858375,33.524983,0
126.858772,33.524922,0
126.85949,33.524853,0
126.859944,33.52476,0
126.860898,33.524622,0
126.861165,33.524622,0
126.861433,33.524676,0
126.861708,33.524695,0
126.861935,33.524654,0
126.862064,33.524609,0
126.862046,33.524568,0
126.862124,33.524544,0
126.862138,33.524423,0
126.862251,33.523988,0
126.862527,33.523212,0
126.862681,33.523249,0
126.862759,33.523019,0
</coordinates>
    </LineString>
  </MultiGeometry>
</Placemark></Folder>
  </Document>
</kml>