<?xml version="1.0" encoding="utf-8"?>
<gpx version="1.1" creator="Movescount - http://www.movescount.com" xmlns:xsi="http://www.w3.org/2001/XMLSchema-instance" xsi:schemaLocation="http://www.topografix.com/GPX/1/1 http://www.topografix.com/GPX/1/1/gpx.xsd http://www.cluetrust.com/XML/GPXDATA/1/0 http://www.cluetrust.com/Schemas/gpxdata10.xsd http://www.garmin.com/xmlschemas/TrackPointExtension/v1 http://www.garmin.com/xmlschemas/TrackPointExtensionv1.xsd" xmlns:gpxdata="http://www.cluetrust.com/XML/GPXDATA/1/0" xmlns:gpxtpx="http://www.garmin.com/xmlschemas/TrackPointExtension/v1" xmlns="http://www.topografix.com/GPX/1/1">
   <rte>
      <name>ollegil 9</name>
      <rtept lat="33.237293" lon="126.361622" />
      <rtept lat="33.237166" lon="126.36152" />
      <rtept lat="33.236877" lon="126.36119" />
      <rtept lat="33.236776" lon="126.360975" />
      <rtept lat="33.236803" lon="126.360844" />
      <rtept lat="33.236913" lon="126.360814" />
      <rtept lat="33.237012" lon="126.360495" />
      <rtept lat="33.236978" lon="126.360254">
         <ele>10</ele>
      </rtept>
      <rtept lat="33.236893" lon="126.360039">
         <ele>10</ele>
      </rtept>
      <rtept lat="33.236767" lon="126.359857">
         <ele>10</ele>
      </rtept>
      <rtept lat="33.236668" lon="126.359669">
         <ele>10</ele>
      </rtept>
      <rtept lat="33.236713" lon="126.359521">
         <ele>10</ele>
      </rtept>
      <rtept lat="33.236959" lon="126.359227">
         <ele>11.55318</ele>
      </rtept>
      <rtept lat="33.237146" lon="126.359186">
         <ele>10.72022</ele>
      </rtept>
      <rtept lat="33.237198" lon="126.359071">
         <ele>12.30391</ele>
      </rtept>
      <rtept lat="33.237277" lon="126.358949">
         <ele>14.31866</ele>
      </rtept>
      <rtept lat="33.237526" lon="126.358784">
         <ele>21.14806</ele>
      </rtept>
      <rtept lat="33.237831" lon="126.358582">
         <ele>27.95816</ele>
      </rtept>
      <rtept lat="33.238437" lon="126.358459">
         <ele>46.11732</ele>
      </rtept>
      <rtept lat="33.239294" lon="126.35855">
         <ele>63.09139</ele>
      </rtept>
      <rtept lat="33.239644" lon="126.358502">
         <ele>70.26346</ele>
      </rtept>
      <rtept lat="33.239899" lon="126.3584">
         <ele>76.54236</ele>
      </rtept>
      <rtept lat="33.240065" lon="126.358287">
         <ele>81.64926</ele>
      </rtept>
      <rtept lat="33.240361" lon="126.357976">
         <ele>91.95099</ele>
      </rtept>
      <rtept lat="33.240698" lon="126.357692">
         <ele>98.42381</ele>
      </rtept>
      <rtept lat="33.240985" lon="126.357338">
         <ele>103.9792</ele>
      </rtept>
      <rtept lat="33.240963" lon="126.357059">
         <ele>107.0587</ele>
      </rtept>
      <rtept lat="33.24072" lon="126.357198">
         <ele>104.3912</ele>
      </rtept>
      <rtept lat="33.24024" lon="126.357509">
         <ele>98.09072</ele>
      </rtept>
      <rtept lat="33.240002" lon="126.357552">
         <ele>99.18423</ele>
      </rtept>
      <rtept lat="33.239325" lon="126.357504">
         <ele>93.56395</ele>
      </rtept>
      <rtept lat="33.238885" lon="126.357316">
         <ele>89.40898</ele>
      </rtept>
      <rtept lat="33.238634" lon="126.357166">
         <ele>86.29091</ele>
      </rtept>
      <rtept lat="33.238116" lon="126.356897">
         <ele>76.67014</ele>
      </rtept>
      <rtept lat="33.23762" lon="126.356603">
         <ele>60.90331</ele>
      </rtept>
      <rtept lat="33.237275" lon="126.356204">
         <ele>51.24715</ele>
      </rtept>
      <rtept lat="33.237062" lon="126.35592">
         <ele>46.36311</ele>
      </rtept>
      <rtept lat="33.23689" lon="126.355606">
         <ele>44.17734</ele>
      </rtept>
      <rtept lat="33.236582" lon="126.355104">
         <ele>37.39717</ele>
      </rtept>
      <rtept lat="33.236464" lon="126.354792">
         <ele>36.50971</ele>
      </rtept>
      <rtept lat="33.236245" lon="126.354439">
         <ele>31.72964</ele>
      </rtept>
      <rtept lat="33.236109" lon="126.354106">
         <ele>30.88895</ele>
      </rtept>
      <rtept lat="33.235984" lon="126.353717">
         <ele>27.84356</ele>
      </rtept>
      <rtept lat="33.235907" lon="126.353391">
         <ele>28.98203</ele>
      </rtept>
      <rtept lat="33.235866" lon="126.353023">
         <ele>33.22001</ele>
      </rtept>
      <rtept lat="33.235748" lon="126.352492">
         <ele>35.15133</ele>
      </rtept>
      <rtept lat="33.235692" lon="126.352355">
         <ele>34.14184</ele>
      </rtept>
      <rtept lat="33.235463" lon="126.351735">
         <ele>31.61393</ele>
      </rtept>
      <rtept lat="33.235315" lon="126.351381">
         <ele>29.37882</ele>
      </rtept>
      <rtept lat="33.235221" lon="126.350949">
         <ele>27.26695</ele>
      </rtept>
      <rtept lat="33.235232" lon="126.35056">
         <ele>25.14633</ele>
      </rtept>
      <rtept lat="33.235292" lon="126.349986">
         <ele>20.19816</ele>
      </rtept>
      <rtept lat="33.23541" lon="126.349491">
         <ele>21.73757</ele>
      </rtept>
      <rtept lat="33.235795" lon="126.348797">
         <ele>20.30299</ele>
      </rtept>
      <rtept lat="33.236168" lon="126.348528">
         <ele>26.17353</ele>
      </rtept>
      <rtept lat="33.236535" lon="126.348347">
         <ele>33.26504</ele>
      </rtept>
      <rtept lat="33.237449" lon="126.348095">
         <ele>53.29151</ele>
      </rtept>
      <rtept lat="33.238504" lon="126.348253">
         <ele>63.59644</ele>
      </rtept>
      <rtept lat="33.238956" lon="126.348588">
         <ele>65.71843</ele>
      </rtept>
      <rtept lat="33.239351" lon="126.349068">
         <ele>71.27616</ele>
      </rtept>
      <rtept lat="33.239398" lon="126.34923">
         <ele>74.15288</ele>
      </rtept>
      <rtept lat="33.239568" lon="126.349645">
         <ele>79.4775</ele>
      </rtept>
      <rtept lat="33.239779" lon="126.350414">
         <ele>83.52667</ele>
      </rtept>
      <rtept lat="33.240031" lon="126.351121">
         <ele>83.70355</ele>
      </rtept>
      <rtept lat="33.24041" lon="126.351093">
         <ele>79.35863</ele>
      </rtept>
      <rtept lat="33.240694" lon="126.350796">
         <ele>74.50259</ele>
      </rtept>
      <rtept lat="33.240819" lon="126.351129">
         <ele>78.44334</ele>
      </rtept>
      <rtept lat="33.240973" lon="126.351093">
         <ele>81.13281</ele>
      </rtept>
      <rtept lat="33.241092" lon="126.350832">
         <ele>77.97185</ele>
      </rtept>
      <rtept lat="33.241537" lon="126.349322">
         <ele>79.16568</ele>
      </rtept>
      <rtept lat="33.241622" lon="126.348937">
         <ele>80.00627</ele>
      </rtept>
      <rtept lat="33.241771" lon="126.348546">
         <ele>83.13571</ele>
      </rtept>
      <rtept lat="33.242129" lon="126.34789">
         <ele>88.04462</ele>
      </rtept>
      <rtept lat="33.242199" lon="126.347816">
         <ele>88.98617</ele>
      </rtept>
      <rtept lat="33.242237" lon="126.347803">
         <ele>90.03109</ele>
      </rtept>
      <rtept lat="33.242419" lon="126.348002">
         <ele>100.4333</ele>
      </rtept>
      <rtept lat="33.242567" lon="126.348037">
         <ele>106.1306</ele>
      </rtept>
      <rtept lat="33.242774" lon="126.347825">
         <ele>107.1441</ele>
      </rtept>
      <rtept lat="33.242854" lon="126.347265">
         <ele>94.1488</ele>
      </rtept>
      <rtept lat="33.243011" lon="126.347167">
         <ele>94.819</ele>
      </rtept>
      <rtept lat="33.243449" lon="126.347273">
         <ele>105.9333</ele>
      </rtept>
      <rtept lat="33.243929" lon="126.347492">
         <ele>117.5651</ele>
      </rtept>
      <rtept lat="33.244582" lon="126.347973">
         <ele>130.3071</ele>
      </rtept>
      <rtept lat="33.245144" lon="126.348487">
         <ele>140.5487</ele>
      </rtept>
      <rtept lat="33.245613" lon="126.349019">
         <ele>152.2024</ele>
      </rtept>
      <rtept lat="33.246111" lon="126.349514">
         <ele>158.9647</ele>
      </rtept>
      <rtept lat="33.246556" lon="126.349814">
         <ele>158.0052</ele>
      </rtept>
      <rtept lat="33.246794" lon="126.349876">
         <ele>153.9555</ele>
      </rtept>
      <rtept lat="33.247551" lon="126.350068">
         <ele>137.6121</ele>
      </rtept>
      <rtept lat="33.247844" lon="126.35009">
         <ele>129.4465</ele>
      </rtept>
      <rtept lat="33.248055" lon="126.349884">
         <ele>119.5296</ele>
      </rtept>
      <rtept lat="33.248303" lon="126.349378">
         <ele>103.9544</ele>
      </rtept>
      <rtept lat="33.248587" lon="126.348869">
         <ele>89.08507</ele>
      </rtept>
      <rtept lat="33.248866" lon="126.348479">
         <ele>78.25426</ele>
      </rtept>
      <rtept lat="33.248984" lon="126.347715">
         <ele>65.24126</ele>
      </rtept>
      <rtept lat="33.249085" lon="126.34746">
         <ele>61.2347</ele>
      </rtept>
      <rtept lat="33.249061" lon="126.347028">
         <ele>60</ele>
      </rtept>
      <rtept lat="33.249132" lon="126.346681">
         <ele>60</ele>
      </rtept>
      <rtept lat="33.249321" lon="126.346405">
         <ele>60</ele>
      </rtept>
      <rtept lat="33.24944" lon="126.346349">
         <ele>60</ele>
      </rtept>
      <rtept lat="33.249694" lon="126.346136">
         <ele>60</ele>
      </rtept>
      <rtept lat="33.249866" lon="126.345896">
         <ele>50</ele>
      </rtept>
      <rtept lat="33.249813" lon="126.345726">
         <ele>50</ele>
      </rtept>
      <rtept lat="33.249605" lon="126.345485">
         <ele>50</ele>
      </rtept>
      <rtept lat="33.249528" lon="126.34511">
         <ele>50</ele>
      </rtept>
      <rtept lat="33.24941" lon="126.344961">
         <ele>50</ele>
      </rtept>
      <rtept lat="33.249369" lon="126.344749">
         <ele>50</ele>
      </rtept>
      <rtept lat="33.24912" lon="126.344636">
         <ele>50</ele>
      </rtept>
      <rtept lat="33.248848" lon="126.344798">
         <ele>50</ele>
      </rtept>
      <rtept lat="33.248741" lon="126.34482">
         <ele>50</ele>
      </rtept>
      <rtept lat="33.248552" lon="126.344937">
         <ele>50</ele>
      </rtept>
      <rtept lat="33.248416" lon="126.345167">
         <ele>50.97923</ele>
      </rtept>
      <rtept lat="33.24828" lon="126.345208">
         <ele>52.9221</ele>
      </rtept>
      <rtept lat="33.248079" lon="126.345074">
         <ele>54.26358</ele>
      </rtept>
      <rtept lat="33.247875" lon="126.344802">
         <ele>53.4874</ele>
      </rtept>
      <rtept lat="33.247646" lon="126.344425">
         <ele>50.1175</ele>
      </rtept>
      <rtept lat="33.247603" lon="126.344355">
         <ele>50.55648</ele>
      </rtept>
      <rtept lat="33.247246" lon="126.343289">
         <ele>40</ele>
      </rtept>
      <rtept lat="33.246794" lon="126.342619">
         <ele>40</ele>
      </rtept>
      <rtept lat="33.246604" lon="126.342443">
         <ele>36.90839</ele>
      </rtept>
      <rtept lat="33.246538" lon="126.342331">
         <ele>35.4174</ele>
      </rtept>
      <rtept lat="33.246405" lon="126.342177">
         <ele>32.9704</ele>
      </rtept>
      <rtept lat="33.24612" lon="126.341883">
         <ele>27.93957</ele>
      </rtept>
      <rtept lat="33.245843" lon="126.341864">
         <ele>24.62903</ele>
      </rtept>
      <rtept lat="33.245562" lon="126.341818">
         <ele>20.88407</ele>
      </rtept>
      <rtept lat="33.24528" lon="126.341734">
         <ele>20</ele>
      </rtept>
      <rtept lat="33.245073" lon="126.341696">
         <ele>20</ele>
      </rtept>
      <rtept lat="33.24487" lon="126.341743">
         <ele>20</ele>
      </rtept>
      <rtept lat="33.244706" lon="126.341836">
         <ele>20</ele>
      </rtept>
      <rtept lat="33.244753" lon="126.342453">
         <ele>20</ele>
      </rtept>
      <rtept lat="33.244589" lon="126.342574">
         <ele>20</ele>
      </rtept>
      <rtept lat="33.244327" lon="126.342541">
         <ele>20</ele>
      </rtept>
      <rtept lat="33.244105" lon="126.3427">
         <ele>20</ele>
      </rtept>
      <rtept lat="33.243851" lon="126.342854">
         <ele>25.33967</ele>
      </rtept>
      <rtept lat="33.243617" lon="126.34278">
         <ele>20</ele>
      </rtept>
      <rtept lat="33.243191" lon="126.342901">
         <ele>24.82343</ele>
      </rtept>
      <rtept lat="33.242851" lon="126.34291">
         <ele>22.70305</ele>
      </rtept>
      <rtept lat="33.242007" lon="126.342654">
         <ele>13.42133</ele>
      </rtept>
      <rtept lat="33.241757" lon="126.342719">
         <ele>11.38672</ele>
      </rtept>
      <rtept lat="33.241535" lon="126.342999">
         <ele>10</ele>
      </rtept>
      <rtept lat="33.240964" lon="126.342971">
         <ele>10</ele>
      </rtept>
      <rtept lat="33.240855" lon="126.342999">
         <ele>10</ele>
      </rtept>
      <rtept lat="33.240406" lon="126.343419">
         <ele>10</ele>
      </rtept>
      <rtept lat="33.240218" lon="126.343686">
         <ele>10</ele>
      </rtept>
      <rtept lat="33.240066" lon="126.343774">
         <ele>10</ele>
      </rtept>
      <rtept lat="33.239765" lon="126.343986">
         <ele>10</ele>
      </rtept>
      <rtept lat="33.239644" lon="126.344116" />
      <rtept lat="33.239553" lon="126.344076" />
      <rtept lat="33.239227" lon="126.344164" />
      <rtept lat="33.239011" lon="126.344254" />
      <rtept lat="33.238948" lon="126.343898" />
      <rtept lat="33.238862" lon="126.342747">
         <ele>10</ele>
      </rtept>
      <rtept lat="33.238834" lon="126.341983">
         <ele>10</ele>
      </rtept>
      <rtept lat="33.238841" lon="126.341849">
         <ele>10</ele>
      </rtept>
      <rtept lat="33.239421" lon="126.340095">
         <ele>10</ele>
      </rtept>
      <rtept lat="33.239528" lon="126.339855">
         <ele>10</ele>
      </rtept>
      <rtept lat="33.239657" lon="126.339172">
         <ele>10</ele>
      </rtept>
      <rtept lat="33.239692" lon="126.339091">
         <ele>10</ele>
      </rtept>
      <rtept lat="33.239774" lon="126.3387">
         <ele>10</ele>
      </rtept>
      <rtept lat="33.239844" lon="126.338555">
         <ele>10</ele>
      </rtept>
      <rtept lat="33.239776" lon="126.338459">
         <ele>10</ele>
      </rtept>
      <rtept lat="33.239685" lon="126.338473">
         <ele>10</ele>
      </rtept>
      <rtept lat="33.239606" lon="126.338399">
         <ele>10</ele>
      </rtept>
      <rtept lat="33.23953" lon="126.338296">
         <ele>10</ele>
      </rtept>
      <rtept lat="33.239502" lon="126.338288">
         <ele>10</ele>
      </rtept>
      <rtept lat="33.239032" lon="126.338362">
         <ele>10</ele>
      </rtept>
      <rtept lat="33.239032" lon="126.338683">
         <ele>10</ele>
      </rtept>
      <rtept lat="33.238999" lon="126.338753">
         <ele>10</ele>
      </rtept>
      <rtept lat="33.238955" lon="126.338791">
         <ele>10</ele>
      </rtept>
      <rtept lat="33.238904" lon="126.33881">
         <ele>10</ele>
      </rtept>
      <rtept lat="33.238834" lon="126.338804">
         <ele>10</ele>
      </rtept>
      <rtept lat="33.238762" lon="126.338783">
         <ele>10</ele>
      </rtept>
      <rtept lat="33.238469" lon="126.338564">
         <ele>10</ele>
      </rtept>
      <rtept lat="33.238393" lon="126.338551">
         <ele>10</ele>
      </rtept>
      <rtept lat="33.238102" lon="126.338612">
         <ele>10</ele>
      </rtept>
      <rtept lat="33.238" lon="126.338682">
         <ele>10</ele>
      </rtept>
      <rtept lat="33.237923" lon="126.3383">
         <ele>10</ele>
      </rtept>
      <rtept lat="33.237917" lon="126.338215" />
      <rtept lat="33.23795" lon="126.337825" />
      <rtept lat="33.237915" lon="126.33757" />
      <rtept lat="33.237868" lon="126.33738" />
      <rtept lat="33.237681" lon="126.336984" />
      <rtept lat="33.237613" lon="126.336792" />
      <rtept lat="33.2379" lon="126.336668" />
      <rtept lat="33.23869" lon="126.336389" />
      <rtept lat="33.23913" lon="126.336217" />
      <rtept lat="33.239424" lon="126.336058" />
      <rtept lat="33.240034" lon="126.33545" />
      <rtept lat="33.240376" lon="126.334968" />
   </rte>
</gpx>