<?xml version="1.0" encoding="utf-8"?>
<gpx version="1.1" creator="Movescount - http://www.movescount.com" xmlns:xsi="http://www.w3.org/2001/XMLSchema-instance" xsi:schemaLocation="http://www.topografix.com/GPX/1/1 http://www.topografix.com/GPX/1/1/gpx.xsd http://www.cluetrust.com/XML/GPXDATA/1/0 http://www.cluetrust.com/Schemas/gpxdata10.xsd http://www.garmin.com/xmlschemas/TrackPointExtension/v1 http://www.garmin.com/xmlschemas/TrackPointExtensionv1.xsd" xmlns:gpxdata="http://www.cluetrust.com/XML/GPXDATA/1/0" xmlns:gpxtpx="http://www.garmin.com/xmlschemas/TrackPointExtension/v1" xmlns="http://www.topografix.com/GPX/1/1">
   <rte>
      <name>jeju ollegil 2</name>
      <rtept lat="33.451815" lon="126.924111" />
      <rtept lat="33.451882" lon="126.92394" />
      <rtept lat="33.451628" lon="126.9238" />
      <rtept lat="33.4516" lon="126.923579" />
      <rtept lat="33.451657" lon="126.923459" />
      <rtept lat="33.451394" lon="126.923198" />
      <rtept lat="33.451235" lon="126.922952" />
      <rtept lat="33.450643" lon="126.921584" />
      <rtept lat="33.450888" lon="126.921525" />
      <rtept lat="33.451058" lon="126.921539" />
      <rtept lat="33.451189" lon="126.92159" />
      <rtept lat="33.451898" lon="126.922449" />
      <rtept lat="33.453373" lon="126.923599" />
      <rtept lat="33.453736" lon="126.923758" />
      <rtept lat="33.454472" lon="126.923849" />
      <rtept lat="33.454665" lon="126.923846" />
      <rtept lat="33.454937" lon="126.923766" />
      <rtept lat="33.455119" lon="126.923746" />
      <rtept lat="33.455109" lon="126.923624" />
      <rtept lat="33.455128" lon="126.923466" />
      <rtept lat="33.455221" lon="126.923347" />
      <rtept lat="33.456363" lon="126.922708" />
      <rtept lat="33.456603" lon="126.922612" />
      <rtept lat="33.457074" lon="126.922468" />
      <rtept lat="33.457162" lon="126.922455" />
      <rtept lat="33.457807" lon="126.922418" />
      <rtept lat="33.45815" lon="126.922432" />
      <rtept lat="33.458317" lon="126.922411" />
      <rtept lat="33.458377" lon="126.922387" />
      <rtept lat="33.458717" lon="126.922094" />
      <rtept lat="33.458715" lon="126.921995" />
      <rtept lat="33.458589" lon="126.921614" />
      <rtept lat="33.458682" lon="126.921555" />
      <rtept lat="33.458791" lon="126.921525" />
      <rtept lat="33.458838" lon="126.92148" />
      <rtept lat="33.45889" lon="126.921352" />
      <rtept lat="33.458938" lon="126.921286" />
      <rtept lat="33.459053" lon="126.921259" />
      <rtept lat="33.459144" lon="126.92119" />
      <rtept lat="33.459195" lon="126.9212" />
      <rtept lat="33.459244" lon="126.921237" />
      <rtept lat="33.459296" lon="126.92133" />
      <rtept lat="33.459347" lon="126.921354" />
      <rtept lat="33.459447" lon="126.921339" />
      <rtept lat="33.459527" lon="126.921352" />
      <rtept lat="33.459674" lon="126.921517" />
      <rtept lat="33.459751" lon="126.921655" />
      <rtept lat="33.45992" lon="126.921733" />
      <rtept lat="33.459976" lon="126.921727" />
      <rtept lat="33.460147" lon="126.921595" />
      <rtept lat="33.460257" lon="126.921432" />
      <rtept lat="33.460333" lon="126.921403" />
      <rtept lat="33.460496" lon="126.921365" />
      <rtept lat="33.46069" lon="126.921429" />
      <rtept lat="33.460766" lon="126.921411" />
      <rtept lat="33.46084" lon="126.921287" />
      <rtept lat="33.460957" lon="126.921473" />
      <rtept lat="33.461325" lon="126.921284" />
      <rtept lat="33.461393" lon="126.921231" />
      <rtept lat="33.461571" lon="126.921175" />
      <rtept lat="33.461842" lon="126.92117" />
      <rtept lat="33.462111" lon="126.92109" />
      <rtept lat="33.462273" lon="126.921109" />
      <rtept lat="33.462329" lon="126.921183" />
      <rtept lat="33.462373" lon="126.921366" />
      <rtept lat="33.462612" lon="126.921396" />
      <rtept lat="33.462652" lon="126.921369" />
      <rtept lat="33.462684" lon="126.921295" />
      <rtept lat="33.462653" lon="126.921167" />
      <rtept lat="33.462649" lon="126.921044" />
      <rtept lat="33.462476" lon="126.920433" />
      <rtept lat="33.462319" lon="126.92022" />
      <rtept lat="33.462369" lon="126.919713" />
      <rtept lat="33.46225" lon="126.919543" />
      <rtept lat="33.462332" lon="126.919271" />
      <rtept lat="33.462326" lon="126.919203" />
      <rtept lat="33.46229" lon="126.919121" />
      <rtept lat="33.462242" lon="126.919086" />
      <rtept lat="33.46226" lon="126.919058" />
      <rtept lat="33.462278" lon="126.91903" />
      <rtept lat="33.462518" lon="126.919264" />
      <rtept lat="33.463001" lon="126.919631" />
      <rtept lat="33.46303" lon="126.919687" />
      <rtept lat="33.463048" lon="126.91986" />
      <rtept lat="33.462995" lon="126.920145" />
      <rtept lat="33.463005" lon="126.920217" />
      <rtept lat="33.463053" lon="126.920321" />
      <rtept lat="33.463082" lon="126.920357" />
      <rtept lat="33.463132" lon="126.920384" />
      <rtept lat="33.463288" lon="126.920433" />
      <rtept lat="33.46334" lon="126.920476" />
      <rtept lat="33.463438" lon="126.920632" />
      <rtept lat="33.463595" lon="126.920741" />
      <rtept lat="33.463793" lon="126.920922" />
      <rtept lat="33.464918" lon="126.920651">
         <ele>11.29275</ele>
      </rtept>
      <rtept lat="33.464819" lon="126.920258">
         <ele>12.05245</ele>
      </rtept>
      <rtept lat="33.464744" lon="126.920071">
         <ele>12.5601</ele>
      </rtept>
      <rtept lat="33.464683" lon="126.919678">
         <ele>10</ele>
      </rtept>
      <rtept lat="33.464712" lon="126.919055">
         <ele>10</ele>
      </rtept>
      <rtept lat="33.464687" lon="126.918928">
         <ele>10</ele>
      </rtept>
      <rtept lat="33.464636" lon="126.918857">
         <ele>10</ele>
      </rtept>
      <rtept lat="33.46462" lon="126.918742">
         <ele>10</ele>
      </rtept>
      <rtept lat="33.46469" lon="126.918382">
         <ele>10</ele>
      </rtept>
      <rtept lat="33.464718" lon="126.918309" />
      <rtept lat="33.46501" lon="126.917887">
         <ele>8</ele>
      </rtept>
      <rtept lat="33.464916" lon="126.917635">
         <ele>8</ele>
      </rtept>
      <rtept lat="33.464876" lon="126.917584">
         <ele>8</ele>
      </rtept>
      <rtept lat="33.464863" lon="126.91754">
         <ele>8</ele>
      </rtept>
      <rtept lat="33.46488" lon="126.917448">
         <ele>8</ele>
      </rtept>
      <rtept lat="33.464856" lon="126.917399">
         <ele>8</ele>
      </rtept>
      <rtept lat="33.46467" lon="126.917264">
         <ele>8</ele>
      </rtept>
      <rtept lat="33.464549" lon="126.917122">
         <ele>8</ele>
      </rtept>
      <rtept lat="33.464036" lon="126.916817">
         <ele>8</ele>
      </rtept>
      <rtept lat="33.463741" lon="126.916686">
         <ele>8</ele>
      </rtept>
      <rtept lat="33.463692" lon="126.916629">
         <ele>8</ele>
      </rtept>
      <rtept lat="33.463611" lon="126.916435">
         <ele>8</ele>
      </rtept>
      <rtept lat="33.463605" lon="126.916324">
         <ele>8</ele>
      </rtept>
      <rtept lat="33.46359" lon="126.916305">
         <ele>8</ele>
      </rtept>
      <rtept lat="33.463478" lon="126.916271">
         <ele>8</ele>
      </rtept>
      <rtept lat="33.463442" lon="126.916223">
         <ele>8</ele>
      </rtept>
      <rtept lat="33.46341" lon="126.915992">
         <ele>8</ele>
      </rtept>
      <rtept lat="33.463361" lon="126.915873">
         <ele>8</ele>
      </rtept>
      <rtept lat="33.463283" lon="126.915535">
         <ele>8</ele>
      </rtept>
      <rtept lat="33.463144" lon="126.915422">
         <ele>8</ele>
      </rtept>
      <rtept lat="33.46285" lon="126.914959">
         <ele>8</ele>
      </rtept>
      <rtept lat="33.462712" lon="126.914797">
         <ele>8</ele>
      </rtept>
      <rtept lat="33.46268" lon="126.914593">
         <ele>8</ele>
      </rtept>
      <rtept lat="33.462712" lon="126.914797" />
      <rtept lat="33.46285" lon="126.914959" />
      <rtept lat="33.463144" lon="126.915422" />
      <rtept lat="33.463283" lon="126.915535" />
      <rtept lat="33.463361" lon="126.915873" />
      <rtept lat="33.463417" lon="126.916041" />
      <rtept lat="33.463356" lon="126.915887" />
      <rtept lat="33.463265" lon="126.915531" />
      <rtept lat="33.463185" lon="126.915481" />
      <rtept lat="33.463134" lon="126.915424" />
      <rtept lat="33.462845" lon="126.914964" />
      <rtept lat="33.462707" lon="126.91481" />
      <rtept lat="33.462679" lon="126.914715" />
      <rtept lat="33.46266" lon="126.914433" />
      <rtept lat="33.462631" lon="126.914309" />
      <rtept lat="33.462436" lon="126.914356" />
      <rtept lat="33.46218" lon="126.914496" />
      <rtept lat="33.461996" lon="126.914903" />
      <rtept lat="33.461957" lon="126.914979" />
      <rtept lat="33.461707" lon="126.915097" />
      <rtept lat="33.461165" lon="126.915422" />
      <rtept lat="33.46065" lon="126.91548" />
      <rtept lat="33.460412" lon="126.915557" />
      <rtept lat="33.460318" lon="126.915557" />
      <rtept lat="33.460134" lon="126.915519" />
      <rtept lat="33.459976" lon="126.915535" />
      <rtept lat="33.459605" lon="126.915493" />
      <rtept lat="33.458873" lon="126.91554" />
      <rtept lat="33.458752" lon="126.915579" />
      <rtept lat="33.45852" lon="126.915726" />
      <rtept lat="33.458417" lon="126.915768" />
      <rtept lat="33.458304" lon="126.915792" />
      <rtept lat="33.458187" lon="126.915792" />
      <rtept lat="33.458203" lon="126.916011" />
      <rtept lat="33.458187" lon="126.916128" />
      <rtept lat="33.457881" lon="126.916313" />
      <rtept lat="33.457747" lon="126.916404" />
      <rtept lat="33.45737" lon="126.91688" />
      <rtept lat="33.457205" lon="126.917265" />
      <rtept lat="33.45701" lon="126.917538" />
      <rtept lat="33.456884" lon="126.917828" />
      <rtept lat="33.456763" lon="126.917942" />
      <rtept lat="33.456701" lon="126.917979" />
      <rtept lat="33.456607" lon="126.918002" />
      <rtept lat="33.456459" lon="126.917898" />
      <rtept lat="33.456324" lon="126.917829" />
      <rtept lat="33.456138" lon="126.917788" />
      <rtept lat="33.455966" lon="126.917803" />
      <rtept lat="33.455851" lon="126.917737" />
      <rtept lat="33.45564" lon="126.9175" />
      <rtept lat="33.455566" lon="126.917453" />
      <rtept lat="33.455485" lon="126.917427" />
      <rtept lat="33.455221" lon="126.917474" />
      <rtept lat="33.455163" lon="126.917513" />
      <rtept lat="33.454989" lon="126.9178" />
      <rtept lat="33.454923" lon="126.917943" />
      <rtept lat="33.454889" lon="126.918103" />
      <rtept lat="33.454913" lon="126.918252" />
      <rtept lat="33.455005" lon="126.918467" />
      <rtept lat="33.455047" lon="126.918625" />
      <rtept lat="33.455058" lon="126.918753" />
      <rtept lat="33.454998" lon="126.918977" />
      <rtept lat="33.455011" lon="126.919078" />
      <rtept lat="33.455056" lon="126.919225" />
      <rtept lat="33.45505" lon="126.919315" />
      <rtept lat="33.454877" lon="126.919711" />
      <rtept lat="33.45477" lon="126.920028" />
      <rtept lat="33.454581" lon="126.92019" />
      <rtept lat="33.454492" lon="126.920222" />
      <rtept lat="33.454425" lon="126.920227" />
      <rtept lat="33.454369" lon="126.920209" />
      <rtept lat="33.454312" lon="126.920106" />
      <rtept lat="33.454311" lon="126.919993" />
      <rtept lat="33.454326" lon="126.919874" />
      <rtept lat="33.45438" lon="126.91976" />
      <rtept lat="33.454454" lon="126.919668" />
      <rtept lat="33.454487" lon="126.919587" />
      <rtept lat="33.454483" lon="126.919513" />
      <rtept lat="33.454586" lon="126.919318" />
      <rtept lat="33.454411" lon="126.918932" />
      <rtept lat="33.454323" lon="126.918828" />
      <rtept lat="33.454257" lon="126.918717" />
      <rtept lat="33.454205" lon="126.918551" />
      <rtept lat="33.454179" lon="126.918381" />
      <rtept lat="33.454168" lon="126.918026" />
      <rtept lat="33.454102" lon="126.917892" />
      <rtept lat="33.45399" lon="126.917847" />
      <rtept lat="33.453792" lon="126.917837" />
      <rtept lat="33.453606" lon="126.917887" />
      <rtept lat="33.453343" lon="126.918031" />
      <rtept lat="33.453305" lon="126.918007" />
      <rtept lat="33.453146" lon="126.91798" />
      <rtept lat="33.452967" lon="126.917911" />
      <rtept lat="33.452736" lon="126.917891" />
      <rtept lat="33.45228" lon="126.917918" />
      <rtept lat="33.45213" lon="126.917772" />
      <rtept lat="33.451827" lon="126.917691" />
      <rtept lat="33.451742" lon="126.917669" />
      <rtept lat="33.451705" lon="126.917864" />
      <rtept lat="33.451637" lon="126.917834" />
      <rtept lat="33.451582" lon="126.91757" />
      <rtept lat="33.450976" lon="126.916175" />
      <rtept lat="33.450871" lon="126.915993" />
      <rtept lat="33.450843" lon="126.915893" />
      <rtept lat="33.450421" lon="126.913221" />
      <rtept lat="33.450301" lon="126.912236" />
      <rtept lat="33.450424" lon="126.913226" />
      <rtept lat="33.450641" lon="126.91459" />
      <rtept lat="33.450624" lon="126.914594" />
      <rtept lat="33.450641" lon="126.91459" />
      <rtept lat="33.450424" lon="126.913226" />
      <rtept lat="33.450289" lon="126.912136" />
      <rtept lat="33.449995" lon="126.910277" />
      <rtept lat="33.449739" lon="126.90848" />
      <rtept lat="33.44963" lon="126.907857" />
      <rtept lat="33.449495" lon="126.90709">
         <ele>10</ele>
      </rtept>
      <rtept lat="33.448965" lon="126.906737">
         <ele>10</ele>
      </rtept>
      <rtept lat="33.448829" lon="126.906622">
         <ele>10</ele>
      </rtept>
      <rtept lat="33.448561" lon="126.90632">
         <ele>10</ele>
      </rtept>
      <rtept lat="33.448226" lon="126.905833">
         <ele>10</ele>
      </rtept>
      <rtept lat="33.448181" lon="126.905709">
         <ele>10</ele>
      </rtept>
      <rtept lat="33.448177" lon="126.905612">
         <ele>10</ele>
      </rtept>
      <rtept lat="33.448224" lon="126.904961">
         <ele>10</ele>
      </rtept>
      <rtept lat="33.448229" lon="126.904637">
         <ele>10</ele>
      </rtept>
      <rtept lat="33.448184" lon="126.904419">
         <ele>10</ele>
      </rtept>
      <rtept lat="33.447531" lon="126.903189">
         <ele>20</ele>
      </rtept>
      <rtept lat="33.447235" lon="126.90253">
         <ele>20</ele>
      </rtept>
      <rtept lat="33.4472" lon="126.902381">
         <ele>20</ele>
      </rtept>
      <rtept lat="33.44726" lon="126.901911">
         <ele>20</ele>
      </rtept>
      <rtept lat="33.447257" lon="126.901571">
         <ele>20</ele>
      </rtept>
      <rtept lat="33.447199" lon="126.901394">
         <ele>20</ele>
      </rtept>
      <rtept lat="33.447151" lon="126.901162">
         <ele>20</ele>
      </rtept>
      <rtept lat="33.4468" lon="126.901208">
         <ele>20</ele>
      </rtept>
      <rtept lat="33.446701" lon="126.901243">
         <ele>20</ele>
      </rtept>
      <rtept lat="33.446539" lon="126.901331">
         <ele>20</ele>
      </rtept>
      <rtept lat="33.446427" lon="126.901429">
         <ele>20</ele>
      </rtept>
      <rtept lat="33.44597" lon="126.903024">
         <ele>20</ele>
      </rtept>
      <rtept lat="33.445881" lon="126.903234">
         <ele>20</ele>
      </rtept>
      <rtept lat="33.445775" lon="126.903342">
         <ele>20</ele>
      </rtept>
      <rtept lat="33.445647" lon="126.903385">
         <ele>20</ele>
      </rtept>
      <rtept lat="33.445532" lon="126.903304">
         <ele>20</ele>
      </rtept>
      <rtept lat="33.445451" lon="126.903199">
         <ele>20</ele>
      </rtept>
      <rtept lat="33.44541" lon="126.903093">
         <ele>20</ele>
      </rtept>
      <rtept lat="33.445102" lon="126.901908">
         <ele>30</ele>
      </rtept>
      <rtept lat="33.444944" lon="126.901763">
         <ele>30</ele>
      </rtept>
      <rtept lat="33.44483" lon="126.901606">
         <ele>30</ele>
      </rtept>
      <rtept lat="33.444774" lon="126.901669">
         <ele>30</ele>
      </rtept>
      <rtept lat="33.444639" lon="126.901958">
         <ele>30</ele>
      </rtept>
      <rtept lat="33.444572" lon="126.901985">
         <ele>30</ele>
      </rtept>
      <rtept lat="33.44452" lon="126.901995">
         <ele>30</ele>
      </rtept>
      <rtept lat="33.444473" lon="126.901983">
         <ele>30</ele>
      </rtept>
      <rtept lat="33.444292" lon="126.901867">
         <ele>30</ele>
      </rtept>
      <rtept lat="33.444074" lon="126.901825">
         <ele>30</ele>
      </rtept>
      <rtept lat="33.443897" lon="126.90185">
         <ele>30.21696</ele>
      </rtept>
      <rtept lat="33.443754" lon="126.901937">
         <ele>30.04379</ele>
      </rtept>
      <rtept lat="33.443615" lon="126.901904">
         <ele>31.5394</ele>
      </rtept>
      <rtept lat="33.443342" lon="126.901915">
         <ele>34.19271</ele>
      </rtept>
      <rtept lat="33.443133" lon="126.901939">
         <ele>36.44477</ele>
      </rtept>
      <rtept lat="33.442806" lon="126.902011">
         <ele>40.12873</ele>
      </rtept>
      <rtept lat="33.442646" lon="126.902067">
         <ele>42.18359</ele>
      </rtept>
      <rtept lat="33.44255" lon="126.902077">
         <ele>43.87198</ele>
      </rtept>
      <rtept lat="33.442444" lon="126.902043">
         <ele>46.3767</ele>
      </rtept>
      <rtept lat="33.442356" lon="126.901979">
         <ele>48.88898</ele>
      </rtept>
      <rtept lat="33.442284" lon="126.901879">
         <ele>51.39259</ele>
      </rtept>
      <rtept lat="33.442169" lon="126.901837">
         <ele>54.22029</ele>
      </rtept>
      <rtept lat="33.441858" lon="126.902173">
         <ele>59.13665</ele>
      </rtept>
      <rtept lat="33.441507" lon="126.902718">
         <ele>62.64907</ele>
      </rtept>
      <rtept lat="33.440803" lon="126.903915">
         <ele>58.11946</ele>
      </rtept>
      <rtept lat="33.440235" lon="126.904634">
         <ele>51.56397</ele>
      </rtept>
      <rtept lat="33.440074" lon="126.904839">
         <ele>48.62052</ele>
      </rtept>
      <rtept lat="33.439946" lon="126.90495">
         <ele>47.09607</ele>
      </rtept>
      <rtept lat="33.439649" lon="126.904862">
         <ele>50.16448</ele>
      </rtept>
      <rtept lat="33.439372" lon="126.904802">
         <ele>52.79649</ele>
      </rtept>
      <rtept lat="33.439252" lon="126.904787">
         <ele>53.85984</ele>
      </rtept>
      <rtept lat="33.438875" lon="126.904785">
         <ele>55.44047</ele>
      </rtept>
      <rtept lat="33.438664" lon="126.904803">
         <ele>55.21326</ele>
      </rtept>
      <rtept lat="33.438266" lon="126.904874">
         <ele>52.87458</ele>
      </rtept>
      <rtept lat="33.437804" lon="126.905022">
         <ele>51.20582</ele>
      </rtept>
      <rtept lat="33.43742" lon="126.905096">
         <ele>47.46895</ele>
      </rtept>
      <rtept lat="33.436747" lon="126.905139">
         <ele>46.58231</ele>
      </rtept>
      <rtept lat="33.43674" lon="126.905002">
         <ele>51.10611</ele>
      </rtept>
      <rtept lat="33.436693" lon="126.904862">
         <ele>51.46906</ele>
      </rtept>
      <rtept lat="33.436436" lon="126.90451">
         <ele>56.97488</ele>
      </rtept>
      <rtept lat="33.436249" lon="126.904304">
         <ele>58.27647</ele>
      </rtept>
      <rtept lat="33.436177" lon="126.903963">
         <ele>61.79945</ele>
      </rtept>
      <rtept lat="33.436034" lon="126.903515">
         <ele>63.25679</ele>
      </rtept>
      <rtept lat="33.436049" lon="126.902974">
         <ele>66.93703</ele>
      </rtept>
      <rtept lat="33.436128" lon="126.902596">
         <ele>69.22132</ele>
      </rtept>
      <rtept lat="33.43582" lon="126.90245">
         <ele>63.01987</ele>
      </rtept>
      <rtept lat="33.435633" lon="126.90215">
         <ele>60.06922</ele>
      </rtept>
      <rtept lat="33.435623" lon="126.902067">
         <ele>60.04458</ele>
      </rtept>
      <rtept lat="33.435591" lon="126.901815">
         <ele>60.04465</ele>
      </rtept>
      <rtept lat="33.435652" lon="126.901641">
         <ele>61.00014</ele>
      </rtept>
      <rtept lat="33.435812" lon="126.901473">
         <ele>63.19454</ele>
      </rtept>
      <rtept lat="33.435888" lon="126.901288">
         <ele>64.01816</ele>
      </rtept>
      <rtept lat="33.435912" lon="126.901188">
         <ele>64.20377</ele>
      </rtept>
      <rtept lat="33.435995" lon="126.901091">
         <ele>65.04518</ele>
      </rtept>
      <rtept lat="33.436128" lon="126.900858">
         <ele>66.08324</ele>
      </rtept>
      <rtept lat="33.43628" lon="126.900497">
         <ele>66.90316</ele>
      </rtept>
      <rtept lat="33.436325" lon="126.900353">
         <ele>66.99746</ele>
      </rtept>
      <rtept lat="33.436349" lon="126.900202">
         <ele>66.84605</ele>
      </rtept>
      <rtept lat="33.436305" lon="126.900081">
         <ele>66.09847</ele>
      </rtept>
      <rtept lat="33.436244" lon="126.899969">
         <ele>65.19194</ele>
      </rtept>
      <rtept lat="33.436125" lon="126.899871">
         <ele>63.77389</ele>
      </rtept>
      <rtept lat="33.435834" lon="126.899562">
         <ele>60</ele>
      </rtept>
      <rtept lat="33.435445" lon="126.899226">
         <ele>55.89947</ele>
      </rtept>
      <rtept lat="33.435236" lon="126.898954">
         <ele>50</ele>
      </rtept>
      <rtept lat="33.435203" lon="126.898815">
         <ele>50</ele>
      </rtept>
      <rtept lat="33.435265" lon="126.898453">
         <ele>50</ele>
      </rtept>
      <rtept lat="33.435248" lon="126.898215">
         <ele>50</ele>
      </rtept>
      <rtept lat="33.434798" lon="126.898387">
         <ele>50</ele>
      </rtept>
      <rtept lat="33.434477" lon="126.898554">
         <ele>50</ele>
      </rtept>
      <rtept lat="33.434139" lon="126.898808">
         <ele>50</ele>
      </rtept>
      <rtept lat="33.43411" lon="126.898431">
         <ele>50</ele>
      </rtept>
      <rtept lat="33.434075" lon="126.89824">
         <ele>50</ele>
      </rtept>
      <rtept lat="33.434025" lon="126.898128">
         <ele>50</ele>
      </rtept>
      <rtept lat="33.433894" lon="126.897951">
         <ele>50</ele>
      </rtept>
      <rtept lat="33.433835" lon="126.897495">
         <ele>50</ele>
      </rtept>
      <rtept lat="33.433778" lon="126.89739">
         <ele>50</ele>
      </rtept>
      <rtept lat="33.433648" lon="126.897263">
         <ele>50</ele>
      </rtept>
      <rtept lat="33.433504" lon="126.896455">
         <ele>50</ele>
      </rtept>
      <rtept lat="33.43339" lon="126.896158" />
      <rtept lat="33.433349" lon="126.895952" />
      <rtept lat="33.433413" lon="126.895305" />
      <rtept lat="33.433369" lon="126.895074" />
      <rtept lat="33.43335" lon="126.894753" />
      <rtept lat="33.433453" lon="126.894365" />
      <rtept lat="33.433467" lon="126.894263" />
      <rtept lat="33.433433" lon="126.894112" />
      <rtept lat="33.432656" lon="126.894413" />
      <rtept lat="33.432388" lon="126.894537" />
      <rtept lat="33.432215" lon="126.894739" />
      <rtept lat="33.432056" lon="126.894831" />
      <rtept lat="33.43187" lon="126.895006" />
      <rtept lat="33.431806" lon="126.895034" />
      <rtept lat="33.430752" lon="126.895147" />
      <rtept lat="33.430462" lon="126.895223">
         <ele>50</ele>
      </rtept>
      <rtept lat="33.430266" lon="126.895308">
         <ele>50</ele>
      </rtept>
      <rtept lat="33.430001" lon="126.895326">
         <ele>50</ele>
      </rtept>
      <rtept lat="33.429977" lon="126.895698">
         <ele>50</ele>
      </rtept>
      <rtept lat="33.429953" lon="126.895768">
         <ele>50</ele>
      </rtept>
      <rtept lat="33.429924" lon="126.895798">
         <ele>50</ele>
      </rtept>
      <rtept lat="33.429406" lon="126.895873">
         <ele>50</ele>
      </rtept>
      <rtept lat="33.429279" lon="126.895937">
         <ele>50</ele>
      </rtept>
      <rtept lat="33.429191" lon="126.896025">
         <ele>50</ele>
      </rtept>
      <rtept lat="33.428963" lon="126.896345">
         <ele>50</ele>
      </rtept>
      <rtept lat="33.428865" lon="126.896444">
         <ele>50</ele>
      </rtept>
      <rtept lat="33.428564" lon="126.89668">
         <ele>50</ele>
      </rtept>
      <rtept lat="33.42842" lon="126.896869">
         <ele>50</ele>
      </rtept>
      <rtept lat="33.428318" lon="126.896914">
         <ele>50</ele>
      </rtept>
      <rtept lat="33.428185" lon="126.897169">
         <ele>50</ele>
      </rtept>
      <rtept lat="33.428143" lon="126.897206">
         <ele>50</ele>
      </rtept>
      <rtept lat="33.428099" lon="126.897217">
         <ele>50</ele>
      </rtept>
      <rtept lat="33.428057" lon="126.897155">
         <ele>50</ele>
      </rtept>
      <rtept lat="33.427982" lon="126.896931">
         <ele>50</ele>
      </rtept>
      <rtept lat="33.427914" lon="126.896842">
         <ele>50</ele>
      </rtept>
      <rtept lat="33.4279" lon="126.89679">
         <ele>50</ele>
      </rtept>
      <rtept lat="33.427907" lon="126.896375">
         <ele>50</ele>
      </rtept>
      <rtept lat="33.427857" lon="126.896017">
         <ele>50</ele>
      </rtept>
      <rtept lat="33.42782" lon="126.895943">
         <ele>50</ele>
      </rtept>
      <rtept lat="33.427616" lon="126.89567">
         <ele>50</ele>
      </rtept>
      <rtept lat="33.42726" lon="126.895069">
         <ele>50</ele>
      </rtept>
      <rtept lat="33.427111" lon="126.894546">
         <ele>50</ele>
      </rtept>
      <rtept lat="33.427107" lon="126.89447">
         <ele>50</ele>
      </rtept>
      <rtept lat="33.427123" lon="126.894399">
         <ele>50</ele>
      </rtept>
      <rtept lat="33.42723" lon="126.894126">
         <ele>50</ele>
      </rtept>
      <rtept lat="33.427251" lon="126.893976">
         <ele>50</ele>
      </rtept>
      <rtept lat="33.427238" lon="126.893618">
         <ele>50</ele>
      </rtept>
      <rtept lat="33.427179" lon="126.893468">
         <ele>50</ele>
      </rtept>
      <rtept lat="33.427096" lon="126.893328" />
      <rtept lat="33.42705" lon="126.893183" />
      <rtept lat="33.427033" lon="126.892959" />
      <rtept lat="33.426952" lon="126.892669" />
      <rtept lat="33.426368" lon="126.89254" />
      <rtept lat="33.426012" lon="126.892654" />
      <rtept lat="33.425848" lon="126.892872">
         <ele>50</ele>
      </rtept>
      <rtept lat="33.425809" lon="126.892917">
         <ele>50</ele>
      </rtept>
      <rtept lat="33.425776" lon="126.892992">
         <ele>50</ele>
      </rtept>
      <rtept lat="33.425641" lon="126.89294">
         <ele>50</ele>
      </rtept>
      <rtept lat="33.425469" lon="126.892614">
         <ele>50</ele>
      </rtept>
      <rtept lat="33.425505" lon="126.892168">
         <ele>50</ele>
      </rtept>
      <rtept lat="33.425512" lon="126.891533">
         <ele>50</ele>
      </rtept>
      <rtept lat="33.425104" lon="126.891018">
         <ele>50</ele>
      </rtept>
      <rtept lat="33.42481" lon="126.890846">
         <ele>50</ele>
      </rtept>
      <rtept lat="33.424581" lon="126.890468">
         <ele>50</ele>
      </rtept>
      <rtept lat="33.424323" lon="126.890262">
         <ele>50</ele>
      </rtept>
      <rtept lat="33.423721" lon="126.89034">
         <ele>50</ele>
      </rtept>
      <rtept lat="33.423528" lon="126.890485">
         <ele>50</ele>
      </rtept>
      <rtept lat="33.423306" lon="126.890717">
         <ele>50</ele>
      </rtept>
      <rtept lat="33.423026" lon="126.890485">
         <ele>50</ele>
      </rtept>
      <rtept lat="33.42274" lon="126.890442">
         <ele>50</ele>
      </rtept>
      <rtept lat="33.422272" lon="126.890742">
         <ele>50</ele>
      </rtept>
      <rtept lat="33.422217" lon="126.890777">
         <ele>50</ele>
      </rtept>
      <rtept lat="33.421715" lon="126.890786">
         <ele>50</ele>
      </rtept>
      <rtept lat="33.421458" lon="126.89094">
         <ele>50</ele>
      </rtept>
      <rtept lat="33.421056" lon="126.891284">
         <ele>50</ele>
      </rtept>
      <rtept lat="33.421028" lon="126.891601">
         <ele>50</ele>
      </rtept>
      <rtept lat="33.420755" lon="126.891893">
         <ele>50</ele>
      </rtept>
      <rtept lat="33.420397" lon="126.892073">
         <ele>50</ele>
      </rtept>
      <rtept lat="33.419824" lon="126.891936">
         <ele>50</ele>
      </rtept>
      <rtept lat="33.419559" lon="126.892099">
         <ele>50</ele>
      </rtept>
      <rtept lat="33.419374" lon="126.892516">
         <ele>50</ele>
      </rtept>
      <rtept lat="33.419286" lon="126.892676">
         <ele>40</ele>
      </rtept>
      <rtept lat="33.420135" lon="126.893737">
         <ele>40</ele>
      </rtept>
      <rtept lat="33.419952" lon="126.893898">
         <ele>40</ele>
      </rtept>
      <rtept lat="33.419875" lon="126.894055">
         <ele>40</ele>
      </rtept>
      <rtept lat="33.419737" lon="126.894251">
         <ele>40</ele>
      </rtept>
      <rtept lat="33.41933" lon="126.894412">
         <ele>40</ele>
      </rtept>
      <rtept lat="33.419083" lon="126.894353">
         <ele>40</ele>
      </rtept>
      <rtept lat="33.41871" lon="126.89431">
         <ele>40</ele>
      </rtept>
      <rtept lat="33.418214" lon="126.894292">
         <ele>40</ele>
      </rtept>
      <rtept lat="33.417845" lon="126.89433">
         <ele>40</ele>
      </rtept>
      <rtept lat="33.417371" lon="126.894466">
         <ele>40</ele>
      </rtept>
      <rtept lat="33.417002" lon="126.894591">
         <ele>40</ele>
      </rtept>
      <rtept lat="33.416872" lon="126.894655">
         <ele>40</ele>
      </rtept>
      <rtept lat="33.416573" lon="126.894793">
         <ele>30</ele>
      </rtept>
      <rtept lat="33.416492" lon="126.894782">
         <ele>30</ele>
      </rtept>
      <rtept lat="33.416328" lon="126.89476">
         <ele>30</ele>
      </rtept>
      <rtept lat="33.415841" lon="126.894631">
         <ele>30</ele>
      </rtept>
      <rtept lat="33.415504" lon="126.894562">
         <ele>30</ele>
      </rtept>
      <rtept lat="33.415351" lon="126.893755">
         <ele>30</ele>
      </rtept>
      <rtept lat="33.415161" lon="126.893568">
         <ele>30</ele>
      </rtept>
      <rtept lat="33.414706" lon="126.894048">
         <ele>30</ele>
      </rtept>
      <rtept lat="33.414644" lon="126.894683">
         <ele>30</ele>
      </rtept>
      <rtept lat="33.414526" lon="126.895177">
         <ele>30</ele>
      </rtept>
      <rtept lat="33.413717" lon="126.89517">
         <ele>30</ele>
      </rtept>
      <rtept lat="33.413606" lon="126.895118">
         <ele>30</ele>
      </rtept>
      <rtept lat="33.413579" lon="126.895105">
         <ele>30</ele>
      </rtept>
      <rtept lat="33.413578" lon="126.894963">
         <ele>30</ele>
      </rtept>
      <rtept lat="33.413476" lon="126.89501">
         <ele>30</ele>
      </rtept>
      <rtept lat="33.413412" lon="126.895071">
         <ele>30</ele>
      </rtept>
      <rtept lat="33.413302" lon="126.89525">
         <ele>30</ele>
      </rtept>
      <rtept lat="33.413173" lon="126.895335">
         <ele>30</ele>
      </rtept>
      <rtept lat="33.412773" lon="126.89551">
         <ele>30</ele>
      </rtept>
      <rtept lat="33.412262" lon="126.896165">
         <ele>30</ele>
      </rtept>
      <rtept lat="33.4114" lon="126.896465">
         <ele>30</ele>
      </rtept>
      <rtept lat="33.411238" lon="126.896476">
         <ele>30</ele>
      </rtept>
      <rtept lat="33.410907" lon="126.896626">
         <ele>30</ele>
      </rtept>
      <rtept lat="33.410789" lon="126.896811">
         <ele>30</ele>
      </rtept>
      <rtept lat="33.410699" lon="126.896908">
         <ele>30</ele>
      </rtept>
      <rtept lat="33.410655" lon="126.896928">
         <ele>30</ele>
      </rtept>
      <rtept lat="33.410366" lon="126.89679">
         <ele>30</ele>
      </rtept>
      <rtept lat="33.410116" lon="126.896975">
         <ele>30</ele>
      </rtept>
      <rtept lat="33.409951" lon="126.897047">
         <ele>30</ele>
      </rtept>
      <rtept lat="33.409765" lon="126.897185">
         <ele>30</ele>
      </rtept>
      <rtept lat="33.409536" lon="126.897295">
         <ele>30</ele>
      </rtept>
      <rtept lat="33.409598" lon="126.897799">
         <ele>30</ele>
      </rtept>
      <rtept lat="33.409665" lon="126.898239">
         <ele>30</ele>
      </rtept>
      <rtept lat="33.409693" lon="126.898336">
         <ele>20</ele>
      </rtept>
      <rtept lat="33.409895" lon="126.898426">
         <ele>20</ele>
      </rtept>
      <rtept lat="33.410941" lon="126.898885">
         <ele>20</ele>
      </rtept>
      <rtept lat="33.410866" lon="126.899423">
         <ele>20</ele>
      </rtept>
      <rtept lat="33.410742" lon="126.899487">
         <ele>20</ele>
      </rtept>
      <rtept lat="33.41053" lon="126.899673">
         <ele>20</ele>
      </rtept>
      <rtept lat="33.410335" lon="126.899857">
         <ele>20</ele>
      </rtept>
      <rtept lat="33.410254" lon="126.899971">
         <ele>20</ele>
      </rtept>
      <rtept lat="33.410328" lon="126.900556">
         <ele>20</ele>
      </rtept>
      <rtept lat="33.410325" lon="126.900734">
         <ele>20</ele>
      </rtept>
      <rtept lat="33.410247" lon="126.900954">
         <ele>20</ele>
      </rtept>
      <rtept lat="33.410156" lon="126.901116">
         <ele>20</ele>
      </rtept>
      <rtept lat="33.409901" lon="126.901291">
         <ele>20</ele>
      </rtept>
      <rtept lat="33.409696" lon="126.901582">
         <ele>20</ele>
      </rtept>
      <rtept lat="33.409637" lon="126.901686">
         <ele>20</ele>
      </rtept>
      <rtept lat="33.409613" lon="126.901893">
         <ele>20</ele>
      </rtept>
      <rtept lat="33.409507" lon="126.902098" />
      <rtept lat="33.409445" lon="126.902169" />
      <rtept lat="33.409209" lon="126.902442">
         <ele>10</ele>
      </rtept>
      <rtept lat="33.409126" lon="126.902472">
         <ele>10</ele>
      </rtept>
      <rtept lat="33.408909" lon="126.90247">
         <ele>10</ele>
      </rtept>
      <rtept lat="33.408774" lon="126.902469">
         <ele>10</ele>
      </rtept>
      <rtept lat="33.408669" lon="126.902521">
         <ele>10</ele>
      </rtept>
      <rtept lat="33.408496" lon="126.902606">
         <ele>10</ele>
      </rtept>
      <rtept lat="33.408449" lon="126.902607">
         <ele>10</ele>
      </rtept>
      <rtept lat="33.408203" lon="126.903418">
         <ele>10</ele>
      </rtept>
      <rtept lat="33.407903" lon="126.903757">
         <ele>10</ele>
      </rtept>
      <rtept lat="33.407678" lon="126.903905">
         <ele>10</ele>
      </rtept>
      <rtept lat="33.407328" lon="126.904272">
         <ele>10</ele>
      </rtept>
      <rtept lat="33.406499" lon="126.904979" />
      <rtept lat="33.406434" lon="126.905125" />
      <rtept lat="33.406465" lon="126.905288" />
      <rtept lat="33.406443" lon="126.905406" />
      <rtept lat="33.406385" lon="126.905519" />
      <rtept lat="33.405955" lon="126.905857" />
      <rtept lat="33.40586" lon="126.905929" />
      <rtept lat="33.405736" lon="126.90598" />
      <rtept lat="33.405524" lon="126.905826" />
      <rtept lat="33.405313" lon="126.905653" />
      <rtept lat="33.405127" lon="126.905426" />
      <rtept lat="33.405006" lon="126.905011" />
      <rtept lat="33.404996" lon="126.904774" />
      <rtept lat="33.405059" lon="126.90451" />
      <rtept lat="33.405156" lon="126.904302" />
      <rtept lat="33.405139" lon="126.904205" />
      <rtept lat="33.405084" lon="126.904065" />
      <rtept lat="33.404989" lon="126.904155" />
   </rte>
</gpx>