<?xml version="1.0" encoding="utf-8"?>
<gpx version="1.1" creator="Movescount - http://www.movescount.com" xmlns:xsi="http://www.w3.org/2001/XMLSchema-instance" xsi:schemaLocation="http://www.topografix.com/GPX/1/1 http://www.topografix.com/GPX/1/1/gpx.xsd http://www.cluetrust.com/XML/GPXDATA/1/0 http://www.cluetrust.com/Schemas/gpxdata10.xsd http://www.garmin.com/xmlschemas/TrackPointExtension/v1 http://www.garmin.com/xmlschemas/TrackPointExtensionv1.xsd" xmlns:gpxdata="http://www.cluetrust.com/XML/GPXDATA/1/0" xmlns:gpxtpx="http://www.garmin.com/xmlschemas/TrackPointExtension/v1" xmlns="http://www.topografix.com/GPX/1/1">
   <rte>
      <name>ollegil 01-1</name>
      <rtept lat="33.492683" lon="126.951356" />
      <rtept lat="33.492768" lon="126.951895" />
      <rtept lat="33.492489" lon="126.952265" />
      <rtept lat="33.491956" lon="126.954136" />
      <rtept lat="33.492842" lon="126.954419">
         <ele>10</ele>
      </rtept>
      <rtept lat="33.493069" lon="126.954934">
         <ele>10</ele>
      </rtept>
      <rtept lat="33.494052" lon="126.954727">
         <ele>10</ele>
      </rtept>
      <rtept lat="33.4944" lon="126.95432">
         <ele>10</ele>
      </rtept>
      <rtept lat="33.494524" lon="126.954921">
         <ele>10</ele>
      </rtept>
      <rtept lat="33.494464" lon="126.956726">
         <ele>20</ele>
      </rtept>
      <rtept lat="33.494687" lon="126.957176">
         <ele>25.4678</ele>
      </rtept>
      <rtept lat="33.495426" lon="126.956779">
         <ele>25.385</ele>
      </rtept>
      <rtept lat="33.495688" lon="126.956985">
         <ele>30</ele>
      </rtept>
      <rtept lat="33.495078" lon="126.957652">
         <ele>30</ele>
      </rtept>
      <rtept lat="33.494522" lon="126.957989">
         <ele>30</ele>
      </rtept>
      <rtept lat="33.493387" lon="126.959905">
         <ele>27.89673</ele>
      </rtept>
      <rtept lat="33.492964" lon="126.961153">
         <ele>40.95732</ele>
      </rtept>
      <rtept lat="33.49301" lon="126.961833">
         <ele>55.23814</ele>
      </rtept>
      <rtept lat="33.492773" lon="126.962463">
         <ele>59.43393</ele>
      </rtept>
      <rtept lat="33.493301" lon="126.964344">
         <ele>81.76369</ele>
      </rtept>
      <rtept lat="33.493204" lon="126.964525">
         <ele>85.25494</ele>
      </rtept>
      <rtept lat="33.493043" lon="126.964304">
         <ele>84.5191</ele>
      </rtept>
      <rtept lat="33.49316" lon="126.964598">
         <ele>86.76508</ele>
      </rtept>
      <rtept lat="33.492812" lon="126.965277">
         <ele>98.04603</ele>
      </rtept>
      <rtept lat="33.49351" lon="126.965757">
         <ele>87.74647</ele>
      </rtept>
      <rtept lat="33.494598" lon="126.965894">
         <ele>78.6069</ele>
      </rtept>
      <rtept lat="33.4956" lon="126.965751">
         <ele>72.73625</ele>
      </rtept>
      <rtept lat="33.496273" lon="126.965387">
         <ele>70</ele>
      </rtept>
      <rtept lat="33.497262" lon="126.964244">
         <ele>70</ele>
      </rtept>
      <rtept lat="33.497986" lon="126.96539">
         <ele>54.33887</ele>
      </rtept>
      <rtept lat="33.498087" lon="126.965202">
         <ele>54.97684</ele>
      </rtept>
      <rtept lat="33.498496" lon="126.965642">
         <ele>42.08278</ele>
      </rtept>
      <rtept lat="33.498345" lon="126.966061">
         <ele>38.66805</ele>
      </rtept>
      <rtept lat="33.498978" lon="126.966423">
         <ele>26.59865</ele>
      </rtept>
      <rtept lat="33.499083" lon="126.966929">
         <ele>20.06394</ele>
      </rtept>
      <rtept lat="33.500395" lon="126.96824">
         <ele>10</ele>
      </rtept>
      <rtept lat="33.500979" lon="126.967994">
         <ele>10</ele>
      </rtept>
      <rtept lat="33.502173" lon="126.966846">
         <ele>10</ele>
      </rtept>
      <rtept lat="33.502624" lon="126.966614">
         <ele>10</ele>
      </rtept>
      <rtept lat="33.503234" lon="126.965799">
         <ele>20</ele>
      </rtept>
      <rtept lat="33.505687" lon="126.965226">
         <ele>20</ele>
      </rtept>
      <rtept lat="33.509697" lon="126.962814">
         <ele>20</ele>
      </rtept>
      <rtept lat="33.512347" lon="126.958821">
         <ele>10</ele>
      </rtept>
      <rtept lat="33.513606" lon="126.95756">
         <ele>10</ele>
      </rtept>
      <rtept lat="33.513734" lon="126.957192">
         <ele>10</ele>
      </rtept>
      <rtept lat="33.51417" lon="126.957335">
         <ele>10</ele>
      </rtept>
      <rtept lat="33.514977" lon="126.957235">
         <ele>10</ele>
      </rtept>
      <rtept lat="33.515866" lon="126.957608">
         <ele>10</ele>
      </rtept>
      <rtept lat="33.516981" lon="126.958437">
         <ele>10</ele>
      </rtept>
      <rtept lat="33.517453" lon="126.958673">
         <ele>10</ele>
      </rtept>
      <rtept lat="33.517837" lon="126.958654">
         <ele>10</ele>
      </rtept>
      <rtept lat="33.518216" lon="126.959117">
         <ele>10</ele>
      </rtept>
      <rtept lat="33.518448" lon="126.958716">
         <ele>10</ele>
      </rtept>
      <rtept lat="33.518361" lon="126.958407">
         <ele>10</ele>
      </rtept>
      <rtept lat="33.518781" lon="126.957895">
         <ele>10</ele>
      </rtept>
      <rtept lat="33.518751" lon="126.957013">
         <ele>10</ele>
      </rtept>
      <rtept lat="33.519899" lon="126.955799">
         <ele>10</ele>
      </rtept>
      <rtept lat="33.519704" lon="126.955476">
         <ele>10</ele>
      </rtept>
      <rtept lat="33.519758" lon="126.955248">
         <ele>10</ele>
      </rtept>
      <rtept lat="33.519409" lon="126.954789">
         <ele>10</ele>
      </rtept>
      <rtept lat="33.519521" lon="126.953939">
         <ele>10</ele>
      </rtept>
      <rtept lat="33.519295" lon="126.953373">
         <ele>10</ele>
      </rtept>
      <rtept lat="33.518855" lon="126.953014">
         <ele>10</ele>
      </rtept>
      <rtept lat="33.518357" lon="126.952893">
         <ele>10</ele>
      </rtept>
      <rtept lat="33.517614" lon="126.953341">
         <ele>10</ele>
      </rtept>
      <rtept lat="33.517238" lon="126.952448">
         <ele>10</ele>
      </rtept>
      <rtept lat="33.517195" lon="126.951547">
         <ele>10</ele>
      </rtept>
      <rtept lat="33.517037" lon="126.951541">
         <ele>10</ele>
      </rtept>
      <rtept lat="33.516616" lon="126.950696">
         <ele>10</ele>
      </rtept>
      <rtept lat="33.516134" lon="126.950408">
         <ele>10</ele>
      </rtept>
      <rtept lat="33.516057" lon="126.949936">
         <ele>10</ele>
      </rtept>
      <rtept lat="33.513855" lon="126.948693">
         <ele>10</ele>
      </rtept>
      <rtept lat="33.512953" lon="126.948357">
         <ele>10</ele>
      </rtept>
      <rtept lat="33.51299" lon="126.947978">
         <ele>10</ele>
      </rtept>
      <rtept lat="33.512224" lon="126.944972">
         <ele>10</ele>
      </rtept>
      <rtept lat="33.512067" lon="126.944811">
         <ele>10</ele>
      </rtept>
      <rtept lat="33.511859" lon="126.944938">
         <ele>10</ele>
      </rtept>
      <rtept lat="33.511345" lon="126.944315">
         <ele>10</ele>
      </rtept>
      <rtept lat="33.511191" lon="126.943486">
         <ele>10</ele>
      </rtept>
      <rtept lat="33.510931" lon="126.943287">
         <ele>10</ele>
      </rtept>
      <rtept lat="33.509545" lon="126.943376">
         <ele>10</ele>
      </rtept>
      <rtept lat="33.509513" lon="126.942895">
         <ele>10</ele>
      </rtept>
      <rtept lat="33.508955" lon="126.943215">
         <ele>10</ele>
      </rtept>
      <rtept lat="33.509012" lon="126.943568">
         <ele>10</ele>
      </rtept>
      <rtept lat="33.508366" lon="126.943728">
         <ele>10</ele>
      </rtept>
      <rtept lat="33.507982" lon="126.943585">
         <ele>10</ele>
      </rtept>
      <rtept lat="33.507274" lon="126.943958">
         <ele>10</ele>
      </rtept>
      <rtept lat="33.506496" lon="126.941604">
         <ele>10</ele>
      </rtept>
      <rtept lat="33.506114" lon="126.941428">
         <ele>10</ele>
      </rtept>
      <rtept lat="33.5054" lon="126.941784">
         <ele>10</ele>
      </rtept>
      <rtept lat="33.504894" lon="126.941756">
         <ele>10</ele>
      </rtept>
      <rtept lat="33.504669" lon="126.9415">
         <ele>10</ele>
      </rtept>
      <rtept lat="33.503868" lon="126.941701">
         <ele>10</ele>
      </rtept>
      <rtept lat="33.5036" lon="126.941926">
         <ele>10</ele>
      </rtept>
      <rtept lat="33.503301" lon="126.942778">
         <ele>10</ele>
      </rtept>
      <rtept lat="33.50224" lon="126.94375">
         <ele>10</ele>
      </rtept>
      <rtept lat="33.501742" lon="126.943535">
         <ele>10</ele>
      </rtept>
      <rtept lat="33.499587" lon="126.943991">
         <ele>10</ele>
      </rtept>
      <rtept lat="33.49968" lon="126.945155">
         <ele>10</ele>
      </rtept>
      <rtept lat="33.49957" lon="126.945565">
         <ele>10</ele>
      </rtept>
      <rtept lat="33.499272" lon="126.945872">
         <ele>10</ele>
      </rtept>
      <rtept lat="33.499393" lon="126.946313">
         <ele>10</ele>
      </rtept>
      <rtept lat="33.498942" lon="126.946713">
         <ele>10</ele>
      </rtept>
      <rtept lat="33.498859" lon="126.947225">
         <ele>10</ele>
      </rtept>
      <rtept lat="33.498382" lon="126.947892">
         <ele>10</ele>
      </rtept>
      <rtept lat="33.498076" lon="126.947782">
         <ele>10</ele>
      </rtept>
      <rtept lat="33.498148" lon="126.947392">
         <ele>10</ele>
      </rtept>
      <rtept lat="33.497873" lon="126.947185">
         <ele>10</ele>
      </rtept>
      <rtept lat="33.497394" lon="126.947276">
         <ele>10</ele>
      </rtept>
      <rtept lat="33.497537" lon="126.946579">
         <ele>10</ele>
      </rtept>
      <rtept lat="33.497284" lon="126.946332">
         <ele>10</ele>
      </rtept>
      <rtept lat="33.497439" lon="126.945629">
         <ele>10</ele>
      </rtept>
      <rtept lat="33.497118" lon="126.94563">
         <ele>10</ele>
      </rtept>
      <rtept lat="33.497075" lon="126.945838">
         <ele>10</ele>
      </rtept>
      <rtept lat="33.496396" lon="126.946414">
         <ele>10</ele>
      </rtept>
      <rtept lat="33.49624" lon="126.947121">
         <ele>10</ele>
      </rtept>
      <rtept lat="33.496549" lon="126.947736">
         <ele>10</ele>
      </rtept>
      <rtept lat="33.496195" lon="126.948086">
         <ele>10</ele>
      </rtept>
      <rtept lat="33.49646" lon="126.948707">
         <ele>10</ele>
      </rtept>
      <rtept lat="33.495734" lon="126.949492">
         <ele>10</ele>
      </rtept>
      <rtept lat="33.494735" lon="126.951595">
         <ele>10</ele>
      </rtept>
      <rtept lat="33.49435" lon="126.951434">
         <ele>10</ele>
      </rtept>
      <rtept lat="33.49384" lon="126.950719">
         <ele>10</ele>
      </rtept>
      <rtept lat="33.492736" lon="126.951316">
         <ele>10</ele>
      </rtept>
   </rte>
</gpx>