<?xml version="1.0" encoding="utf-8"?>
<gpx version="1.1" creator="Movescount - http://www.movescount.com" xmlns:xsi="http://www.w3.org/2001/XMLSchema-instance" xsi:schemaLocation="http://www.topografix.com/GPX/1/1 http://www.topografix.com/GPX/1/1/gpx.xsd http://www.cluetrust.com/XML/GPXDATA/1/0 http://www.cluetrust.com/Schemas/gpxdata10.xsd http://www.garmin.com/xmlschemas/TrackPointExtension/v1 http://www.garmin.com/xmlschemas/TrackPointExtensionv1.xsd" xmlns:gpxdata="http://www.cluetrust.com/XML/GPXDATA/1/0" xmlns:gpxtpx="http://www.garmin.com/xmlschemas/TrackPointExtension/v1" xmlns="http://www.topografix.com/GPX/1/1">
   <rte>
      <name>ollegil 1</name>
      <rtept lat="33.477192" lon="126.895914">
         <ele>10</ele>
      </rtept>
      <rtept lat="33.477106" lon="126.895741">
         <ele>10</ele>
      </rtept>
      <rtept lat="33.477085" lon="126.895659">
         <ele>10</ele>
      </rtept>
      <rtept lat="33.477079" lon="126.895569">
         <ele>10</ele>
      </rtept>
      <rtept lat="33.477098" lon="126.895454">
         <ele>10</ele>
      </rtept>
      <rtept lat="33.477166" lon="126.895352">
         <ele>10</ele>
      </rtept>
      <rtept lat="33.477312" lon="126.895221">
         <ele>10</ele>
      </rtept>
      <rtept lat="33.477346" lon="126.895127">
         <ele>10</ele>
      </rtept>
      <rtept lat="33.477349" lon="126.89499">
         <ele>10</ele>
      </rtept>
      <rtept lat="33.477169" lon="126.894495">
         <ele>10</ele>
      </rtept>
      <rtept lat="33.477007" lon="126.894322">
         <ele>10</ele>
      </rtept>
      <rtept lat="33.476596" lon="126.893234">
         <ele>10</ele>
      </rtept>
      <rtept lat="33.476402" lon="126.892605">
         <ele>10</ele>
      </rtept>
      <rtept lat="33.476157" lon="126.891909">
         <ele>10</ele>
      </rtept>
      <rtept lat="33.476078" lon="126.891748">
         <ele>10</ele>
      </rtept>
      <rtept lat="33.475909" lon="126.891508">
         <ele>10</ele>
      </rtept>
      <rtept lat="33.475799" lon="126.891292">
         <ele>10</ele>
      </rtept>
      <rtept lat="33.475697" lon="126.890834">
         <ele>20</ele>
      </rtept>
      <rtept lat="33.475639" lon="126.890673">
         <ele>20</ele>
      </rtept>
      <rtept lat="33.475529" lon="126.890498">
         <ele>20</ele>
      </rtept>
      <rtept lat="33.475446" lon="126.89031">
         <ele>20</ele>
      </rtept>
      <rtept lat="33.475287" lon="126.889626">
         <ele>23.98241</ele>
      </rtept>
      <rtept lat="33.475252" lon="126.889566">
         <ele>24.36147</ele>
      </rtept>
      <rtept lat="33.475215" lon="126.889545">
         <ele>24.47893</ele>
      </rtept>
      <rtept lat="33.47509" lon="126.889388">
         <ele>25.29912</ele>
      </rtept>
      <rtept lat="33.475062" lon="126.889009">
         <ele>30</ele>
      </rtept>
      <rtept lat="33.474989" lon="126.888561">
         <ele>30</ele>
      </rtept>
      <rtept lat="33.474988" lon="126.888374">
         <ele>30.58474</ele>
      </rtept>
      <rtept lat="33.47496" lon="126.888154">
         <ele>32.31116</ele>
      </rtept>
      <rtept lat="33.474833" lon="126.887535">
         <ele>35.93502</ele>
      </rtept>
      <rtept lat="33.474779" lon="126.887426">
         <ele>36.33719</ele>
      </rtept>
      <rtept lat="33.474565" lon="126.886729">
         <ele>40.64584</ele>
      </rtept>
      <rtept lat="33.474585" lon="126.886532">
         <ele>41.73581</ele>
      </rtept>
      <rtept lat="33.474567" lon="126.88639">
         <ele>43.18209</ele>
      </rtept>
      <rtept lat="33.474471" lon="126.886064">
         <ele>45.73166</ele>
      </rtept>
      <rtept lat="33.474297" lon="126.88574">
         <ele>47.47777</ele>
      </rtept>
      <rtept lat="33.474209" lon="126.885527">
         <ele>50</ele>
      </rtept>
      <rtept lat="33.474025" lon="126.885156">
         <ele>50</ele>
      </rtept>
      <rtept lat="33.474008" lon="126.885073">
         <ele>50</ele>
      </rtept>
      <rtept lat="33.474564" lon="126.884431">
         <ele>60</ele>
      </rtept>
      <rtept lat="33.474809" lon="126.884293">
         <ele>61.52848</ele>
      </rtept>
      <rtept lat="33.475615" lon="126.884255">
         <ele>77.63669</ele>
      </rtept>
      <rtept lat="33.475704" lon="126.884178">
         <ele>80.01989</ele>
      </rtept>
      <rtept lat="33.475817" lon="126.883939">
         <ele>82.68316</ele>
      </rtept>
      <rtept lat="33.475985" lon="126.884195">
         <ele>88.37971</ele>
      </rtept>
      <rtept lat="33.476178" lon="126.883931">
         <ele>87.9204</ele>
      </rtept>
      <rtept lat="33.476319" lon="126.884161">
         <ele>94.73133</ele>
      </rtept>
      <rtept lat="33.476405" lon="126.884794">
         <ele>95.02348</ele>
      </rtept>
      <rtept lat="33.47663" lon="126.885402">
         <ele>94.61967</ele>
      </rtept>
      <rtept lat="33.476647" lon="126.885505">
         <ele>94.85291</ele>
      </rtept>
      <rtept lat="33.476786" lon="126.885933">
         <ele>96.76849</ele>
      </rtept>
      <rtept lat="33.476862" lon="126.886107">
         <ele>97.93932</ele>
      </rtept>
      <rtept lat="33.477249" lon="126.886808">
         <ele>97.55546</ele>
      </rtept>
      <rtept lat="33.477483" lon="126.887243">
         <ele>97.34071</ele>
      </rtept>
      <rtept lat="33.477637" lon="126.887387">
         <ele>97.31112</ele>
      </rtept>
      <rtept lat="33.477891" lon="126.887572">
         <ele>97.79077</ele>
      </rtept>
      <rtept lat="33.478063" lon="126.887769">
         <ele>99.57447</ele>
      </rtept>
      <rtept lat="33.478177" lon="126.887851">
         <ele>97.5918</ele>
      </rtept>
      <rtept lat="33.478436" lon="126.887937">
         <ele>94.83334</ele>
      </rtept>
      <rtept lat="33.478729" lon="126.888137">
         <ele>88.00398</ele>
      </rtept>
      <rtept lat="33.47898" lon="126.888166">
         <ele>88.60637</ele>
      </rtept>
      <rtept lat="33.479062" lon="126.888042">
         <ele>87.5496</ele>
      </rtept>
      <rtept lat="33.479069" lon="126.88798">
         <ele>87.2243</ele>
      </rtept>
      <rtept lat="33.479044" lon="126.887913">
         <ele>86.94976</ele>
      </rtept>
      <rtept lat="33.47841" lon="126.887381">
         <ele>100</ele>
      </rtept>
      <rtept lat="33.478146" lon="126.887207">
         <ele>100</ele>
      </rtept>
      <rtept lat="33.477964" lon="126.886958">
         <ele>100</ele>
      </rtept>
      <rtept lat="33.47806" lon="126.886873">
         <ele>100</ele>
      </rtept>
      <rtept lat="33.478287" lon="126.886792">
         <ele>100</ele>
      </rtept>
      <rtept lat="33.47846" lon="126.886766">
         <ele>100</ele>
      </rtept>
      <rtept lat="33.478551" lon="126.886798">
         <ele>100</ele>
      </rtept>
      <rtept lat="33.478616" lon="126.886781">
         <ele>100</ele>
      </rtept>
      <rtept lat="33.478616" lon="126.886613">
         <ele>100</ele>
      </rtept>
      <rtept lat="33.478696" lon="126.886517">
         <ele>100</ele>
      </rtept>
      <rtept lat="33.478484" lon="126.886155">
         <ele>100</ele>
      </rtept>
      <rtept lat="33.478443" lon="126.885993">
         <ele>100</ele>
      </rtept>
      <rtept lat="33.47841" lon="126.885772">
         <ele>100</ele>
      </rtept>
      <rtept lat="33.478284" lon="126.884315">
         <ele>100</ele>
      </rtept>
      <rtept lat="33.478277" lon="126.884006">
         <ele>100</ele>
      </rtept>
      <rtept lat="33.478328" lon="126.883841">
         <ele>100</ele>
      </rtept>
      <rtept lat="33.47834" lon="126.883847">
         <ele>100</ele>
      </rtept>
      <rtept lat="33.478349" lon="126.883739">
         <ele>100</ele>
      </rtept>
      <rtept lat="33.478665" lon="126.882893">
         <ele>90</ele>
      </rtept>
      <rtept lat="33.478723" lon="126.882573">
         <ele>90</ele>
      </rtept>
      <rtept lat="33.478784" lon="126.882363">
         <ele>90</ele>
      </rtept>
      <rtept lat="33.479242" lon="126.881806">
         <ele>90</ele>
      </rtept>
      <rtept lat="33.47958" lon="126.881362">
         <ele>90</ele>
      </rtept>
      <rtept lat="33.480069" lon="126.881926">
         <ele>90</ele>
      </rtept>
      <rtept lat="33.480274" lon="126.882115">
         <ele>90</ele>
      </rtept>
      <rtept lat="33.480281" lon="126.882476">
         <ele>91.29861</ele>
      </rtept>
      <rtept lat="33.480298" lon="126.882623">
         <ele>92.79757</ele>
      </rtept>
      <rtept lat="33.480392" lon="126.882821">
         <ele>94.87227</ele>
      </rtept>
      <rtept lat="33.48042" lon="126.883005">
         <ele>96.71317</ele>
      </rtept>
      <rtept lat="33.480489" lon="126.883224">
         <ele>98.86585</ele>
      </rtept>
      <rtept lat="33.480594" lon="126.883362">
         <ele>100</ele>
      </rtept>
      <rtept lat="33.48075" lon="126.883712">
         <ele>103.6752</ele>
      </rtept>
      <rtept lat="33.480868" lon="126.883839">
         <ele>104.8733</ele>
      </rtept>
      <rtept lat="33.48093" lon="126.88394">
         <ele>105.9234</ele>
      </rtept>
      <rtept lat="33.480891" lon="126.884386">
         <ele>111.2967</ele>
      </rtept>
      <rtept lat="33.480858" lon="126.884755">
         <ele>115.1824</ele>
      </rtept>
      <rtept lat="33.480813" lon="126.884971">
         <ele>117.3051</ele>
      </rtept>
      <rtept lat="33.480735" lon="126.885135">
         <ele>118.4104</ele>
      </rtept>
      <rtept lat="33.480793" lon="126.885234">
         <ele>120</ele>
      </rtept>
      <rtept lat="33.48086" lon="126.885286">
         <ele>120</ele>
      </rtept>
      <rtept lat="33.481096" lon="126.88541">
         <ele>120</ele>
      </rtept>
      <rtept lat="33.4813" lon="126.885335">
         <ele>119.8019</ele>
      </rtept>
      <rtept lat="33.481762" lon="126.884826">
         <ele>110.9175</ele>
      </rtept>
      <rtept lat="33.482085" lon="126.884541">
         <ele>105.0033</ele>
      </rtept>
      <rtept lat="33.482333" lon="126.884421">
         <ele>101.6577</ele>
      </rtept>
      <rtept lat="33.482598" lon="126.884176">
         <ele>100</ele>
      </rtept>
      <rtept lat="33.482819" lon="126.884063">
         <ele>96.3801</ele>
      </rtept>
      <rtept lat="33.48294" lon="126.884065">
         <ele>95.84058</ele>
      </rtept>
      <rtept lat="33.482959" lon="126.883847">
         <ele>94.47448</ele>
      </rtept>
      <rtept lat="33.482914" lon="126.8835">
         <ele>90</ele>
      </rtept>
      <rtept lat="33.482944" lon="126.883439">
         <ele>90</ele>
      </rtept>
      <rtept lat="33.483019" lon="126.883327">
         <ele>90</ele>
      </rtept>
      <rtept lat="33.483184" lon="126.883244">
         <ele>90</ele>
      </rtept>
      <rtept lat="33.483235" lon="126.883163">
         <ele>90</ele>
      </rtept>
      <rtept lat="33.483402" lon="126.883013">
         <ele>87.2688</ele>
      </rtept>
      <rtept lat="33.48346" lon="126.88292">
         <ele>86.32307</ele>
      </rtept>
      <rtept lat="33.483481" lon="126.882872">
         <ele>85.87725</ele>
      </rtept>
      <rtept lat="33.483551" lon="126.882419">
         <ele>80</ele>
      </rtept>
      <rtept lat="33.483804" lon="126.882344">
         <ele>79.48506</ele>
      </rtept>
      <rtept lat="33.483944" lon="126.882248">
         <ele>78.20833</ele>
      </rtept>
      <rtept lat="33.483982" lon="126.882177">
         <ele>77.19975</ele>
      </rtept>
      <rtept lat="33.484004" lon="126.882083">
         <ele>76.19898</ele>
      </rtept>
      <rtept lat="33.483985" lon="126.881858">
         <ele>74.69417</ele>
      </rtept>
      <rtept lat="33.483777" lon="126.881345">
         <ele>73.81155</ele>
      </rtept>
      <rtept lat="33.483735" lon="126.881125">
         <ele>73.07265</ele>
      </rtept>
      <rtept lat="33.483449" lon="126.880341">
         <ele>71.29679</ele>
      </rtept>
      <rtept lat="33.483376" lon="126.879894">
         <ele>67.70927</ele>
      </rtept>
      <rtept lat="33.483245" lon="126.879657">
         <ele>66.41132</ele>
      </rtept>
      <rtept lat="33.483252" lon="126.879518">
         <ele>64.7943</ele>
      </rtept>
      <rtept lat="33.483387" lon="126.879453">
         <ele>62.70793</ele>
      </rtept>
      <rtept lat="33.483544" lon="126.879403">
         <ele>60.50523</ele>
      </rtept>
      <rtept lat="33.483633" lon="126.879425">
         <ele>60.22216</ele>
      </rtept>
      <rtept lat="33.483712" lon="126.879509">
         <ele>60.18118</ele>
      </rtept>
      <rtept lat="33.483756" lon="126.879586">
         <ele>60.12584</ele>
      </rtept>
      <rtept lat="33.483812" lon="126.879789">
         <ele>61.60235</ele>
      </rtept>
      <rtept lat="33.483849" lon="126.880003">
         <ele>63.25124</ele>
      </rtept>
      <rtept lat="33.483912" lon="126.880116">
         <ele>63.4256</ele>
      </rtept>
      <rtept lat="33.48395" lon="126.880151">
         <ele>63.18501</ele>
      </rtept>
      <rtept lat="33.484194" lon="126.880265">
         <ele>60.39516</ele>
      </rtept>
      <rtept lat="33.484404" lon="126.880531">
         <ele>60.98921</ele>
      </rtept>
      <rtept lat="33.484643" lon="126.880771">
         <ele>62.11398</ele>
      </rtept>
      <rtept lat="33.484723" lon="126.880816">
         <ele>60</ele>
      </rtept>
      <rtept lat="33.484825" lon="126.880834">
         <ele>60</ele>
      </rtept>
      <rtept lat="33.484948" lon="126.880917">
         <ele>60</ele>
      </rtept>
      <rtept lat="33.484996" lon="126.881033">
         <ele>56.55265</ele>
      </rtept>
      <rtept lat="33.485089" lon="126.881168">
         <ele>56.21537</ele>
      </rtept>
      <rtept lat="33.485112" lon="126.881226">
         <ele>56.22445</ele>
      </rtept>
      <rtept lat="33.48512" lon="126.881478">
         <ele>57.18399</ele>
      </rtept>
      <rtept lat="33.485138" lon="126.881552">
         <ele>57.36392</ele>
      </rtept>
      <rtept lat="33.485188" lon="126.881671">
         <ele>57.431</ele>
      </rtept>
      <rtept lat="33.485246" lon="126.881732">
         <ele>57.188</ele>
      </rtept>
      <rtept lat="33.485444" lon="126.881803">
         <ele>55.73365</ele>
      </rtept>
      <rtept lat="33.485587" lon="126.881891">
         <ele>54.93208</ele>
      </rtept>
      <rtept lat="33.485852" lon="126.8819">
         <ele>50</ele>
      </rtept>
      <rtept lat="33.485999" lon="126.88192">
         <ele>50</ele>
      </rtept>
      <rtept lat="33.486091" lon="126.881953">
         <ele>50</ele>
      </rtept>
      <rtept lat="33.486268" lon="126.882095">
         <ele>50</ele>
      </rtept>
      <rtept lat="33.486409" lon="126.882134">
         <ele>50</ele>
      </rtept>
      <rtept lat="33.48657" lon="126.882137">
         <ele>50</ele>
      </rtept>
      <rtept lat="33.48665" lon="126.882242">
         <ele>50</ele>
      </rtept>
      <rtept lat="33.486703" lon="126.882285">
         <ele>50</ele>
      </rtept>
      <rtept lat="33.486777" lon="126.882316">
         <ele>50</ele>
      </rtept>
      <rtept lat="33.486832" lon="126.882315">
         <ele>50</ele>
      </rtept>
      <rtept lat="33.487027" lon="126.882196">
         <ele>50</ele>
      </rtept>
      <rtept lat="33.487243" lon="126.882116">
         <ele>50</ele>
      </rtept>
      <rtept lat="33.487485" lon="126.881976">
         <ele>50</ele>
      </rtept>
      <rtept lat="33.487547" lon="126.881904">
         <ele>50</ele>
      </rtept>
      <rtept lat="33.487669" lon="126.881703">
         <ele>50</ele>
      </rtept>
      <rtept lat="33.487723" lon="126.881649">
         <ele>50</ele>
      </rtept>
      <rtept lat="33.487797" lon="126.881604">
         <ele>50</ele>
      </rtept>
      <rtept lat="33.487944" lon="126.881597">
         <ele>50</ele>
      </rtept>
      <rtept lat="33.487938" lon="126.881854">
         <ele>50</ele>
      </rtept>
      <rtept lat="33.487905" lon="126.881965">
         <ele>50</ele>
      </rtept>
      <rtept lat="33.487829" lon="126.882088">
         <ele>50</ele>
      </rtept>
      <rtept lat="33.487758" lon="126.882159">
         <ele>50</ele>
      </rtept>
      <rtept lat="33.487702" lon="126.882283">
         <ele>50</ele>
      </rtept>
      <rtept lat="33.48782" lon="126.882693">
         <ele>50</ele>
      </rtept>
      <rtept lat="33.487821" lon="126.882761">
         <ele>50</ele>
      </rtept>
      <rtept lat="33.487739" lon="126.883002">
         <ele>50</ele>
      </rtept>
      <rtept lat="33.487696" lon="126.883071">
         <ele>50</ele>
      </rtept>
      <rtept lat="33.487612" lon="126.883124">
         <ele>50</ele>
      </rtept>
      <rtept lat="33.4874" lon="126.883098">
         <ele>50</ele>
      </rtept>
      <rtept lat="33.487336" lon="126.883112">
         <ele>50</ele>
      </rtept>
      <rtept lat="33.487283" lon="126.883156">
         <ele>50</ele>
      </rtept>
      <rtept lat="33.487191" lon="126.883344">
         <ele>50</ele>
      </rtept>
      <rtept lat="33.487169" lon="126.88346">
         <ele>50</ele>
      </rtept>
      <rtept lat="33.48718" lon="126.883842">
         <ele>50</ele>
      </rtept>
      <rtept lat="33.487153" lon="126.88415">
         <ele>50</ele>
      </rtept>
      <rtept lat="33.487116" lon="126.884388">
         <ele>50</ele>
      </rtept>
      <rtept lat="33.48703" lon="126.884657">
         <ele>50</ele>
      </rtept>
      <rtept lat="33.487037" lon="126.88472">
         <ele>50</ele>
      </rtept>
      <rtept lat="33.487153" lon="126.884896">
         <ele>50</ele>
      </rtept>
      <rtept lat="33.487486" lon="126.885194">
         <ele>50</ele>
      </rtept>
      <rtept lat="33.487689" lon="126.885491">
         <ele>40</ele>
      </rtept>
      <rtept lat="33.487911" lon="126.88572">
         <ele>40</ele>
      </rtept>
      <rtept lat="33.487937" lon="126.885811">
         <ele>40</ele>
      </rtept>
      <rtept lat="33.487933" lon="126.885963">
         <ele>40</ele>
      </rtept>
      <rtept lat="33.488034" lon="126.886224">
         <ele>40</ele>
      </rtept>
      <rtept lat="33.488084" lon="126.886424">
         <ele>40</ele>
      </rtept>
      <rtept lat="33.488113" lon="126.88647">
         <ele>40</ele>
      </rtept>
      <rtept lat="33.488163" lon="126.886518">
         <ele>40</ele>
      </rtept>
      <rtept lat="33.488248" lon="126.886549">
         <ele>40</ele>
      </rtept>
      <rtept lat="33.488293" lon="126.886542">
         <ele>40</ele>
      </rtept>
      <rtept lat="33.488383" lon="126.886564">
         <ele>40</ele>
      </rtept>
      <rtept lat="33.488485" lon="126.886554">
         <ele>40</ele>
      </rtept>
      <rtept lat="33.488609" lon="126.886578">
         <ele>40</ele>
      </rtept>
      <rtept lat="33.488711" lon="126.886653">
         <ele>40</ele>
      </rtept>
      <rtept lat="33.488784" lon="126.886753">
         <ele>40</ele>
      </rtept>
      <rtept lat="33.488815" lon="126.886831">
         <ele>40</ele>
      </rtept>
      <rtept lat="33.488826" lon="126.886935">
         <ele>40</ele>
      </rtept>
      <rtept lat="33.488811" lon="126.887102">
         <ele>40</ele>
      </rtept>
      <rtept lat="33.488759" lon="126.887223">
         <ele>40</ele>
      </rtept>
      <rtept lat="33.488735" lon="126.887346">
         <ele>40</ele>
      </rtept>
      <rtept lat="33.488806" lon="126.887453">
         <ele>40</ele>
      </rtept>
      <rtept lat="33.48898" lon="126.887549">
         <ele>30</ele>
      </rtept>
      <rtept lat="33.489156" lon="126.887714">
         <ele>30</ele>
      </rtept>
      <rtept lat="33.4895" lon="126.887916">
         <ele>30</ele>
      </rtept>
      <rtept lat="33.489606" lon="126.888012">
         <ele>30</ele>
      </rtept>
      <rtept lat="33.489742" lon="126.888172">
         <ele>30</ele>
      </rtept>
      <rtept lat="33.489948" lon="126.888255">
         <ele>30</ele>
      </rtept>
      <rtept lat="33.490181" lon="126.888286">
         <ele>30</ele>
      </rtept>
      <rtept lat="33.490492" lon="126.888292">
         <ele>30</ele>
      </rtept>
      <rtept lat="33.490617" lon="126.888939">
         <ele>20</ele>
      </rtept>
      <rtept lat="33.490691" lon="126.8892">
         <ele>20</ele>
      </rtept>
      <rtept lat="33.490842" lon="126.889588">
         <ele>20</ele>
      </rtept>
      <rtept lat="33.49106" lon="126.88998">
         <ele>20</ele>
      </rtept>
      <rtept lat="33.491236" lon="126.8908">
         <ele>20</ele>
      </rtept>
      <rtept lat="33.4914" lon="126.891458">
         <ele>20</ele>
      </rtept>
      <rtept lat="33.491542" lon="126.89216">
         <ele>20</ele>
      </rtept>
      <rtept lat="33.491725" lon="126.892606">
         <ele>20</ele>
      </rtept>
      <rtept lat="33.491731" lon="126.892764">
         <ele>20</ele>
      </rtept>
      <rtept lat="33.49169" lon="126.893157">
         <ele>20</ele>
      </rtept>
      <rtept lat="33.491721" lon="126.89333">
         <ele>20</ele>
      </rtept>
      <rtept lat="33.491864" lon="126.893657">
         <ele>20</ele>
      </rtept>
      <rtept lat="33.492259" lon="126.894465">
         <ele>10</ele>
      </rtept>
      <rtept lat="33.492408" lon="126.895051">
         <ele>10</ele>
      </rtept>
      <rtept lat="33.492689" lon="126.895897">
         <ele>10</ele>
      </rtept>
      <rtept lat="33.492715" lon="126.896387">
         <ele>10</ele>
      </rtept>
      <rtept lat="33.492983" lon="126.896892">
         <ele>10</ele>
      </rtept>
      <rtept lat="33.49284" lon="126.897663">
         <ele>10</ele>
      </rtept>
      <rtept lat="33.493183" lon="126.89835">
         <ele>10</ele>
      </rtept>
      <rtept lat="33.493113" lon="126.898728">
         <ele>10</ele>
      </rtept>
      <rtept lat="33.493343" lon="126.898964">
         <ele>10</ele>
      </rtept>
      <rtept lat="33.493029" lon="126.899985">
         <ele>10</ele>
      </rtept>
      <rtept lat="33.492607" lon="126.900029">
         <ele>10</ele>
      </rtept>
      <rtept lat="33.492602" lon="126.90032">
         <ele>10</ele>
      </rtept>
      <rtept lat="33.491561" lon="126.901825">
         <ele>10</ele>
      </rtept>
      <rtept lat="33.491375" lon="126.902137">
         <ele>10</ele>
      </rtept>
      <rtept lat="33.491043" lon="126.903192">
         <ele>10</ele>
      </rtept>
      <rtept lat="33.490978" lon="126.903768">
         <ele>10</ele>
      </rtept>
      <rtept lat="33.490782" lon="126.904312">
         <ele>10</ele>
      </rtept>
      <rtept lat="33.490333" lon="126.90482">
         <ele>10</ele>
      </rtept>
      <rtept lat="33.490264" lon="126.904805">
         <ele>10</ele>
      </rtept>
      <rtept lat="33.489606" lon="126.905223">
         <ele>10</ele>
      </rtept>
      <rtept lat="33.489431" lon="126.905334">
         <ele>10</ele>
      </rtept>
      <rtept lat="33.489366" lon="126.90532">
         <ele>10</ele>
      </rtept>
      <rtept lat="33.489133" lon="126.905066">
         <ele>10</ele>
      </rtept>
      <rtept lat="33.489031" lon="126.905028">
         <ele>10</ele>
      </rtept>
      <rtept lat="33.488864" lon="126.905072">
         <ele>10</ele>
      </rtept>
      <rtept lat="33.488427" lon="126.904146">
         <ele>10</ele>
      </rtept>
      <rtept lat="33.488006" lon="126.903627">
         <ele>10</ele>
      </rtept>
      <rtept lat="33.487487" lon="126.903179">
         <ele>10</ele>
      </rtept>
      <rtept lat="33.4873" lon="126.903045">
         <ele>10</ele>
      </rtept>
      <rtept lat="33.487045" lon="126.902892">
         <ele>10</ele>
      </rtept>
      <rtept lat="33.486235" lon="126.902352">
         <ele>10</ele>
      </rtept>
      <rtept lat="33.48589" lon="126.902156">
         <ele>10</ele>
      </rtept>
      <rtept lat="33.485738" lon="126.902127">
         <ele>10</ele>
      </rtept>
      <rtept lat="33.484485" lon="126.901849">
         <ele>10</ele>
      </rtept>
      <rtept lat="33.483934" lon="126.901768">
         <ele>10</ele>
      </rtept>
      <rtept lat="33.482297" lon="126.901715">
         <ele>10</ele>
      </rtept>
      <rtept lat="33.482026" lon="126.901749">
         <ele>10</ele>
      </rtept>
      <rtept lat="33.481716" lon="126.901849">
         <ele>10</ele>
      </rtept>
      <rtept lat="33.481424" lon="126.902059">
         <ele>10</ele>
      </rtept>
      <rtept lat="33.479936" lon="126.903284">
         <ele>10</ele>
      </rtept>
      <rtept lat="33.479451" lon="126.903753">
         <ele>10</ele>
      </rtept>
      <rtept lat="33.479291" lon="126.903977">
         <ele>10</ele>
      </rtept>
      <rtept lat="33.479179" lon="126.904181">
         <ele>10</ele>
      </rtept>
      <rtept lat="33.479035" lon="126.904552">
         <ele>10</ele>
      </rtept>
      <rtept lat="33.478287" lon="126.908013">
         <ele>10</ele>
      </rtept>
      <rtept lat="33.478206" lon="126.908335">
         <ele>10</ele>
      </rtept>
      <rtept lat="33.478175" lon="126.908321">
         <ele>10</ele>
      </rtept>
      <rtept lat="33.478206" lon="126.908335">
         <ele>10</ele>
      </rtept>
      <rtept lat="33.478178" lon="126.90843">
         <ele>10</ele>
      </rtept>
      <rtept lat="33.477851" lon="126.909254">
         <ele>10</ele>
      </rtept>
      <rtept lat="33.47775" lon="126.909452">
         <ele>10</ele>
      </rtept>
      <rtept lat="33.477628" lon="126.909629">
         <ele>10</ele>
      </rtept>
      <rtept lat="33.477438" lon="126.909817">
         <ele>10</ele>
      </rtept>
      <rtept lat="33.477223" lon="126.90995">
         <ele>10</ele>
      </rtept>
      <rtept lat="33.477097" lon="126.910004">
         <ele>10</ele>
      </rtept>
      <rtept lat="33.476109" lon="126.910191">
         <ele>10</ele>
      </rtept>
      <rtept lat="33.475965" lon="126.910233">
         <ele>10</ele>
      </rtept>
      <rtept lat="33.475759" lon="126.91032">
         <ele>10</ele>
      </rtept>
      <rtept lat="33.475375" lon="126.910554">
         <ele>10</ele>
      </rtept>
      <rtept lat="33.474837" lon="126.911037">
         <ele>10</ele>
      </rtept>
      <rtept lat="33.474652" lon="126.911164">
         <ele>10</ele>
      </rtept>
      <rtept lat="33.47457" lon="126.911207">
         <ele>10</ele>
      </rtept>
      <rtept lat="33.474301" lon="126.911285">
         <ele>10</ele>
      </rtept>
      <rtept lat="33.473684" lon="126.911437">
         <ele>10</ele>
      </rtept>
      <rtept lat="33.473549" lon="126.911489">
         <ele>10</ele>
      </rtept>
      <rtept lat="33.473384" lon="126.911582">
         <ele>10</ele>
      </rtept>
      <rtept lat="33.473287" lon="126.911649">
         <ele>10</ele>
      </rtept>
      <rtept lat="33.472662" lon="126.912189">
         <ele>10</ele>
      </rtept>
      <rtept lat="33.472479" lon="126.912375">
         <ele>10</ele>
      </rtept>
      <rtept lat="33.472336" lon="126.912577">
         <ele>10</ele>
      </rtept>
      <rtept lat="33.472171" lon="126.912927">
         <ele>10</ele>
      </rtept>
      <rtept lat="33.472026" lon="126.9135">
         <ele>10</ele>
      </rtept>
      <rtept lat="33.471954" lon="126.913905">
         <ele>10</ele>
      </rtept>
      <rtept lat="33.471941" lon="126.914111">
         <ele>10</ele>
      </rtept>
      <rtept lat="33.471993" lon="126.915782">
         <ele>10</ele>
      </rtept>
      <rtept lat="33.471986" lon="126.916103">
         <ele>10</ele>
      </rtept>
      <rtept lat="33.471925" lon="126.916367">
         <ele>10</ele>
      </rtept>
      <rtept lat="33.471846" lon="126.916535">
         <ele>10</ele>
      </rtept>
      <rtept lat="33.471791" lon="126.916615">
         <ele>10</ele>
      </rtept>
      <rtept lat="33.471623" lon="126.916802">
         <ele>10</ele>
      </rtept>
      <rtept lat="33.471236" lon="126.91706">
         <ele>10</ele>
      </rtept>
      <rtept lat="33.471109" lon="126.917187">
         <ele>10</ele>
      </rtept>
      <rtept lat="33.470599" lon="126.918067">
         <ele>10</ele>
      </rtept>
      <rtept lat="33.470202" lon="126.918646">
         <ele>10</ele>
      </rtept>
      <rtept lat="33.469452" lon="126.92004">
         <ele>10</ele>
      </rtept>
      <rtept lat="33.469178" lon="126.920612">
         <ele>10</ele>
      </rtept>
      <rtept lat="33.469205" lon="126.920644">
         <ele>10</ele>
      </rtept>
      <rtept lat="33.469178" lon="126.920612">
         <ele>10</ele>
      </rtept>
      <rtept lat="33.469296" lon="126.920752">
         <ele>10</ele>
      </rtept>
      <rtept lat="33.469363" lon="126.920894">
         <ele>10</ele>
      </rtept>
      <rtept lat="33.469503" lon="126.921216">
         <ele>10</ele>
      </rtept>
      <rtept lat="33.469587" lon="126.921368">
         <ele>10</ele>
      </rtept>
      <rtept lat="33.4697" lon="126.921483">
         <ele>10</ele>
      </rtept>
      <rtept lat="33.469866" lon="126.921615">
         <ele>10</ele>
      </rtept>
      <rtept lat="33.470044" lon="126.921722">
         <ele>10</ele>
      </rtept>
      <rtept lat="33.470183" lon="126.921822">
         <ele>10</ele>
      </rtept>
      <rtept lat="33.470259" lon="126.9219">
         <ele>10</ele>
      </rtept>
      <rtept lat="33.470334" lon="126.922007">
         <ele>10</ele>
      </rtept>
      <rtept lat="33.470379" lon="126.922106">
         <ele>10</ele>
      </rtept>
      <rtept lat="33.470399" lon="126.922194">
         <ele>10</ele>
      </rtept>
      <rtept lat="33.470315" lon="126.922465">
         <ele>10</ele>
      </rtept>
      <rtept lat="33.47011" lon="126.922576">
         <ele>10</ele>
      </rtept>
      <rtept lat="33.469994" lon="126.92254">
         <ele>10</ele>
      </rtept>
      <rtept lat="33.469862" lon="126.922541">
         <ele>10</ele>
      </rtept>
      <rtept lat="33.469195" lon="126.923028">
         <ele>10</ele>
      </rtept>
      <rtept lat="33.468886" lon="126.923227">
         <ele>10</ele>
      </rtept>
      <rtept lat="33.468767" lon="126.923233">
         <ele>10</ele>
      </rtept>
      <rtept lat="33.468783" lon="126.924203">
         <ele>10</ele>
      </rtept>
      <rtept lat="33.468765" lon="126.925589">
         <ele>10</ele>
      </rtept>
      <rtept lat="33.468737" lon="126.927824">
         <ele>10</ele>
      </rtept>
      <rtept lat="33.468604" lon="126.928729">
         <ele>10</ele>
      </rtept>
      <rtept lat="33.469241" lon="126.929235">
         <ele>10</ele>
      </rtept>
      <rtept lat="33.46934" lon="126.929373">
         <ele>10</ele>
      </rtept>
      <rtept lat="33.469491" lon="126.929514">
         <ele>10</ele>
      </rtept>
      <rtept lat="33.469815" lon="126.92969">
         <ele>10</ele>
      </rtept>
      <rtept lat="33.47104" lon="126.930581">
         <ele>10</ele>
      </rtept>
      <rtept lat="33.471203" lon="126.930716">
         <ele>10</ele>
      </rtept>
      <rtept lat="33.471152" lon="126.931187">
         <ele>10</ele>
      </rtept>
      <rtept lat="33.471169" lon="126.931422">
         <ele>10</ele>
      </rtept>
      <rtept lat="33.471248" lon="126.931659">
         <ele>10</ele>
      </rtept>
      <rtept lat="33.471332" lon="126.931797">
         <ele>10</ele>
      </rtept>
      <rtept lat="33.471418" lon="126.931889">
         <ele>10</ele>
      </rtept>
      <rtept lat="33.47158" lon="126.932382">
         <ele>10</ele>
      </rtept>
      <rtept lat="33.471791" lon="126.93327">
         <ele>10</ele>
      </rtept>
      <rtept lat="33.471783" lon="126.933284">
         <ele>10</ele>
      </rtept>
      <rtept lat="33.471692" lon="126.933434">
         <ele>10</ele>
      </rtept>
      <rtept lat="33.47114" lon="126.934094">
         <ele>10</ele>
      </rtept>
      <rtept lat="33.470891" lon="126.934345">
         <ele>10</ele>
      </rtept>
      <rtept lat="33.470554" lon="126.934429">
         <ele>10</ele>
      </rtept>
      <rtept lat="33.470285" lon="126.934595">
         <ele>14.37974</ele>
      </rtept>
      <rtept lat="33.470154" lon="126.934573">
         <ele>15.19108</ele>
      </rtept>
      <rtept lat="33.46963" lon="126.934801">
         <ele>16.00177</ele>
      </rtept>
      <rtept lat="33.469336" lon="126.935035">
         <ele>13.88626</ele>
      </rtept>
      <rtept lat="33.469243" lon="126.935185">
         <ele>13.0375</ele>
      </rtept>
      <rtept lat="33.469198" lon="126.935349">
         <ele>10</ele>
      </rtept>
      <rtept lat="33.469161" lon="126.935577">
         <ele>10</ele>
      </rtept>
      <rtept lat="33.469075" lon="126.935859">
         <ele>10</ele>
      </rtept>
      <rtept lat="33.46898" lon="126.935897">
         <ele>10</ele>
      </rtept>
      <rtept lat="33.468869" lon="126.935881">
         <ele>10</ele>
      </rtept>
      <rtept lat="33.468664" lon="126.935923">
         <ele>10</ele>
      </rtept>
      <rtept lat="33.468607" lon="126.93592">
         <ele>10</ele>
      </rtept>
      <rtept lat="33.468153" lon="126.935899">
         <ele>10</ele>
      </rtept>
      <rtept lat="33.467555" lon="126.93604">
         <ele>10</ele>
      </rtept>
      <rtept lat="33.467296" lon="126.93604">
         <ele>10</ele>
      </rtept>
      <rtept lat="33.466967" lon="126.935947">
         <ele>10</ele>
      </rtept>
      <rtept lat="33.466633" lon="126.93596">
         <ele>10</ele>
      </rtept>
      <rtept lat="33.466536" lon="126.935964">
         <ele>10</ele>
      </rtept>
      <rtept lat="33.466144" lon="126.936034">
         <ele>10</ele>
      </rtept>
      <rtept lat="33.465786" lon="126.936142">
         <ele>10</ele>
      </rtept>
      <rtept lat="33.465445" lon="126.936124">
         <ele>10</ele>
      </rtept>
      <rtept lat="33.465309" lon="126.93607">
         <ele>10</ele>
      </rtept>
      <rtept lat="33.465231" lon="126.936061">
         <ele>10</ele>
      </rtept>
      <rtept lat="33.46495" lon="126.935972">
         <ele>10</ele>
      </rtept>
      <rtept lat="33.464746" lon="126.935968">
         <ele>10</ele>
      </rtept>
      <rtept lat="33.464507" lon="126.935964">
         <ele>10</ele>
      </rtept>
      <rtept lat="33.464477" lon="126.936074">
         <ele>10</ele>
      </rtept>
      <rtept lat="33.464473" lon="126.93609">
         <ele>10</ele>
      </rtept>
      <rtept lat="33.464435" lon="126.936099">
         <ele>10</ele>
      </rtept>
      <rtept lat="33.464358" lon="126.93611">
         <ele>10</ele>
      </rtept>
      <rtept lat="33.464139" lon="126.936133">
         <ele>10</ele>
      </rtept>
      <rtept lat="33.463954" lon="126.936233">
         <ele>10</ele>
      </rtept>
      <rtept lat="33.46376" lon="126.936327">
         <ele>12.13172</ele>
      </rtept>
      <rtept lat="33.463683" lon="126.936139">
         <ele>10</ele>
      </rtept>
      <rtept lat="33.463496" lon="126.935983">
         <ele>10</ele>
      </rtept>
      <rtept lat="33.463237" lon="126.93593">
         <ele>10</ele>
      </rtept>
      <rtept lat="33.46317" lon="126.935964">
         <ele>10</ele>
      </rtept>
      <rtept lat="33.463059" lon="126.936136">
         <ele>15.57895</ele>
      </rtept>
      <rtept lat="33.462948" lon="126.936365">
         <ele>16.83168</ele>
      </rtept>
      <rtept lat="33.462891" lon="126.936412">
         <ele>17.42595</ele>
      </rtept>
      <rtept lat="33.462474" lon="126.936278">
         <ele>20</ele>
      </rtept>
      <rtept lat="33.462503" lon="126.936099">
         <ele>20</ele>
      </rtept>
      <rtept lat="33.46179" lon="126.935897">
         <ele>17.1267</ele>
      </rtept>
      <rtept lat="33.461511" lon="126.935741">
         <ele>15.41587</ele>
      </rtept>
      <rtept lat="33.461338" lon="126.935623">
         <ele>13.95599</ele>
      </rtept>
      <rtept lat="33.461404" lon="126.935397">
         <ele>12.01078</ele>
      </rtept>
      <rtept lat="33.461517" lon="126.935022">
         <ele>10</ele>
      </rtept>
      <rtept lat="33.461793" lon="126.934088">
         <ele>10</ele>
      </rtept>
      <rtept lat="33.4615" lon="126.933967">
         <ele>10</ele>
      </rtept>
      <rtept lat="33.461317" lon="126.933914" />
      <rtept lat="33.460854" lon="126.933998" />
      <rtept lat="33.460821" lon="126.933624">
         <ele>10</ele>
      </rtept>
      <rtept lat="33.460725" lon="126.933318">
         <ele>10</ele>
      </rtept>
      <rtept lat="33.460534" lon="126.932706">
         <ele>10</ele>
      </rtept>
      <rtept lat="33.460012" lon="126.931452">
         <ele>10</ele>
      </rtept>
      <rtept lat="33.459317" lon="126.930277">
         <ele>10</ele>
      </rtept>
      <rtept lat="33.459181" lon="126.929933">
         <ele>10</ele>
      </rtept>
      <rtept lat="33.458909" lon="126.929607">
         <ele>10</ele>
      </rtept>
      <rtept lat="33.458837" lon="126.929521">
         <ele>10</ele>
      </rtept>
      <rtept lat="33.457892" lon="126.928903">
         <ele>10</ele>
      </rtept>
      <rtept lat="33.457169" lon="126.92856">
         <ele>10</ele>
      </rtept>
      <rtept lat="33.456481" lon="126.927925">
         <ele>10</ele>
      </rtept>
      <rtept lat="33.456088" lon="126.927513">
         <ele>10</ele>
      </rtept>
      <rtept lat="33.455694" lon="126.927058">
         <ele>10</ele>
      </rtept>
      <rtept lat="33.454813" lon="126.926414">
         <ele>10</ele>
      </rtept>
      <rtept lat="33.453817" lon="126.92535">
         <ele>10</ele>
      </rtept>
      <rtept lat="33.453179" lon="126.92487">
         <ele>10</ele>
      </rtept>
      <rtept lat="33.452708" lon="126.924601">
         <ele>10</ele>
      </rtept>
      <rtept lat="33.451761" lon="126.924323">
         <ele>10</ele>
      </rtept>
      <rtept lat="33.451815" lon="126.924129">
         <ele>10</ele>
      </rtept>
   </rte>
</gpx>