<?xml version="1.0" encoding="utf-8"?>
<kml xmlns:gx="http://www.google.com/kml/ext/2.2" xmlns="http://www.opengis.net/kml/2.2">
  <Document>
    <Style id="base_track_style">
      <LineStyle>
        <color>7f00ffff</color>
        <width>4</width>
      </LineStyle>
    </Style>
    <Folder><Placemark>
  <styleUrl>#base_track_style</styleUrl>
  <name>route</name>
  <MultiGeometry>
    <LineString>
      <coordinates>126.510091,33.248673,80
126.510163,33.248847,80
126.508029,33.249469,80
126.508093,33.249586,80
126.508047,33.2496,80
126.507611,33.249734,80
126.507782,33.250178,80
126.507918,33.250533,90
126.507681,33.250605,90
126.507532,33.250651,90
126.507575,33.25075,90
126.507546,33.250841,90
126.507483,33.250923,90
126.507367,33.251131,90
126.507368,33.251258,90
126.507385,33.251407,90
126.507522,33.251735,94.92757
126.507536,33.251768,95.22419
126.507338,33.251819,95.23502
126.50481,33.252473,100
126.504826,33.252548,100
126.505181,33.254238,110
126.505647,33.25725,144.7581
126.505342,33.257156,143.0561
126.504386,33.256862,138.071
126.504164,33.257202,142.8546
126.503862,33.257326,145.729
126.503357,33.257326,148.8494
126.502728,33.257228,153.0303
126.502352,33.256991,152.9104
126.502044,33.256553,148.4867
126.501826,33.256167,142.5632
126.501401,33.256025,141.1836
126.500513,33.255812,135.3855
126.500166,33.255895,135.9955
126.499642,33.256061,137.608
126.499101,33.256132,136.8718
126.498828,33.255901,130.3127
126.498591,33.255865,128.4476
126.498359,33.255919,129.4006
126.498248,33.255945,130.1342
126.497908,33.256087,133.2014
126.497645,33.256109,134.1613
126.497446,33.256126,135.0528
126.496989,33.256355,139.9343
126.496867,33.256737,144.0507
126.496835,33.257101,150
126.496761,33.257211,150
126.496336,33.257457,150
126.496143,33.257667,150
126.495109,33.258371,150
126.49484,33.258327,140
126.494596,33.25849,140
126.494339,33.258762,140
126.494172,33.259079,140
126.494209,33.259372,140
126.494329,33.259643,140
126.494464,33.259906,140
126.494414,33.260176,140
126.494317,33.260874,140
126.494222,33.261631,140
126.494332,33.262975,150
126.494035,33.263649,157.3252
126.494051,33.263968,160
126.49404,33.264223,162.9225
126.493809,33.264654,170
126.493536,33.266058,180
126.493407,33.26653,180
126.494417,33.266875,190
126.495254,33.267086,190
126.49541,33.267051,190
126.495805,33.267131,180
126.496204,33.267127,180
126.496485,33.267214,180
126.496552,33.267235,180
126.496779,33.267193,180
126.497122,33.267281,180
126.497269,33.267274,180
126.497802,33.267413,180
126.498039,33.267604,180
126.498318,33.267719,190
126.498896,33.2681,191.0585
126.499086,33.268085,190.0981
126.499385,33.2682,194.2186
126.49942,33.268265,195.5033
126.499538,33.268359,197.9423
126.499471,33.26844,201.4191
126.499077,33.26826,192.6727
126.499056,33.268435,195.4682
126.498755,33.268488,194.637
126.498524,33.268567,194.9756
126.498298,33.268402,191.1207
126.498318,33.267719,190
126.498039,33.267604,180
126.497802,33.267413,180
126.497269,33.267274,180
126.497122,33.267281,180
126.497098,33.26703,180
126.497406,33.267008,180
126.498468,33.267237,180
126.498725,33.267237,180
126.499336,33.267035,190
126.499863,33.266827,193.0018
126.500111,33.266752,195.985
126.500757,33.266544,203.5807
126.501066,33.266464,206.973
126.501363,33.266411,210
126.50172,33.266372,212.9594
126.501957,33.266294,214.7986
126.502135,33.266944,217.5197
126.502151,33.267325,220.5201
126.502005,33.267471,220.055
126.50194,33.267631,221.2104
126.502196,33.267583,224.7072
126.502379,33.267512,226.8699
126.502985,33.267335,235.2592
126.503122,33.267275,236.8361
126.503277,33.267207,238.477
126.503518,33.26705,239.7031
126.503631,33.267072,241.3762
126.503872,33.267045,243.6246
126.504108,33.266965,244.7026
126.504156,33.26701,245.9838
126.504317,33.267337,248.001
126.504625,33.26754,255.7993
126.504927,33.267314,255.9843
126.505482,33.266982,256.7875
126.50582,33.26667,255.7138
126.506001,33.266352,252.0529
126.506205,33.266092,248.4103
126.506875,33.266139,254.3474
126.506698,33.266577,262.4276
126.506875,33.26676,267.4988
126.507141,33.266842,271.3116
126.507198,33.267123,276.3354
126.507277,33.267381,279.2776
126.507464,33.267685,284.6008
126.50751,33.267943,286.5764
126.507783,33.267921,288.879
126.507927,33.267569,287.3493
126.508659,33.267547,293.7393
126.509115,33.267485,298.2201
126.509553,33.267319,302.1414
126.50994,33.267131,305.0931
126.510221,33.26687,305.2332
126.510365,33.266659,303.8475
126.510459,33.266347,299.6971
126.510814,33.266218,303.4848
126.511281,33.266218,313.6462
126.512075,33.266702,343.8867
126.512652,33.266681,359.9701
126.512674,33.266659,359.7066
126.512997,33.266331,359.7539
126.513644,33.26613,358.5139
126.514143,33.26613,356.3149
126.514488,33.266285,357.9558
126.514698,33.266625,363.7247
126.514772,33.267058,369.6092
126.514692,33.267289,367.6638
126.514254,33.267496,370
126.513952,33.267583,366.5862
126.513595,33.267609,367.3433
126.513299,33.267511,368.1777
126.51304,33.267274,369.706
126.512757,33.267552,362.1829
126.512929,33.267794,362.2517
126.512891,33.267917,359.6078
126.512738,33.268418,346.5911
126.512541,33.268861,333.7319
126.512517,33.269206,325.1348
126.512942,33.269417,321.8361
126.513535,33.269634,317.1083
126.513503,33.270226,306.1199
126.513439,33.270935,300
126.513975,33.270792,300
126.51508,33.270397,298.3242
126.515982,33.270146,296.4174
126.516776,33.270011,294.4534
126.517366,33.269751,291.213
126.517934,33.269832,285.0462
126.518986,33.270173,274.2768
126.519447,33.270119,270
126.519449,33.270075,270
126.519469,33.269571,266.0515
126.519544,33.268971,263.1021
126.520111,33.267767,254.2688
126.520599,33.266805,245.098
126.520723,33.265739,241.5008
126.520871,33.265419,236.6689
126.522418,33.263321,205.4221
126.522558,33.263064,201.1847
126.522733,33.262562,195.0809
126.522971,33.262253,190
126.524347,33.261276,178.5248
126.52437,33.26113,176.596
126.524786,33.260958,174.1255
126.526094,33.26016,163.5225
126.525774,33.259179,153.4143
126.526909,33.258693,146.7906
126.527022,33.258726,146.9359
126.527323,33.258483,144.2224
126.527375,33.258436,143.7369
126.527608,33.258315,140
126.5277,33.258191,140
126.527952,33.258041,140
126.528198,33.257974,140
126.527761,33.25745,140
126.52829,33.257052,140
126.528102,33.25657,130
126.528128,33.256401,130
126.528349,33.256042,130
126.529214,33.255029,120
126.529362,33.254856,120
126.529544,33.254589,120
126.529649,33.25449,120
126.529728,33.254369,120
126.53011,33.254403,120
126.530239,33.254134,120
126.530652,33.254162,120
126.530834,33.254175,120
126.531226,33.254318,120
126.532508,33.254377,110
126.533007,33.254471,110
126.533602,33.254717,120
126.53431,33.254892,120
126.534718,33.254839,120
126.536402,33.254982,120
126.537223,33.255036,120
126.538474,33.255046,120
126.538481,33.255478,120
126.538502,33.255628,120
126.540065,33.25532,110
126.540475,33.25526,110
126.540598,33.255256,110
126.540608,33.255159,110
126.540692,33.255086,110
126.540767,33.254916,110
126.540521,33.254807,110
126.540285,33.254663,110
126.539238,33.253691,110
126.539488,33.253304,110
126.539528,33.253263,110
126.539474,33.253147,110
126.53949,33.253071,106.5195
126.539763,33.252718,109.0709
126.539963,33.252316,101.355
126.540051,33.25195,93.70293
126.540022,33.251792,91.94103
126.539768,33.251412,92.42883
126.539836,33.25118,88.09
126.539779,33.250865,87.07899
126.539821,33.250687,85.39694
126.540443,33.250499,73.97331
126.540903,33.250435,70
126.541468,33.250383,65.01156
126.541671,33.250434,60
126.541907,33.250621,60
126.541952,33.250809,60
126.545006,33.250943,60
126.545231,33.250902,60
126.545416,33.250832,60
126.545585,33.250755,60
126.54577,33.250634,60
126.54682,33.249521,60
126.546922,33.249405,60
126.547222,33.249333,60
126.548056,33.248986,60
126.548897,33.248728,60
126.549141,33.248694,60
126.54945,33.248697,60
126.549446,33.248722,60
126.549423,33.248849,60
126.549622,33.249029,60
126.550233,33.249392,60
126.550625,33.249742,57.32599
126.55099,33.250141,57.87184
126.551092,33.250343,58.32711
126.551104,33.250595,59.87342
126.551085,33.250793,58.98456
126.551354,33.251386,59.90894
126.551671,33.251607,57.03723
126.551831,33.251654,55.52428
126.551985,33.251762,54.58071
126.552227,33.252039,54.17109
126.552241,33.252034,54.04753
126.552697,33.251927,50
126.552995,33.25191,50
126.553313,33.251916,50
126.55351,33.251936,50
126.553781,33.251994,50
126.55423,33.252058,50
126.554826,33.251352,50
126.55499,33.25132,50
126.555506,33.251212,50
126.555361,33.250264,50
126.555758,33.250169,0
126.555731,33.250129,0
126.555729,33.250055,0
126.555555,33.249879,0
126.555511,33.249783,0
126.555522,33.249648,0
126.555568,33.249531,50
126.555654,33.2494,50
126.555723,33.249341,50
126.555741,33.249281,50
126.555735,33.249235,50
126.55571,33.249061,50
126.555631,33.248885,50
126.555686,33.248745,45.95957
126.55598,33.248681,47.69683
126.556189,33.248748,50
126.556419,33.248956,51.58072
126.55652,33.248898,52.59139
126.556606,33.248852,53.41687
126.55663,33.248878,53.63715
126.557195,33.248549,57.04715
126.557653,33.248245,58.06926
126.557675,33.24823,58.09372
126.558494,33.248299,60
126.558504,33.247682,58.58524
126.558506,33.247523,56.46643
126.558619,33.247523,57.52642
</coordinates>
    </LineString>
  </MultiGeometry>
</Placemark></Folder>
  </Document>
</kml>