<?xml version="1.0" encoding="utf-8"?>
<gpx version="1.1" creator="Movescount - http://www.movescount.com" xmlns:xsi="http://www.w3.org/2001/XMLSchema-instance" xsi:schemaLocation="http://www.topografix.com/GPX/1/1 http://www.topografix.com/GPX/1/1/gpx.xsd http://www.cluetrust.com/XML/GPXDATA/1/0 http://www.cluetrust.com/Schemas/gpxdata10.xsd http://www.garmin.com/xmlschemas/TrackPointExtension/v1 http://www.garmin.com/xmlschemas/TrackPointExtensionv1.xsd" xmlns:gpxdata="http://www.cluetrust.com/XML/GPXDATA/1/0" xmlns:gpxtpx="http://www.garmin.com/xmlschemas/TrackPointExtension/v1" xmlns="http://www.topografix.com/GPX/1/1">
   <rte>
      <name>ollegil 8</name>
      <rtept lat="33.243884" lon="126.457129">
         <ele>50</ele>
      </rtept>
      <rtept lat="33.24395" lon="126.457159">
         <ele>50</ele>
      </rtept>
      <rtept lat="33.244017" lon="126.457093">
         <ele>50</ele>
      </rtept>
      <rtept lat="33.243842" lon="126.456851">
         <ele>50</ele>
      </rtept>
      <rtept lat="33.243751" lon="126.456432">
         <ele>50</ele>
      </rtept>
      <rtept lat="33.243648" lon="126.45596">
         <ele>50</ele>
      </rtept>
      <rtept lat="33.243676" lon="126.455798">
         <ele>50</ele>
      </rtept>
      <rtept lat="33.243997" lon="126.455344">
         <ele>50</ele>
      </rtept>
      <rtept lat="33.244144" lon="126.454661">
         <ele>50</ele>
      </rtept>
      <rtept lat="33.244626" lon="126.454023">
         <ele>50</ele>
      </rtept>
      <rtept lat="33.245034" lon="126.45361">
         <ele>50</ele>
      </rtept>
      <rtept lat="33.245326" lon="126.452985">
         <ele>50</ele>
      </rtept>
      <rtept lat="33.245579" lon="126.452773">
         <ele>50</ele>
      </rtept>
      <rtept lat="33.245828" lon="126.452633">
         <ele>50</ele>
      </rtept>
      <rtept lat="33.246234" lon="126.452668">
         <ele>50</ele>
      </rtept>
      <rtept lat="33.24653" lon="126.452257">
         <ele>53.48338</ele>
      </rtept>
      <rtept lat="33.246671" lon="126.451987">
         <ele>55.79626</ele>
      </rtept>
      <rtept lat="33.246778" lon="126.451693">
         <ele>58.1279</ele>
      </rtept>
      <rtept lat="33.246096" lon="126.451403">
         <ele>51.40027</ele>
      </rtept>
      <rtept lat="33.246075" lon="126.451226">
         <ele>51.28455</ele>
      </rtept>
      <rtept lat="33.24601" lon="126.450979">
         <ele>49.5465</ele>
      </rtept>
      <rtept lat="33.245462" lon="126.450738">
         <ele>41.83971</ele>
      </rtept>
      <rtept lat="33.245389" lon="126.450874">
         <ele>40.96327</ele>
      </rtept>
      <rtept lat="33.245214" lon="126.450775">
         <ele>40</ele>
      </rtept>
      <rtept lat="33.245197" lon="126.450521">
         <ele>40</ele>
      </rtept>
      <rtept lat="33.245211" lon="126.450461">
         <ele>40</ele>
      </rtept>
      <rtept lat="33.245274" lon="126.450361">
         <ele>40.94997</ele>
      </rtept>
      <rtept lat="33.245463" lon="126.450165">
         <ele>42.13849</ele>
      </rtept>
      <rtept lat="33.245604" lon="126.450056">
         <ele>44.61615</ele>
      </rtept>
      <rtept lat="33.245877" lon="126.449885">
         <ele>49.29776</ele>
      </rtept>
      <rtept lat="33.245941" lon="126.449764">
         <ele>49.37471</ele>
      </rtept>
      <rtept lat="33.245907" lon="126.449147">
         <ele>50</ele>
      </rtept>
      <rtept lat="33.245836" lon="126.449149">
         <ele>50</ele>
      </rtept>
      <rtept lat="33.245568" lon="126.449154">
         <ele>48.37898</ele>
      </rtept>
      <rtept lat="33.245568" lon="126.448979">
         <ele>49.37482</ele>
      </rtept>
      <rtept lat="33.245683" lon="126.448368">
         <ele>50</ele>
      </rtept>
      <rtept lat="33.245738" lon="126.448221">
         <ele>50</ele>
      </rtept>
      <rtept lat="33.245728" lon="126.448024">
         <ele>50</ele>
      </rtept>
      <rtept lat="33.245669" lon="126.447763">
         <ele>50</ele>
      </rtept>
      <rtept lat="33.245613" lon="126.447513">
         <ele>50</ele>
      </rtept>
      <rtept lat="33.245495" lon="126.447271">
         <ele>49.89312</ele>
      </rtept>
      <rtept lat="33.245268" lon="126.447135">
         <ele>46.92465</ele>
      </rtept>
      <rtept lat="33.245316" lon="126.446883">
         <ele>48.05984</ele>
      </rtept>
      <rtept lat="33.245313" lon="126.446478">
         <ele>48.80219</ele>
      </rtept>
      <rtept lat="33.245354" lon="126.446278">
         <ele>50</ele>
      </rtept>
      <rtept lat="33.245451" lon="126.445972">
         <ele>50</ele>
      </rtept>
      <rtept lat="33.245584" lon="126.445136">
         <ele>56.62353</ele>
      </rtept>
      <rtept lat="33.24554" lon="126.44495">
         <ele>57.83493</ele>
      </rtept>
      <rtept lat="33.245385" lon="126.44474">
         <ele>58.51686</ele>
      </rtept>
      <rtept lat="33.245322" lon="126.444481">
         <ele>59.58903</ele>
      </rtept>
      <rtept lat="33.24531" lon="126.444358">
         <ele>60</ele>
      </rtept>
      <rtept lat="33.245005" lon="126.444364">
         <ele>58.55196</ele>
      </rtept>
      <rtept lat="33.244882" lon="126.444339">
         <ele>57.47757</ele>
      </rtept>
      <rtept lat="33.244835" lon="126.444299">
         <ele>57.28783</ele>
      </rtept>
      <rtept lat="33.244475" lon="126.443982">
         <ele>54.53647</ele>
      </rtept>
      <rtept lat="33.244181" lon="126.443859">
         <ele>49.57137</ele>
      </rtept>
      <rtept lat="33.24381" lon="126.443612">
         <ele>43.45447</ele>
      </rtept>
      <rtept lat="33.243619" lon="126.443409">
         <ele>40.45639</ele>
      </rtept>
      <rtept lat="33.243331" lon="126.443267">
         <ele>35.68649</ele>
      </rtept>
      <rtept lat="33.243181" lon="126.443261">
         <ele>33.74633</ele>
      </rtept>
      <rtept lat="33.242989" lon="126.443307">
         <ele>31.18905</ele>
      </rtept>
      <rtept lat="33.242674" lon="126.443393">
         <ele>30</ele>
      </rtept>
      <rtept lat="33.242318" lon="126.443343">
         <ele>30</ele>
      </rtept>
      <rtept lat="33.242108" lon="126.443492">
         <ele>20</ele>
      </rtept>
      <rtept lat="33.241936" lon="126.44354">
         <ele>20</ele>
      </rtept>
      <rtept lat="33.241605" lon="126.443393">
         <ele>20</ele>
      </rtept>
      <rtept lat="33.241341" lon="126.443275">
         <ele>20</ele>
      </rtept>
      <rtept lat="33.241053" lon="126.443269">
         <ele>20</ele>
      </rtept>
      <rtept lat="33.240974" lon="126.443217">
         <ele>20</ele>
      </rtept>
      <rtept lat="33.240884" lon="126.443159">
         <ele>20</ele>
      </rtept>
      <rtept lat="33.239827" lon="126.442686">
         <ele>10</ele>
      </rtept>
      <rtept lat="33.239623" lon="126.442742">
         <ele>10</ele>
      </rtept>
      <rtept lat="33.239382" lon="126.442756">
         <ele>10</ele>
      </rtept>
      <rtept lat="33.239326" lon="126.442745">
         <ele>10</ele>
      </rtept>
      <rtept lat="33.239129" lon="126.442958">
         <ele>10</ele>
      </rtept>
      <rtept lat="33.238949" lon="126.443109">
         <ele>10</ele>
      </rtept>
      <rtept lat="33.238887" lon="126.443235">
         <ele>10</ele>
      </rtept>
      <rtept lat="33.238887" lon="126.443364">
         <ele>10</ele>
      </rtept>
      <rtept lat="33.238858" lon="126.44347">
         <ele>10</ele>
      </rtept>
      <rtept lat="33.238854" lon="126.443484">
         <ele>10</ele>
      </rtept>
      <rtept lat="33.23862" lon="126.443522">
         <ele>10</ele>
      </rtept>
      <rtept lat="33.237858" lon="126.442831">
         <ele>10</ele>
      </rtept>
      <rtept lat="33.237689" lon="126.442848">
         <ele>10</ele>
      </rtept>
      <rtept lat="33.237355" lon="126.442482">
         <ele>10</ele>
      </rtept>
      <rtept lat="33.237311" lon="126.442317">
         <ele>10</ele>
      </rtept>
      <rtept lat="33.2373" lon="126.442205">
         <ele>10</ele>
      </rtept>
      <rtept lat="33.237295" lon="126.442154" />
      <rtept lat="33.237387" lon="126.441918" />
      <rtept lat="33.237474" lon="126.441778" />
      <rtept lat="33.237687" lon="126.441506">
         <ele>10</ele>
      </rtept>
      <rtept lat="33.238008" lon="126.4414">
         <ele>10</ele>
      </rtept>
      <rtept lat="33.238236" lon="126.441349">
         <ele>10</ele>
      </rtept>
      <rtept lat="33.238327" lon="126.441275">
         <ele>10</ele>
      </rtept>
      <rtept lat="33.238452" lon="126.440981">
         <ele>10</ele>
      </rtept>
      <rtept lat="33.238446" lon="126.440818">
         <ele>10</ele>
      </rtept>
      <rtept lat="33.238413" lon="126.440691">
         <ele>10</ele>
      </rtept>
      <rtept lat="33.238351" lon="126.440567">
         <ele>10</ele>
      </rtept>
      <rtept lat="33.23816" lon="126.440322">
         <ele>10</ele>
      </rtept>
      <rtept lat="33.238191" lon="126.439891">
         <ele>10</ele>
      </rtept>
      <rtept lat="33.238297" lon="126.439684">
         <ele>10</ele>
      </rtept>
      <rtept lat="33.238391" lon="126.439577">
         <ele>10</ele>
      </rtept>
      <rtept lat="33.238467" lon="126.439517">
         <ele>10</ele>
      </rtept>
      <rtept lat="33.238487" lon="126.439501">
         <ele>10</ele>
      </rtept>
      <rtept lat="33.238473" lon="126.439371">
         <ele>10</ele>
      </rtept>
      <rtept lat="33.238578" lon="126.439269">
         <ele>10</ele>
      </rtept>
      <rtept lat="33.238856" lon="126.439287">
         <ele>10</ele>
      </rtept>
      <rtept lat="33.23896" lon="126.439166">
         <ele>10</ele>
      </rtept>
      <rtept lat="33.239098" lon="126.438852">
         <ele>10</ele>
      </rtept>
      <rtept lat="33.239116" lon="126.438575">
         <ele>10</ele>
      </rtept>
      <rtept lat="33.239106" lon="126.438128">
         <ele>10</ele>
      </rtept>
      <rtept lat="33.239096" lon="126.437689">
         <ele>12.4931</ele>
      </rtept>
      <rtept lat="33.238973" lon="126.437202">
         <ele>15.32182</ele>
      </rtept>
      <rtept lat="33.238869" lon="126.436894">
         <ele>20</ele>
      </rtept>
      <rtept lat="33.238887" lon="126.436694">
         <ele>20</ele>
      </rtept>
      <rtept lat="33.238639" lon="126.436687">
         <ele>20</ele>
      </rtept>
      <rtept lat="33.238309" lon="126.436716">
         <ele>10</ele>
      </rtept>
      <rtept lat="33.238127" lon="126.436759">
         <ele>10</ele>
      </rtept>
      <rtept lat="33.238059" lon="126.436739">
         <ele>10</ele>
      </rtept>
      <rtept lat="33.237848" lon="126.436599">
         <ele>10</ele>
      </rtept>
      <rtept lat="33.237692" lon="126.436496">
         <ele>10</ele>
      </rtept>
      <rtept lat="33.237007" lon="126.436159">
         <ele>10</ele>
      </rtept>
      <rtept lat="33.237002" lon="126.435858">
         <ele>10</ele>
      </rtept>
      <rtept lat="33.236845" lon="126.435542">
         <ele>10</ele>
      </rtept>
      <rtept lat="33.236772" lon="126.435048">
         <ele>10</ele>
      </rtept>
      <rtept lat="33.235991" lon="126.434501">
         <ele>10</ele>
      </rtept>
      <rtept lat="33.235458" lon="126.433965">
         <ele>10</ele>
      </rtept>
      <rtept lat="33.235346" lon="126.432968">
         <ele>10</ele>
      </rtept>
      <rtept lat="33.235256" lon="126.432172">
         <ele>10</ele>
      </rtept>
      <rtept lat="33.235603" lon="126.431658">
         <ele>10</ele>
      </rtept>
      <rtept lat="33.23589" lon="126.43115">
         <ele>10</ele>
      </rtept>
      <rtept lat="33.236329" lon="126.430279">
         <ele>10</ele>
      </rtept>
      <rtept lat="33.236402" lon="126.430056">
         <ele>10</ele>
      </rtept>
      <rtept lat="33.236407" lon="126.42957">
         <ele>10</ele>
      </rtept>
      <rtept lat="33.236389" lon="126.429354">
         <ele>10</ele>
      </rtept>
      <rtept lat="33.236218" lon="126.428817">
         <ele>10</ele>
      </rtept>
      <rtept lat="33.236174" lon="126.428599">
         <ele>10</ele>
      </rtept>
      <rtept lat="33.236196" lon="126.428335">
         <ele>10</ele>
      </rtept>
      <rtept lat="33.236401" lon="126.42789">
         <ele>10</ele>
      </rtept>
      <rtept lat="33.236623" lon="126.427687">
         <ele>10</ele>
      </rtept>
      <rtept lat="33.23689" lon="126.427485">
         <ele>10</ele>
      </rtept>
      <rtept lat="33.237159" lon="126.42734">
         <ele>10</ele>
      </rtept>
      <rtept lat="33.237684" lon="126.426676">
         <ele>12.52726</ele>
      </rtept>
      <rtept lat="33.237737" lon="126.42658">
         <ele>13.35965</ele>
      </rtept>
      <rtept lat="33.237754" lon="126.426493">
         <ele>13.75282</ele>
      </rtept>
      <rtept lat="33.237732" lon="126.426422">
         <ele>13.65268</ele>
      </rtept>
      <rtept lat="33.237704" lon="126.426279">
         <ele>13.53373</ele>
      </rtept>
      <rtept lat="33.237738" lon="126.426121">
         <ele>13.85659</ele>
      </rtept>
      <rtept lat="33.237822" lon="126.425877">
         <ele>14.20253</ele>
      </rtept>
      <rtept lat="33.237796" lon="126.425643">
         <ele>13.06006</ele>
      </rtept>
      <rtept lat="33.237864" lon="126.424831">
         <ele>10.81698</ele>
      </rtept>
      <rtept lat="33.237885" lon="126.42478">
         <ele>10.88896</ele>
      </rtept>
      <rtept lat="33.238572" lon="126.424024">
         <ele>13.87216</ele>
      </rtept>
      <rtept lat="33.23869" lon="126.423863">
         <ele>13.6529</ele>
      </rtept>
      <rtept lat="33.238792" lon="126.42378">
         <ele>13.85465</ele>
      </rtept>
      <rtept lat="33.238886" lon="126.423739">
         <ele>14.36889</ele>
      </rtept>
      <rtept lat="33.239137" lon="126.423754">
         <ele>17.00618</ele>
      </rtept>
      <rtept lat="33.239268" lon="126.423722">
         <ele>18.04886</ele>
      </rtept>
      <rtept lat="33.239633" lon="126.423404">
         <ele>18.24443</ele>
      </rtept>
      <rtept lat="33.239683" lon="126.423324">
         <ele>17.82125</ele>
      </rtept>
      <rtept lat="33.23995" lon="126.422523">
         <ele>11.97762</ele>
      </rtept>
      <rtept lat="33.24001" lon="126.422421">
         <ele>11.42732</ele>
      </rtept>
      <rtept lat="33.241436" lon="126.421014">
         <ele>10</ele>
      </rtept>
      <rtept lat="33.241522" lon="126.420913">
         <ele>10</ele>
      </rtept>
      <rtept lat="33.24155" lon="126.420828">
         <ele>10</ele>
      </rtept>
      <rtept lat="33.241597" lon="126.420757">
         <ele>10</ele>
      </rtept>
      <rtept lat="33.241675" lon="126.420729">
         <ele>10</ele>
      </rtept>
      <rtept lat="33.24168" lon="126.420647">
         <ele>10</ele>
      </rtept>
      <rtept lat="33.241713" lon="126.420579">
         <ele>10</ele>
      </rtept>
      <rtept lat="33.241751" lon="126.420546">
         <ele>10</ele>
      </rtept>
      <rtept lat="33.241911" lon="126.42055">
         <ele>10</ele>
      </rtept>
      <rtept lat="33.241955" lon="126.42046">
         <ele>10</ele>
      </rtept>
      <rtept lat="33.242183" lon="126.420174">
         <ele>10</ele>
      </rtept>
      <rtept lat="33.242286" lon="126.419973">
         <ele>10</ele>
      </rtept>
      <rtept lat="33.242423" lon="126.419758">
         <ele>10</ele>
      </rtept>
      <rtept lat="33.242525" lon="126.419492">
         <ele>10</ele>
      </rtept>
      <rtept lat="33.242612" lon="126.419425">
         <ele>10</ele>
      </rtept>
      <rtept lat="33.24269" lon="126.4194">
         <ele>10</ele>
      </rtept>
      <rtept lat="33.242899" lon="126.419581">
         <ele>10</ele>
      </rtept>
      <rtept lat="33.242681" lon="126.419972">
         <ele>10</ele>
      </rtept>
      <rtept lat="33.242799" lon="126.420068">
         <ele>10</ele>
      </rtept>
      <rtept lat="33.243019" lon="126.420131">
         <ele>10</ele>
      </rtept>
      <rtept lat="33.243573" lon="126.420553">
         <ele>15.34543</ele>
      </rtept>
      <rtept lat="33.243732" lon="126.420292">
         <ele>14.8006</ele>
      </rtept>
      <rtept lat="33.244183" lon="126.419861">
         <ele>13.51628</ele>
      </rtept>
      <rtept lat="33.244609" lon="126.419297">
         <ele>10.18219</ele>
      </rtept>
      <rtept lat="33.245015" lon="126.418664">
         <ele>10</ele>
      </rtept>
      <rtept lat="33.245045" lon="126.418617">
         <ele>10</ele>
      </rtept>
      <rtept lat="33.245256" lon="126.418638">
         <ele>12.01019</ele>
      </rtept>
      <rtept lat="33.245368" lon="126.41873">
         <ele>13.22848</ele>
      </rtept>
      <rtept lat="33.245421" lon="126.4188">
         <ele>13.94149</ele>
      </rtept>
      <rtept lat="33.245432" lon="126.41885">
         <ele>14.28484</ele>
      </rtept>
      <rtept lat="33.245458" lon="126.418841">
         <ele>14.42066</ele>
      </rtept>
      <rtept lat="33.245699" lon="126.418501">
         <ele>15.24794</ele>
      </rtept>
      <rtept lat="33.245918" lon="126.41845">
         <ele>20</ele>
      </rtept>
      <rtept lat="33.245993" lon="126.418344">
         <ele>20</ele>
      </rtept>
      <rtept lat="33.246294" lon="126.41833">
         <ele>20</ele>
      </rtept>
      <rtept lat="33.246344" lon="126.418342">
         <ele>20</ele>
      </rtept>
      <rtept lat="33.246379" lon="126.418312">
         <ele>20</ele>
      </rtept>
      <rtept lat="33.246148" lon="126.418042">
         <ele>20</ele>
      </rtept>
      <rtept lat="33.245882" lon="126.417889">
         <ele>20</ele>
      </rtept>
      <rtept lat="33.245553" lon="126.417767">
         <ele>17.81982</ele>
      </rtept>
      <rtept lat="33.245281" lon="126.417726">
         <ele>15.77162</ele>
      </rtept>
      <rtept lat="33.245074" lon="126.417667">
         <ele>14.3388</ele>
      </rtept>
      <rtept lat="33.245033" lon="126.417621">
         <ele>14.20618</ele>
      </rtept>
      <rtept lat="33.244868" lon="126.417524">
         <ele>13.23129</ele>
      </rtept>
      <rtept lat="33.244722" lon="126.417545">
         <ele>10</ele>
      </rtept>
      <rtept lat="33.244545" lon="126.417176">
         <ele>10</ele>
      </rtept>
      <rtept lat="33.244305" lon="126.416675">
         <ele>10</ele>
      </rtept>
      <rtept lat="33.244234" lon="126.416364">
         <ele>10</ele>
      </rtept>
      <rtept lat="33.244226" lon="126.416253">
         <ele>10</ele>
      </rtept>
      <rtept lat="33.244192" lon="126.416222">
         <ele>10</ele>
      </rtept>
      <rtept lat="33.244169" lon="126.416126">
         <ele>10</ele>
      </rtept>
      <rtept lat="33.244147" lon="126.415917">
         <ele>10</ele>
      </rtept>
      <rtept lat="33.243826" lon="126.41595">
         <ele>10</ele>
      </rtept>
      <rtept lat="33.243563" lon="126.415877">
         <ele>10</ele>
      </rtept>
      <rtept lat="33.24354" lon="126.415844">
         <ele>10</ele>
      </rtept>
      <rtept lat="33.243488" lon="126.415666">
         <ele>10</ele>
      </rtept>
      <rtept lat="33.243497" lon="126.415474">
         <ele>10</ele>
      </rtept>
      <rtept lat="33.243568" lon="126.415278">
         <ele>10</ele>
      </rtept>
      <rtept lat="33.243617" lon="126.415082">
         <ele>10</ele>
      </rtept>
      <rtept lat="33.243656" lon="126.415042">
         <ele>10</ele>
      </rtept>
      <rtept lat="33.243826" lon="126.414984">
         <ele>10</ele>
      </rtept>
      <rtept lat="33.243922" lon="126.41486">
         <ele>10</ele>
      </rtept>
      <rtept lat="33.244006" lon="126.414669">
         <ele>10</ele>
      </rtept>
      <rtept lat="33.244265" lon="126.414561">
         <ele>10</ele>
      </rtept>
      <rtept lat="33.244398" lon="126.414531">
         <ele>10</ele>
      </rtept>
      <rtept lat="33.24441" lon="126.414408">
         <ele>10</ele>
      </rtept>
      <rtept lat="33.244336" lon="126.41417">
         <ele>10</ele>
      </rtept>
      <rtept lat="33.244337" lon="126.41391">
         <ele>10</ele>
      </rtept>
      <rtept lat="33.244492" lon="126.41357">
         <ele>10</ele>
      </rtept>
      <rtept lat="33.24493" lon="126.413437">
         <ele>10.1431</ele>
      </rtept>
      <rtept lat="33.245229" lon="126.41307">
         <ele>13.88345</ele>
      </rtept>
      <rtept lat="33.245226" lon="126.412623">
         <ele>14.10002</ele>
      </rtept>
      <rtept lat="33.245223" lon="126.412063">
         <ele>14.55003</ele>
      </rtept>
      <rtept lat="33.245252" lon="126.411397">
         <ele>14.20642</ele>
      </rtept>
      <rtept lat="33.245193" lon="126.410966">
         <ele>12.27442</ele>
      </rtept>
      <rtept lat="33.245044" lon="126.410107">
         <ele>11.81888</ele>
      </rtept>
      <rtept lat="33.244946" lon="126.409206">
         <ele>11.16905</ele>
      </rtept>
      <rtept lat="33.244924" lon="126.408525">
         <ele>11.90112</ele>
      </rtept>
      <rtept lat="33.244873" lon="126.407749">
         <ele>13.88837</ele>
      </rtept>
      <rtept lat="33.244754" lon="126.407265">
         <ele>15.45421</ele>
      </rtept>
      <rtept lat="33.244551" lon="126.406894">
         <ele>15.24441</ele>
      </rtept>
      <rtept lat="33.244451" lon="126.406728">
         <ele>16.67491</ele>
      </rtept>
      <rtept lat="33.244516" lon="126.406537">
         <ele>23.18812</ele>
      </rtept>
      <rtept lat="33.244645" lon="126.406496">
         <ele>25.15229</ele>
      </rtept>
      <rtept lat="33.244754" lon="126.406399">
         <ele>26.89213</ele>
      </rtept>
      <rtept lat="33.24487" lon="126.406244">
         <ele>28.83087</ele>
      </rtept>
      <rtept lat="33.244927" lon="126.406045">
         <ele>29.6651</ele>
      </rtept>
      <rtept lat="33.245446" lon="126.405935">
         <ele>34.67193</ele>
      </rtept>
      <rtept lat="33.245516" lon="126.405945">
         <ele>35.27475</ele>
      </rtept>
      <rtept lat="33.24567" lon="126.405967">
         <ele>36.51613</ele>
      </rtept>
      <rtept lat="33.246177" lon="126.406148">
         <ele>40</ele>
      </rtept>
      <rtept lat="33.246368" lon="126.406167">
         <ele>41.38891</ele>
      </rtept>
      <rtept lat="33.246918" lon="126.406588">
         <ele>48.096</ele>
      </rtept>
      <rtept lat="33.24712" lon="126.406714">
         <ele>50.10111</ele>
      </rtept>
      <rtept lat="33.247275" lon="126.406751">
         <ele>50.83398</ele>
      </rtept>
      <rtept lat="33.247859" lon="126.406765">
         <ele>53.76932</ele>
      </rtept>
      <rtept lat="33.248256" lon="126.406901">
         <ele>57.2086</ele>
      </rtept>
      <rtept lat="33.248613" lon="126.407101">
         <ele>60</ele>
      </rtept>
      <rtept lat="33.249055" lon="126.40738">
         <ele>60</ele>
      </rtept>
      <rtept lat="33.249376" lon="126.407491">
         <ele>60</ele>
      </rtept>
      <rtept lat="33.250207" lon="126.407471">
         <ele>60</ele>
      </rtept>
      <rtept lat="33.250207" lon="126.407489">
         <ele>60</ele>
      </rtept>
      <rtept lat="33.250275" lon="126.410635">
         <ele>70</ele>
      </rtept>
      <rtept lat="33.250302" lon="126.411038">
         <ele>70</ele>
      </rtept>
      <rtept lat="33.25038" lon="126.411439">
         <ele>70</ele>
      </rtept>
      <rtept lat="33.250589" lon="126.411816">
         <ele>70</ele>
      </rtept>
      <rtept lat="33.250697" lon="126.41193">
         <ele>70</ele>
      </rtept>
      <rtept lat="33.250909" lon="126.4121">
         <ele>70</ele>
      </rtept>
      <rtept lat="33.252183" lon="126.412693">
         <ele>80</ele>
      </rtept>
      <rtept lat="33.255176" lon="126.414127">
         <ele>100</ele>
      </rtept>
      <rtept lat="33.255809" lon="126.412656">
         <ele>110</ele>
      </rtept>
      <rtept lat="33.256081" lon="126.41193">
         <ele>110</ele>
      </rtept>
      <rtept lat="33.256949" lon="126.408942">
         <ele>110</ele>
      </rtept>
      <rtept lat="33.257266" lon="126.407918">
         <ele>100</ele>
      </rtept>
      <rtept lat="33.257755" lon="126.406668">
         <ele>100</ele>
      </rtept>
      <rtept lat="33.257999" lon="126.406099">
         <ele>100</ele>
      </rtept>
      <rtept lat="33.258184" lon="126.405547">
         <ele>100</ele>
      </rtept>
      <rtept lat="33.25807" lon="126.405366">
         <ele>100</ele>
      </rtept>
      <rtept lat="33.257176" lon="126.403304">
         <ele>90</ele>
      </rtept>
      <rtept lat="33.256832" lon="126.402564">
         <ele>90</ele>
      </rtept>
      <rtept lat="33.25656" lon="126.402198">
         <ele>90</ele>
      </rtept>
      <rtept lat="33.256186" lon="126.401872">
         <ele>90</ele>
      </rtept>
      <rtept lat="33.255921" lon="126.401702">
         <ele>87.51111</ele>
      </rtept>
      <rtept lat="33.253978" lon="126.400642">
         <ele>83.67025</ele>
      </rtept>
      <rtept lat="33.252459" lon="126.399859">
         <ele>70</ele>
      </rtept>
      <rtept lat="33.252021" lon="126.399606">
         <ele>64.11963</ele>
      </rtept>
      <rtept lat="33.251838" lon="126.399456">
         <ele>60</ele>
      </rtept>
      <rtept lat="33.251543" lon="126.399146">
         <ele>60</ele>
      </rtept>
      <rtept lat="33.251368" lon="126.398876">
         <ele>60</ele>
      </rtept>
      <rtept lat="33.250839" lon="126.398163">
         <ele>60</ele>
      </rtept>
      <rtept lat="33.25055" lon="126.398152">
         <ele>60</ele>
      </rtept>
      <rtept lat="33.250199" lon="126.398044">
         <ele>60</ele>
      </rtept>
      <rtept lat="33.249805" lon="126.39806">
         <ele>55.02761</ele>
      </rtept>
      <rtept lat="33.249704" lon="126.398135">
         <ele>50</ele>
      </rtept>
      <rtept lat="33.249567" lon="126.398007">
         <ele>50</ele>
      </rtept>
      <rtept lat="33.249329" lon="126.397975">
         <ele>50</ele>
      </rtept>
      <rtept lat="33.249187" lon="126.397885">
         <ele>50</ele>
      </rtept>
      <rtept lat="33.249051" lon="126.397926">
         <ele>50</ele>
      </rtept>
      <rtept lat="33.248653" lon="126.397853">
         <ele>50</ele>
      </rtept>
      <rtept lat="33.248544" lon="126.397788">
         <ele>50</ele>
      </rtept>
      <rtept lat="33.248368" lon="126.397583">
         <ele>50</ele>
      </rtept>
      <rtept lat="33.248161" lon="126.397406">
         <ele>40</ele>
      </rtept>
      <rtept lat="33.247901" lon="126.397358">
         <ele>40</ele>
      </rtept>
      <rtept lat="33.24769" lon="126.397183">
         <ele>40</ele>
      </rtept>
      <rtept lat="33.247457" lon="126.397139">
         <ele>40</ele>
      </rtept>
      <rtept lat="33.247224" lon="126.397033">
         <ele>40</ele>
      </rtept>
      <rtept lat="33.247116" lon="126.397049">
         <ele>40</ele>
      </rtept>
      <rtept lat="33.247001" lon="126.39701">
         <ele>40</ele>
      </rtept>
      <rtept lat="33.24677" lon="126.396896">
         <ele>40</ele>
      </rtept>
      <rtept lat="33.246207" lon="126.396712">
         <ele>40</ele>
      </rtept>
      <rtept lat="33.245947" lon="126.396092">
         <ele>40</ele>
      </rtept>
      <rtept lat="33.245915" lon="126.395296">
         <ele>40</ele>
      </rtept>
      <rtept lat="33.245828" lon="126.395164">
         <ele>40</ele>
      </rtept>
      <rtept lat="33.244836" lon="126.394781">
         <ele>40</ele>
      </rtept>
      <rtept lat="33.244935" lon="126.394422">
         <ele>40</ele>
      </rtept>
      <rtept lat="33.245151" lon="126.394153">
         <ele>40</ele>
      </rtept>
      <rtept lat="33.244958" lon="126.394056">
         <ele>40</ele>
      </rtept>
      <rtept lat="33.24475" lon="126.39366">
         <ele>40</ele>
      </rtept>
      <rtept lat="33.244799" lon="126.393152">
         <ele>40</ele>
      </rtept>
      <rtept lat="33.244635" lon="126.392821">
         <ele>40</ele>
      </rtept>
      <rtept lat="33.244702" lon="126.39247">
         <ele>40</ele>
      </rtept>
      <rtept lat="33.244704" lon="126.392282">
         <ele>40</ele>
      </rtept>
      <rtept lat="33.244416" lon="126.391979">
         <ele>40</ele>
      </rtept>
      <rtept lat="33.244263" lon="126.391559">
         <ele>40</ele>
      </rtept>
      <rtept lat="33.243816" lon="126.391142">
         <ele>30</ele>
      </rtept>
      <rtept lat="33.243289" lon="126.390533">
         <ele>30</ele>
      </rtept>
      <rtept lat="33.243218" lon="126.3902">
         <ele>30</ele>
      </rtept>
      <rtept lat="33.242804" lon="126.389712">
         <ele>30</ele>
      </rtept>
      <rtept lat="33.242756" lon="126.389238">
         <ele>30</ele>
      </rtept>
      <rtept lat="33.242436" lon="126.388678">
         <ele>30</ele>
      </rtept>
      <rtept lat="33.242058" lon="126.388558">
         <ele>30</ele>
      </rtept>
      <rtept lat="33.241702" lon="126.388501">
         <ele>30</ele>
      </rtept>
      <rtept lat="33.241229" lon="126.388523">
         <ele>20</ele>
      </rtept>
      <rtept lat="33.240791" lon="126.38869">
         <ele>20</ele>
      </rtept>
      <rtept lat="33.240666" lon="126.389032">
         <ele>20</ele>
      </rtept>
      <rtept lat="33.240151" lon="126.389556">
         <ele>20</ele>
      </rtept>
      <rtept lat="33.239999" lon="126.390177">
         <ele>10</ele>
      </rtept>
      <rtept lat="33.239788" lon="126.390483">
         <ele>10</ele>
      </rtept>
      <rtept lat="33.23963" lon="126.390568">
         <ele>10</ele>
      </rtept>
      <rtept lat="33.238967" lon="126.390624">
         <ele>10</ele>
      </rtept>
      <rtept lat="33.238506" lon="126.391043">
         <ele>10</ele>
      </rtept>
      <rtept lat="33.238479" lon="126.391084">
         <ele>10</ele>
      </rtept>
      <rtept lat="33.23836" lon="126.391263" />
      <rtept lat="33.237941" lon="126.390544" />
      <rtept lat="33.237662" lon="126.390121" />
      <rtept lat="33.237567" lon="126.389798" />
      <rtept lat="33.237505" lon="126.389503" />
      <rtept lat="33.237385" lon="126.389204" />
      <rtept lat="33.237347" lon="126.38907" />
      <rtept lat="33.237221" lon="126.389005" />
      <rtept lat="33.237041" lon="126.388857" />
      <rtept lat="33.236691" lon="126.388637" />
      <rtept lat="33.236587" lon="126.388534" />
      <rtept lat="33.236452" lon="126.388336" />
      <rtept lat="33.236114" lon="126.387448" />
      <rtept lat="33.235993" lon="126.387238" />
      <rtept lat="33.235908" lon="126.387032">
         <ele>10</ele>
      </rtept>
      <rtept lat="33.235807" lon="126.386863">
         <ele>10</ele>
      </rtept>
      <rtept lat="33.235666" lon="126.386691">
         <ele>10</ele>
      </rtept>
      <rtept lat="33.235531" lon="126.386262">
         <ele>10</ele>
      </rtept>
      <rtept lat="33.235405" lon="126.386048">
         <ele>10</ele>
      </rtept>
      <rtept lat="33.235298" lon="126.385916">
         <ele>10</ele>
      </rtept>
      <rtept lat="33.234782" lon="126.385177">
         <ele>10</ele>
      </rtept>
      <rtept lat="33.234466" lon="126.38485">
         <ele>10</ele>
      </rtept>
      <rtept lat="33.23404" lon="126.384608">
         <ele>10</ele>
      </rtept>
      <rtept lat="33.233938" lon="126.384449">
         <ele>10</ele>
      </rtept>
      <rtept lat="33.233759" lon="126.384295">
         <ele>10</ele>
      </rtept>
      <rtept lat="33.233653" lon="126.384141">
         <ele>10</ele>
      </rtept>
      <rtept lat="33.233626" lon="126.384001">
         <ele>10</ele>
      </rtept>
      <rtept lat="33.233817" lon="126.383566">
         <ele>10</ele>
      </rtept>
      <rtept lat="33.233927" lon="126.383384">
         <ele>10</ele>
      </rtept>
      <rtept lat="33.233938" lon="126.383006">
         <ele>10</ele>
      </rtept>
      <rtept lat="33.234017" lon="126.382884">
         <ele>10</ele>
      </rtept>
      <rtept lat="33.234227" lon="126.38266">
         <ele>10</ele>
      </rtept>
      <rtept lat="33.23438" lon="126.382427">
         <ele>10</ele>
      </rtept>
      <rtept lat="33.234477" lon="126.382207">
         <ele>10</ele>
      </rtept>
      <rtept lat="33.234528" lon="126.381871">
         <ele>10</ele>
      </rtept>
      <rtept lat="33.234528" lon="126.381698">
         <ele>10</ele>
      </rtept>
      <rtept lat="33.234618" lon="126.381535">
         <ele>10</ele>
      </rtept>
      <rtept lat="33.234716" lon="126.381194">
         <ele>10</ele>
      </rtept>
      <rtept lat="33.234751" lon="126.380895">
         <ele>10</ele>
      </rtept>
      <rtept lat="33.234731" lon="126.380409">
         <ele>10</ele>
      </rtept>
      <rtept lat="33.23479" lon="126.380152">
         <ele>10</ele>
      </rtept>
      <rtept lat="33.234767" lon="126.379429">
         <ele>10.23253</ele>
      </rtept>
      <rtept lat="33.234591" lon="126.378943">
         <ele>13.05969</ele>
      </rtept>
      <rtept lat="33.234431" lon="126.378695">
         <ele>13.28703</ele>
      </rtept>
      <rtept lat="33.234313" lon="126.378476">
         <ele>13.50934</ele>
      </rtept>
      <rtept lat="33.234082" lon="126.378281">
         <ele>12.91028</ele>
      </rtept>
      <rtept lat="33.234001" lon="126.378205">
         <ele>10</ele>
      </rtept>
      <rtept lat="33.233774" lon="126.378158">
         <ele>10</ele>
      </rtept>
      <rtept lat="33.233657" lon="126.377986">
         <ele>10</ele>
      </rtept>
      <rtept lat="33.233501" lon="126.377631">
         <ele>10</ele>
      </rtept>
      <rtept lat="33.233548" lon="126.377411">
         <ele>10</ele>
      </rtept>
      <rtept lat="33.233599" lon="126.37729">
         <ele>10</ele>
      </rtept>
      <rtept lat="33.233716" lon="126.376771">
         <ele>10</ele>
      </rtept>
      <rtept lat="33.233821" lon="126.376575">
         <ele>10</ele>
      </rtept>
      <rtept lat="33.233899" lon="126.376304">
         <ele>10</ele>
      </rtept>
      <rtept lat="33.233977" lon="126.376108">
         <ele>10</ele>
      </rtept>
      <rtept lat="33.234134" lon="126.375921">
         <ele>10</ele>
      </rtept>
      <rtept lat="33.234153" lon="126.375651">
         <ele>10</ele>
      </rtept>
      <rtept lat="33.234071" lon="126.375356">
         <ele>10</ele>
      </rtept>
      <rtept lat="33.233915" lon="126.375076">
         <ele>10</ele>
      </rtept>
      <rtept lat="33.233681" lon="126.374969">
         <ele>10</ele>
      </rtept>
      <rtept lat="33.233481" lon="126.374833">
         <ele>10</ele>
      </rtept>
      <rtept lat="33.233345" lon="126.374436">
         <ele>10</ele>
      </rtept>
      <rtept lat="33.233251" lon="126.374086">
         <ele>10</ele>
      </rtept>
      <rtept lat="33.233142" lon="126.373614">
         <ele>10</ele>
      </rtept>
      <rtept lat="33.233091" lon="126.373227">
         <ele>10</ele>
      </rtept>
      <rtept lat="33.233027" lon="126.372924">
         <ele>10</ele>
      </rtept>
      <rtept lat="33.232917" lon="126.372675">
         <ele>10</ele>
      </rtept>
      <rtept lat="33.23277" lon="126.37225">
         <ele>10</ele>
      </rtept>
      <rtept lat="33.232502" lon="126.371855">
         <ele>10</ele>
      </rtept>
      <rtept lat="33.232363" lon="126.371707">
         <ele>10</ele>
      </rtept>
      <rtept lat="33.232218" lon="126.371113">
         <ele>10</ele>
      </rtept>
      <rtept lat="33.232105" lon="126.370795">
         <ele>10</ele>
      </rtept>
      <rtept lat="33.231937" lon="126.370472">
         <ele>10</ele>
      </rtept>
      <rtept lat="33.231778" lon="126.370219">
         <ele>10</ele>
      </rtept>
      <rtept lat="33.231729" lon="126.36964">
         <ele>10</ele>
      </rtept>
      <rtept lat="33.231698" lon="126.369464">
         <ele>10</ele>
      </rtept>
      <rtept lat="33.2317" lon="126.36932">
         <ele>10</ele>
      </rtept>
      <rtept lat="33.231731" lon="126.369246">
         <ele>10</ele>
      </rtept>
      <rtept lat="33.231793" lon="126.369169">
         <ele>10</ele>
      </rtept>
      <rtept lat="33.23203" lon="126.369098">
         <ele>10</ele>
      </rtept>
      <rtept lat="33.232472" lon="126.368818">
         <ele>10</ele>
      </rtept>
      <rtept lat="33.232829" lon="126.368599" />
      <rtept lat="33.232929" lon="126.368297" />
      <rtept lat="33.233021" lon="126.3681" />
      <rtept lat="33.232873" lon="126.367961" />
      <rtept lat="33.232267" lon="126.367493" />
      <rtept lat="33.232221" lon="126.367428" />
      <rtept lat="33.23203" lon="126.367243" />
      <rtept lat="33.231989" lon="126.367151" />
      <rtept lat="33.231968" lon="126.366886" />
      <rtept lat="33.232051" lon="126.36582" />
      <rtept lat="33.232113" lon="126.365551" />
      <rtept lat="33.232376" lon="126.365144" />
      <rtept lat="33.232633" lon="126.364701" />
      <rtept lat="33.23304" lon="126.364267" />
      <rtept lat="33.233185" lon="126.364187" />
      <rtept lat="33.233847" lon="126.36406" />
      <rtept lat="33.23396" lon="126.364037" />
      <rtept lat="33.234035" lon="126.363937" />
      <rtept lat="33.234087" lon="126.363786" />
      <rtept lat="33.234112" lon="126.363567" />
      <rtept lat="33.234149" lon="126.363472" />
      <rtept lat="33.234254" lon="126.363361" />
      <rtept lat="33.23452" lon="126.363225" />
      <rtept lat="33.234587" lon="126.363139" />
      <rtept lat="33.234628" lon="126.363028" />
      <rtept lat="33.234708" lon="126.362966" />
      <rtept lat="33.235017" lon="126.3628" />
      <rtept lat="33.235221" lon="126.362738" />
      <rtept lat="33.235365" lon="126.362726" />
      <rtept lat="33.235541" lon="126.362758" />
      <rtept lat="33.235646" lon="126.363019" />
      <rtept lat="33.235985" lon="126.362924" />
      <rtept lat="33.235994" lon="126.362897" />
      <rtept lat="33.236101" lon="126.362581" />
      <rtept lat="33.236209" lon="126.36206" />
      <rtept lat="33.236254" lon="126.36198" />
      <rtept lat="33.236422" lon="126.361953" />
      <rtept lat="33.23655" lon="126.362039" />
      <rtept lat="33.236752" lon="126.36231" />
      <rtept lat="33.23702" lon="126.362498" />
      <rtept lat="33.237133" lon="126.362414" />
      <rtept lat="33.237398" lon="126.3619" />
      <rtept lat="33.237294" lon="126.36162" />
   </rte>
</gpx>