<?xml version="1.0" encoding="utf-8"?>
<gpx version="1.1" creator="Movescount - http://www.movescount.com" xmlns:xsi="http://www.w3.org/2001/XMLSchema-instance" xsi:schemaLocation="http://www.topografix.com/GPX/1/1 http://www.topografix.com/GPX/1/1/gpx.xsd http://www.cluetrust.com/XML/GPXDATA/1/0 http://www.cluetrust.com/Schemas/gpxdata10.xsd http://www.garmin.com/xmlschemas/TrackPointExtension/v1 http://www.garmin.com/xmlschemas/TrackPointExtensionv1.xsd" xmlns:gpxdata="http://www.cluetrust.com/XML/GPXDATA/1/0" xmlns:gpxtpx="http://www.garmin.com/xmlschemas/TrackPointExtension/v1" xmlns="http://www.topografix.com/GPX/1/1">
   <rte>
      <name>ollegil 14-1</name>
      <rtept lat="33.333536" lon="126.256289">
         <ele>120</ele>
      </rtept>
      <rtept lat="33.333539" lon="126.256328">
         <ele>120</ele>
      </rtept>
      <rtept lat="33.333166" lon="126.256375">
         <ele>120</ele>
      </rtept>
      <rtept lat="33.332956" lon="126.256357">
         <ele>120</ele>
      </rtept>
      <rtept lat="33.332991" lon="126.256492">
         <ele>120</ele>
      </rtept>
      <rtept lat="33.332939" lon="126.256676">
         <ele>120</ele>
      </rtept>
      <rtept lat="33.332806" lon="126.256888">
         <ele>120</ele>
      </rtept>
      <rtept lat="33.332606" lon="126.257114">
         <ele>120</ele>
      </rtept>
      <rtept lat="33.332375" lon="126.257503">
         <ele>120</ele>
      </rtept>
      <rtept lat="33.331847" lon="126.25799">
         <ele>120</ele>
      </rtept>
      <rtept lat="33.331759" lon="126.258138">
         <ele>120</ele>
      </rtept>
      <rtept lat="33.331731" lon="126.258225">
         <ele>120</ele>
      </rtept>
      <rtept lat="33.332582" lon="126.259162">
         <ele>120</ele>
      </rtept>
      <rtept lat="33.333439" lon="126.260054">
         <ele>120</ele>
      </rtept>
      <rtept lat="33.334319" lon="126.261054">
         <ele>110</ele>
      </rtept>
      <rtept lat="33.334382" lon="126.261153">
         <ele>110</ele>
      </rtept>
      <rtept lat="33.334441" lon="126.261207">
         <ele>110</ele>
      </rtept>
      <rtept lat="33.334856" lon="126.261355">
         <ele>110</ele>
      </rtept>
      <rtept lat="33.334929" lon="126.261459">
         <ele>110</ele>
      </rtept>
      <rtept lat="33.334948" lon="126.261531">
         <ele>110</ele>
      </rtept>
      <rtept lat="33.334921" lon="126.261792">
         <ele>110</ele>
      </rtept>
      <rtept lat="33.334827" lon="126.261917">
         <ele>110</ele>
      </rtept>
      <rtept lat="33.33488" lon="126.262009">
         <ele>110</ele>
      </rtept>
      <rtept lat="33.335028" lon="126.262272">
         <ele>110</ele>
      </rtept>
      <rtept lat="33.335144" lon="126.262334">
         <ele>110</ele>
      </rtept>
      <rtept lat="33.33536" lon="126.262386">
         <ele>110</ele>
      </rtept>
      <rtept lat="33.335357" lon="126.262546">
         <ele>110</ele>
      </rtept>
      <rtept lat="33.335326" lon="126.262765">
         <ele>110</ele>
      </rtept>
      <rtept lat="33.33537" lon="126.262947">
         <ele>110</ele>
      </rtept>
      <rtept lat="33.335453" lon="126.26311">
         <ele>110</ele>
      </rtept>
      <rtept lat="33.335579" lon="126.263253">
         <ele>110</ele>
      </rtept>
      <rtept lat="33.335707" lon="126.263326" />
      <rtept lat="33.335804" lon="126.263327" />
      <rtept lat="33.335845" lon="126.263586" />
      <rtept lat="33.335292" lon="126.26416">
         <ele>110</ele>
      </rtept>
      <rtept lat="33.335158" lon="126.264369">
         <ele>110</ele>
      </rtept>
      <rtept lat="33.334373" lon="126.265241">
         <ele>110</ele>
      </rtept>
      <rtept lat="33.334242" lon="126.265418">
         <ele>110</ele>
      </rtept>
      <rtept lat="33.334172" lon="126.265512" />
      <rtept lat="33.333907" lon="126.265626" />
      <rtept lat="33.333552" lon="126.265729" />
      <rtept lat="33.33333" lon="126.265978" />
      <rtept lat="33.333282" lon="126.2662" />
      <rtept lat="33.333299" lon="126.266437" />
      <rtept lat="33.333022" lon="126.267096">
         <ele>120</ele>
      </rtept>
      <rtept lat="33.332843" lon="126.267313">
         <ele>120</ele>
      </rtept>
      <rtept lat="33.332438" lon="126.267318">
         <ele>120</ele>
      </rtept>
      <rtept lat="33.332299" lon="126.267417">
         <ele>120</ele>
      </rtept>
      <rtept lat="33.332148" lon="126.267483">
         <ele>120</ele>
      </rtept>
      <rtept lat="33.332041" lon="126.267731">
         <ele>124.4447</ele>
      </rtept>
      <rtept lat="33.331645" lon="126.267919">
         <ele>130</ele>
      </rtept>
      <rtept lat="33.331405" lon="126.268277">
         <ele>130</ele>
      </rtept>
      <rtept lat="33.33134" lon="126.268518">
         <ele>130</ele>
      </rtept>
      <rtept lat="33.331343" lon="126.268911">
         <ele>134.3372</ele>
      </rtept>
      <rtept lat="33.331231" lon="126.270092">
         <ele>140</ele>
      </rtept>
      <rtept lat="33.331292" lon="126.270409">
         <ele>140</ele>
      </rtept>
      <rtept lat="33.331352" lon="126.270579">
         <ele>140</ele>
      </rtept>
      <rtept lat="33.331375" lon="126.270769">
         <ele>140</ele>
      </rtept>
      <rtept lat="33.331284" lon="126.271084">
         <ele>140</ele>
      </rtept>
      <rtept lat="33.331269" lon="126.27128">
         <ele>150</ele>
      </rtept>
      <rtept lat="33.331523" lon="126.271527">
         <ele>150</ele>
      </rtept>
      <rtept lat="33.331414" lon="126.271936">
         <ele>150</ele>
      </rtept>
      <rtept lat="33.331455" lon="126.272266">
         <ele>150</ele>
      </rtept>
      <rtept lat="33.331503" lon="126.272465">
         <ele>150</ele>
      </rtept>
      <rtept lat="33.331589" lon="126.2727">
         <ele>150</ele>
      </rtept>
      <rtept lat="33.33168" lon="126.272795">
         <ele>150</ele>
      </rtept>
      <rtept lat="33.331948" lon="126.272945">
         <ele>150</ele>
      </rtept>
      <rtept lat="33.331977" lon="126.272961">
         <ele>150</ele>
      </rtept>
      <rtept lat="33.332065" lon="126.273092">
         <ele>150</ele>
      </rtept>
      <rtept lat="33.332209" lon="126.273489">
         <ele>150</ele>
      </rtept>
      <rtept lat="33.33234" lon="126.273587">
         <ele>150</ele>
      </rtept>
      <rtept lat="33.332399" lon="126.273715">
         <ele>150</ele>
      </rtept>
      <rtept lat="33.332576" lon="126.273927">
         <ele>150</ele>
      </rtept>
      <rtept lat="33.332641" lon="126.274334">
         <ele>140</ele>
      </rtept>
      <rtept lat="33.332899" lon="126.274869">
         <ele>140</ele>
      </rtept>
      <rtept lat="33.333206" lon="126.275039">
         <ele>140</ele>
      </rtept>
      <rtept lat="33.333408" lon="126.275471">
         <ele>140</ele>
      </rtept>
      <rtept lat="33.333615" lon="126.275485">
         <ele>140</ele>
      </rtept>
      <rtept lat="33.333793" lon="126.275573">
         <ele>140</ele>
      </rtept>
      <rtept lat="33.33382" lon="126.275978">
         <ele>140</ele>
      </rtept>
      <rtept lat="33.333835" lon="126.27609">
         <ele>140</ele>
      </rtept>
      <rtept lat="33.333839" lon="126.276187">
         <ele>140</ele>
      </rtept>
      <rtept lat="33.333832" lon="126.276376">
         <ele>140</ele>
      </rtept>
      <rtept lat="33.333729" lon="126.276697">
         <ele>140</ele>
      </rtept>
      <rtept lat="33.33372" lon="126.276842">
         <ele>140</ele>
      </rtept>
      <rtept lat="33.333767" lon="126.277127">
         <ele>140</ele>
      </rtept>
      <rtept lat="33.333882" lon="126.277468">
         <ele>140</ele>
      </rtept>
      <rtept lat="33.333903" lon="126.277769">
         <ele>140</ele>
      </rtept>
      <rtept lat="33.334005" lon="126.27842">
         <ele>140</ele>
      </rtept>
      <rtept lat="33.334072" lon="126.278997">
         <ele>150</ele>
      </rtept>
      <rtept lat="33.333991" lon="126.27929">
         <ele>150</ele>
      </rtept>
      <rtept lat="33.33378" lon="126.279769">
         <ele>150</ele>
      </rtept>
      <rtept lat="33.3334" lon="126.280859">
         <ele>160</ele>
      </rtept>
      <rtept lat="33.333219" lon="126.281808">
         <ele>160</ele>
      </rtept>
      <rtept lat="33.333094" lon="126.282542">
         <ele>160</ele>
      </rtept>
      <rtept lat="33.332992" lon="126.283371">
         <ele>170</ele>
      </rtept>
      <rtept lat="33.332931" lon="126.284518">
         <ele>170</ele>
      </rtept>
      <rtept lat="33.332741" lon="126.285371">
         <ele>170</ele>
      </rtept>
      <rtept lat="33.33253" lon="126.286111">
         <ele>180</ele>
      </rtept>
      <rtept lat="33.331953" lon="126.287843">
         <ele>180</ele>
      </rtept>
      <rtept lat="33.33162" lon="126.289591">
         <ele>180</ele>
      </rtept>
      <rtept lat="33.331491" lon="126.290079">
         <ele>190</ele>
      </rtept>
      <rtept lat="33.331185" lon="126.290648">
         <ele>190</ele>
      </rtept>
      <rtept lat="33.330832" lon="126.291478">
         <ele>190</ele>
      </rtept>
      <rtept lat="33.33037" lon="126.292242">
         <ele>200</ele>
      </rtept>
      <rtept lat="33.329596" lon="126.29325">
         <ele>200</ele>
      </rtept>
      <rtept lat="33.329317" lon="126.294218">
         <ele>210</ele>
      </rtept>
      <rtept lat="33.329344" lon="126.294633">
         <ele>210</ele>
      </rtept>
      <rtept lat="33.329168" lon="126.294925">
         <ele>210.5167</ele>
      </rtept>
      <rtept lat="33.329134" lon="126.295511">
         <ele>215.2716</ele>
      </rtept>
      <rtept lat="33.328957" lon="126.295966">
         <ele>220</ele>
      </rtept>
      <rtept lat="33.328745" lon="126.296286">
         <ele>221.3069</ele>
      </rtept>
      <rtept lat="33.328433" lon="126.296156">
         <ele>225.9469</ele>
      </rtept>
      <rtept lat="33.328215" lon="126.295928">
         <ele>229.4245</ele>
      </rtept>
      <rtept lat="33.327782" lon="126.295727">
         <ele>230</ele>
      </rtept>
      <rtept lat="33.327526" lon="126.296008">
         <ele>230</ele>
      </rtept>
      <rtept lat="33.327257" lon="126.295906">
         <ele>230</ele>
      </rtept>
      <rtept lat="33.327112" lon="126.295515">
         <ele>235.5563</ele>
      </rtept>
      <rtept lat="33.32703" lon="126.295414">
         <ele>235.8855</ele>
      </rtept>
      <rtept lat="33.326749" lon="126.295069">
         <ele>236.0813</ele>
      </rtept>
      <rtept lat="33.326299" lon="126.294822">
         <ele>233.7173</ele>
      </rtept>
      <rtept lat="33.325661" lon="126.29479">
         <ele>229.9648</ele>
      </rtept>
      <rtept lat="33.325308" lon="126.295213">
         <ele>228.6941</ele>
      </rtept>
      <rtept lat="33.325036" lon="126.295912">
         <ele>230</ele>
      </rtept>
      <rtept lat="33.325199" lon="126.296693">
         <ele>230</ele>
      </rtept>
      <rtept lat="33.325443" lon="126.297164">
         <ele>230</ele>
      </rtept>
      <rtept lat="33.324846" lon="126.297538">
         <ele>230</ele>
      </rtept>
      <rtept lat="33.324465" lon="126.29705">
         <ele>230</ele>
      </rtept>
      <rtept lat="33.324248" lon="126.296823">
         <ele>230</ele>
      </rtept>
      <rtept lat="33.323922" lon="126.296709">
         <ele>230</ele>
      </rtept>
      <rtept lat="33.323609" lon="126.296416">
         <ele>230</ele>
      </rtept>
      <rtept lat="33.32331" lon="126.295619">
         <ele>220</ele>
      </rtept>
      <rtept lat="33.323337" lon="126.295099">
         <ele>220</ele>
      </rtept>
      <rtept lat="33.323663" lon="126.294432">
         <ele>220</ele>
      </rtept>
      <rtept lat="33.32365" lon="126.294026">
         <ele>210</ele>
      </rtept>
      <rtept lat="33.323487" lon="126.29331">
         <ele>210</ele>
      </rtept>
      <rtept lat="33.323636" lon="126.292286">
         <ele>210</ele>
      </rtept>
      <rtept lat="33.323636" lon="126.291489">
         <ele>200</ele>
      </rtept>
      <rtept lat="33.323922" lon="126.290741">
         <ele>195.1768</ele>
      </rtept>
      <rtept lat="33.324098" lon="126.289781">
         <ele>190</ele>
      </rtept>
      <rtept lat="33.324044" lon="126.289342">
         <ele>190</ele>
      </rtept>
      <rtept lat="33.323813" lon="126.288822">
         <ele>180</ele>
      </rtept>
      <rtept lat="33.323283" lon="126.28848">
         <ele>180</ele>
      </rtept>
      <rtept lat="33.322889" lon="126.288171">
         <ele>180</ele>
      </rtept>
      <rtept lat="33.32244" lon="126.287635">
         <ele>180</ele>
      </rtept>
      <rtept lat="33.32225" lon="126.286984">
         <ele>170</ele>
      </rtept>
      <rtept lat="33.322291" lon="126.286594">
         <ele>170</ele>
      </rtept>
      <rtept lat="33.32225" lon="126.286139">
         <ele>170</ele>
      </rtept>
      <rtept lat="33.321856" lon="126.285862">
         <ele>170</ele>
      </rtept>
      <rtept lat="33.321571" lon="126.285618">
         <ele>170</ele>
      </rtept>
      <rtept lat="33.321476" lon="126.285157">
         <ele>170</ele>
      </rtept>
      <rtept lat="33.321359" lon="126.285216">
         <ele>170</ele>
      </rtept>
      <rtept lat="33.321231" lon="126.285248">
         <ele>170</ele>
      </rtept>
      <rtept lat="33.321088" lon="126.285313">
         <ele>170</ele>
      </rtept>
      <rtept lat="33.321021" lon="126.285468">
         <ele>170</ele>
      </rtept>
      <rtept lat="33.320792" lon="126.285771">
         <ele>170</ele>
      </rtept>
      <rtept lat="33.320712" lon="126.285895" />
      <rtept lat="33.320537" lon="126.286367">
         <ele>170</ele>
      </rtept>
      <rtept lat="33.320395" lon="126.286452">
         <ele>170</ele>
      </rtept>
      <rtept lat="33.319817" lon="126.286396">
         <ele>170</ele>
      </rtept>
      <rtept lat="33.318584" lon="126.285649">
         <ele>170</ele>
      </rtept>
      <rtept lat="33.317866" lon="126.284976">
         <ele>170</ele>
      </rtept>
      <rtept lat="33.317562" lon="126.284278">
         <ele>170</ele>
      </rtept>
      <rtept lat="33.317352" lon="126.283577">
         <ele>170</ele>
      </rtept>
      <rtept lat="33.317032" lon="126.28335">
         <ele>170</ele>
      </rtept>
      <rtept lat="33.316706" lon="126.283455">
         <ele>170</ele>
      </rtept>
      <rtept lat="33.316461" lon="126.283984">
         <ele>170</ele>
      </rtept>
      <rtept lat="33.316162" lon="126.284325">
         <ele>170</ele>
      </rtept>
      <rtept lat="33.315727" lon="126.284341">
         <ele>170</ele>
      </rtept>
      <rtept lat="33.314851" lon="126.28413">
         <ele>170</ele>
      </rtept>
      <rtept lat="33.314119" lon="126.284435">
         <ele>170</ele>
      </rtept>
      <rtept lat="33.31362" lon="126.28479">
         <ele>170</ele>
      </rtept>
      <rtept lat="33.313027" lon="126.284696">
         <ele>170</ele>
      </rtept>
      <rtept lat="33.312574" lon="126.284248">
         <ele>170</ele>
      </rtept>
      <rtept lat="33.312049" lon="126.284055">
         <ele>170</ele>
      </rtept>
      <rtept lat="33.311723" lon="126.283989">
         <ele>170</ele>
      </rtept>
      <rtept lat="33.311665" lon="126.284012">
         <ele>170</ele>
      </rtept>
      <rtept lat="33.311545" lon="126.284175">
         <ele>170</ele>
      </rtept>
      <rtept lat="33.311467" lon="126.284177">
         <ele>170</ele>
      </rtept>
      <rtept lat="33.311417" lon="126.284103">
         <ele>170</ele>
      </rtept>
      <rtept lat="33.311367" lon="126.28376">
         <ele>160</ele>
      </rtept>
      <rtept lat="33.311261" lon="126.283562">
         <ele>160</ele>
      </rtept>
      <rtept lat="33.311241" lon="126.283524">
         <ele>160</ele>
      </rtept>
      <rtept lat="33.311108" lon="126.283427">
         <ele>160</ele>
      </rtept>
      <rtept lat="33.310993" lon="126.283105">
         <ele>160</ele>
      </rtept>
      <rtept lat="33.310905" lon="126.282744">
         <ele>160</ele>
      </rtept>
      <rtept lat="33.310758" lon="126.282496">
         <ele>160</ele>
      </rtept>
      <rtept lat="33.310436" lon="126.282406">
         <ele>160</ele>
      </rtept>
      <rtept lat="33.310211" lon="126.282443">
         <ele>160</ele>
      </rtept>
      <rtept lat="33.309855" lon="126.282799">
         <ele>160</ele>
      </rtept>
      <rtept lat="33.309617" lon="126.283115">
         <ele>160</ele>
      </rtept>
      <rtept lat="33.309348" lon="126.28466">
         <ele>160</ele>
      </rtept>
      <rtept lat="33.309124" lon="126.284682">
         <ele>160</ele>
      </rtept>
      <rtept lat="33.308976" lon="126.285025">
         <ele>160</ele>
      </rtept>
      <rtept lat="33.308738" lon="126.285261">
         <ele>160</ele>
      </rtept>
      <rtept lat="33.308263" lon="126.285706">
         <ele>160</ele>
      </rtept>
      <rtept lat="33.307648" lon="126.286146">
         <ele>150</ele>
      </rtept>
      <rtept lat="33.307464" lon="126.286318">
         <ele>150</ele>
      </rtept>
      <rtept lat="33.307432" lon="126.286452">
         <ele>150</ele>
      </rtept>
      <rtept lat="33.307451" lon="126.286613">
         <ele>150</ele>
      </rtept>
      <rtept lat="33.307408" lon="126.286677">
         <ele>150</ele>
      </rtept>
      <rtept lat="33.307401" lon="126.286881">
         <ele>150</ele>
      </rtept>
      <rtept lat="33.307329" lon="126.287031">
         <ele>150</ele>
      </rtept>
      <rtept lat="33.307255" lon="126.287123">
         <ele>150</ele>
      </rtept>
      <rtept lat="33.307096" lon="126.287385">
         <ele>150</ele>
      </rtept>
      <rtept lat="33.307123" lon="126.287554">
         <ele>150</ele>
      </rtept>
      <rtept lat="33.307069" lon="126.28767">
         <ele>150</ele>
      </rtept>
      <rtept lat="33.307054" lon="126.287925">
         <ele>150</ele>
      </rtept>
      <rtept lat="33.307028" lon="126.288085">
         <ele>150</ele>
      </rtept>
      <rtept lat="33.307069" lon="126.288306">
         <ele>150</ele>
      </rtept>
   </rte>
</gpx>