<?xml version="1.0" encoding="utf-8"?>
<gpx version="1.1" creator="Movescount - http://www.movescount.com" xmlns:xsi="http://www.w3.org/2001/XMLSchema-instance" xsi:schemaLocation="http://www.topografix.com/GPX/1/1 http://www.topografix.com/GPX/1/1/gpx.xsd http://www.cluetrust.com/XML/GPXDATA/1/0 http://www.cluetrust.com/Schemas/gpxdata10.xsd http://www.garmin.com/xmlschemas/TrackPointExtension/v1 http://www.garmin.com/xmlschemas/TrackPointExtensionv1.xsd" xmlns:gpxdata="http://www.cluetrust.com/XML/GPXDATA/1/0" xmlns:gpxtpx="http://www.garmin.com/xmlschemas/TrackPointExtension/v1" xmlns="http://www.topografix.com/GPX/1/1">
   <rte>
      <name>jeju ollegil 3B</name>
      <rtept lat="33.404989" lon="126.904117" />
      <rtept lat="33.404974" lon="126.904131" />
      <rtept lat="33.404886" lon="126.903995" />
      <rtept lat="33.40464" lon="126.904017" />
      <rtept lat="33.40473" lon="126.903722" />
      <rtept lat="33.404712" lon="126.903713" />
      <rtept lat="33.404572" lon="126.903638" />
      <rtept lat="33.404456" lon="126.903618" />
      <rtept lat="33.403938" lon="126.903603" />
      <rtept lat="33.403787" lon="126.903522" />
      <rtept lat="33.403484" lon="126.902984" />
      <rtept lat="33.40333" lon="126.902883" />
      <rtept lat="33.40255" lon="126.902917" />
      <rtept lat="33.402141" lon="126.90285" />
      <rtept lat="33.401881" lon="126.902775" />
      <rtept lat="33.401744" lon="126.902792" />
      <rtept lat="33.401648" lon="126.902836" />
      <rtept lat="33.401567" lon="126.902895" />
      <rtept lat="33.40138" lon="126.903066" />
      <rtept lat="33.401095" lon="126.903321" />
      <rtept lat="33.400971" lon="126.903455" />
      <rtept lat="33.400955" lon="126.903473" />
      <rtept lat="33.400805" lon="126.90363" />
      <rtept lat="33.400655" lon="126.903907" />
      <rtept lat="33.400615" lon="126.903981" />
      <rtept lat="33.400411" lon="126.904158" />
      <rtept lat="33.400084" lon="126.904398" />
      <rtept lat="33.399879" lon="126.904514" />
      <rtept lat="33.399278" lon="126.904853" />
      <rtept lat="33.398884" lon="126.905178" />
      <rtept lat="33.398534" lon="126.905481" />
      <rtept lat="33.397945" lon="126.906155" />
      <rtept lat="33.397822" lon="126.906255" />
      <rtept lat="33.397728" lon="126.906285" />
      <rtept lat="33.397719" lon="126.906173" />
      <rtept lat="33.397832" lon="126.905991" />
      <rtept lat="33.397921" lon="126.905715" />
      <rtept lat="33.397924" lon="126.905602" />
      <rtept lat="33.397926" lon="126.905526" />
      <rtept lat="33.39779" lon="126.905528" />
      <rtept lat="33.397672" lon="126.905487" />
      <rtept lat="33.397512" lon="126.905379" />
      <rtept lat="33.397278" lon="126.905253" />
      <rtept lat="33.397091" lon="126.905188" />
      <rtept lat="33.397003" lon="126.905094" />
      <rtept lat="33.396914" lon="126.904795">
         <ele>10</ele>
      </rtept>
      <rtept lat="33.396856" lon="126.904682">
         <ele>10</ele>
      </rtept>
      <rtept lat="33.396761" lon="126.904622">
         <ele>10</ele>
      </rtept>
      <rtept lat="33.396775" lon="126.904247">
         <ele>10</ele>
      </rtept>
      <rtept lat="33.396732" lon="126.903997">
         <ele>10</ele>
      </rtept>
      <rtept lat="33.39665" lon="126.903894">
         <ele>10</ele>
      </rtept>
      <rtept lat="33.396541" lon="126.9036">
         <ele>10</ele>
      </rtept>
      <rtept lat="33.396483" lon="126.903371">
         <ele>10</ele>
      </rtept>
      <rtept lat="33.396481" lon="126.903158">
         <ele>10</ele>
      </rtept>
      <rtept lat="33.396628" lon="126.903031">
         <ele>10</ele>
      </rtept>
      <rtept lat="33.396709" lon="126.902997">
         <ele>10</ele>
      </rtept>
      <rtept lat="33.39688" lon="126.902992">
         <ele>10</ele>
      </rtept>
      <rtept lat="33.397001" lon="126.902903">
         <ele>10</ele>
      </rtept>
      <rtept lat="33.396767" lon="126.902783">
         <ele>10</ele>
      </rtept>
      <rtept lat="33.396591" lon="126.902615">
         <ele>10</ele>
      </rtept>
      <rtept lat="33.396487" lon="126.902493" />
      <rtept lat="33.396272" lon="126.902292" />
      <rtept lat="33.396116" lon="126.902278" />
      <rtept lat="33.395972" lon="126.902297" />
      <rtept lat="33.395699" lon="126.902348" />
      <rtept lat="33.395457" lon="126.90246" />
      <rtept lat="33.395336" lon="126.902633" />
      <rtept lat="33.395022" lon="126.90289" />
      <rtept lat="33.394976" lon="126.90275" />
      <rtept lat="33.394773" lon="126.902528" />
      <rtept lat="33.394683" lon="126.902367" />
      <rtept lat="33.394683" lon="126.902309" />
      <rtept lat="33.394258" lon="126.902237" />
      <rtept lat="33.394114" lon="126.902003" />
      <rtept lat="33.394069" lon="126.901671">
         <ele>20</ele>
      </rtept>
      <rtept lat="33.39401" lon="126.901633">
         <ele>20</ele>
      </rtept>
      <rtept lat="33.393818" lon="126.901559">
         <ele>20</ele>
      </rtept>
      <rtept lat="33.393504" lon="126.901494" />
      <rtept lat="33.393287" lon="126.901364" />
      <rtept lat="33.393223" lon="126.901354" />
      <rtept lat="33.393114" lon="126.901374" />
      <rtept lat="33.39287" lon="126.901482">
         <ele>10</ele>
      </rtept>
      <rtept lat="33.392832" lon="126.901472">
         <ele>10</ele>
      </rtept>
      <rtept lat="33.392764" lon="126.901433">
         <ele>10</ele>
      </rtept>
      <rtept lat="33.392627" lon="126.901306">
         <ele>10</ele>
      </rtept>
      <rtept lat="33.392472" lon="126.901134">
         <ele>10</ele>
      </rtept>
      <rtept lat="33.392425" lon="126.901022">
         <ele>10</ele>
      </rtept>
      <rtept lat="33.392364" lon="126.900936">
         <ele>10</ele>
      </rtept>
      <rtept lat="33.392276" lon="126.900926">
         <ele>10</ele>
      </rtept>
      <rtept lat="33.392267" lon="126.900823">
         <ele>10</ele>
      </rtept>
      <rtept lat="33.391879" lon="126.900459">
         <ele>10</ele>
      </rtept>
      <rtept lat="33.391968" lon="126.90027">
         <ele>10</ele>
      </rtept>
      <rtept lat="33.392052" lon="126.900192">
         <ele>10</ele>
      </rtept>
      <rtept lat="33.392082" lon="126.900132">
         <ele>10</ele>
      </rtept>
      <rtept lat="33.392069" lon="126.899949">
         <ele>10</ele>
      </rtept>
      <rtept lat="33.392113" lon="126.899492">
         <ele>10</ele>
      </rtept>
      <rtept lat="33.392159" lon="126.899342">
         <ele>10</ele>
      </rtept>
      <rtept lat="33.392173" lon="126.898977">
         <ele>10</ele>
      </rtept>
      <rtept lat="33.392087" lon="126.899007">
         <ele>10</ele>
      </rtept>
      <rtept lat="33.391858" lon="126.898998">
         <ele>10</ele>
      </rtept>
      <rtept lat="33.391722" lon="126.898958">
         <ele>10</ele>
      </rtept>
      <rtept lat="33.391514" lon="126.898864">
         <ele>10</ele>
      </rtept>
      <rtept lat="33.391358" lon="126.898869">
         <ele>10</ele>
      </rtept>
      <rtept lat="33.391246" lon="126.898844">
         <ele>10</ele>
      </rtept>
      <rtept lat="33.391163" lon="126.89879">
         <ele>10</ele>
      </rtept>
      <rtept lat="33.391092" lon="126.89872">
         <ele>10</ele>
      </rtept>
      <rtept lat="33.39096" lon="126.898524">
         <ele>10</ele>
      </rtept>
      <rtept lat="33.390705" lon="126.898413">
         <ele>10</ele>
      </rtept>
      <rtept lat="33.390516" lon="126.898412">
         <ele>10</ele>
      </rtept>
      <rtept lat="33.390441" lon="126.89839">
         <ele>10</ele>
      </rtept>
      <rtept lat="33.390371" lon="126.898347">
         <ele>10</ele>
      </rtept>
      <rtept lat="33.390206" lon="126.898164">
         <ele>10</ele>
      </rtept>
      <rtept lat="33.390087" lon="126.898144">
         <ele>10</ele>
      </rtept>
      <rtept lat="33.389993" lon="126.898156">
         <ele>10</ele>
      </rtept>
      <rtept lat="33.389937" lon="126.898093">
         <ele>10</ele>
      </rtept>
      <rtept lat="33.389872" lon="126.897897">
         <ele>10</ele>
      </rtept>
      <rtept lat="33.389837" lon="126.897865">
         <ele>10</ele>
      </rtept>
      <rtept lat="33.389766" lon="126.897883">
         <ele>10</ele>
      </rtept>
      <rtept lat="33.389677" lon="126.897974">
         <ele>10</ele>
      </rtept>
      <rtept lat="33.38963" lon="126.897998">
         <ele>10</ele>
      </rtept>
      <rtept lat="33.38945" lon="126.898038">
         <ele>10</ele>
      </rtept>
      <rtept lat="33.389372" lon="126.898018">
         <ele>10</ele>
      </rtept>
      <rtept lat="33.389224" lon="126.897945">
         <ele>10</ele>
      </rtept>
      <rtept lat="33.389146" lon="126.897934">
         <ele>10</ele>
      </rtept>
      <rtept lat="33.389039" lon="126.897948">
         <ele>10</ele>
      </rtept>
      <rtept lat="33.388959" lon="126.897955" />
      <rtept lat="33.388885" lon="126.897998" />
      <rtept lat="33.388839" lon="126.897798" />
      <rtept lat="33.388824" lon="126.89761" />
      <rtept lat="33.388928" lon="126.895974" />
      <rtept lat="33.388922" lon="126.895323" />
      <rtept lat="33.388868" lon="126.894649" />
      <rtept lat="33.388821" lon="126.894435" />
      <rtept lat="33.38877" lon="126.894293" />
      <rtept lat="33.388411" lon="126.893517" />
      <rtept lat="33.388199" lon="126.892871" />
      <rtept lat="33.38813" lon="126.892439" />
      <rtept lat="33.388041" lon="126.891449" />
      <rtept lat="33.387986" lon="126.891313" />
      <rtept lat="33.387716" lon="126.890783" />
      <rtept lat="33.387367" lon="126.889955" />
      <rtept lat="33.387245" lon="126.889762" />
      <rtept lat="33.387129" lon="126.889632" />
      <rtept lat="33.387002" lon="126.889543" />
      <rtept lat="33.386337" lon="126.889209" />
      <rtept lat="33.386222" lon="126.889096" />
      <rtept lat="33.386132" lon="126.888945" />
      <rtept lat="33.386087" lon="126.888777" />
      <rtept lat="33.38604" lon="126.887962" />
      <rtept lat="33.385963" lon="126.887637" />
      <rtept lat="33.385799" lon="126.88714" />
      <rtept lat="33.385635" lon="126.886725" />
      <rtept lat="33.385319" lon="126.886086" />
      <rtept lat="33.385129" lon="126.885657" />
      <rtept lat="33.385039" lon="126.885371" />
      <rtept lat="33.384754" lon="126.884231" />
      <rtept lat="33.384673" lon="126.883983" />
      <rtept lat="33.384513" lon="126.883657" />
      <rtept lat="33.384044" lon="126.882876" />
      <rtept lat="33.383861" lon="126.88262" />
      <rtept lat="33.383637" lon="126.882363" />
      <rtept lat="33.383453" lon="126.882114" />
      <rtept lat="33.383095" lon="126.881292" />
      <rtept lat="33.383025" lon="126.881098" />
      <rtept lat="33.382927" lon="126.88066">
         <ele>10</ele>
      </rtept>
      <rtept lat="33.382835" lon="126.880441">
         <ele>10</ele>
      </rtept>
      <rtept lat="33.382679" lon="126.880229">
         <ele>10</ele>
      </rtept>
      <rtept lat="33.382525" lon="126.880131">
         <ele>10</ele>
      </rtept>
      <rtept lat="33.382356" lon="126.880089">
         <ele>10</ele>
      </rtept>
      <rtept lat="33.382211" lon="126.880094">
         <ele>10</ele>
      </rtept>
      <rtept lat="33.382163" lon="126.880111">
         <ele>10</ele>
      </rtept>
      <rtept lat="33.381908" lon="126.880306">
         <ele>10</ele>
      </rtept>
      <rtept lat="33.381146" lon="126.880933">
         <ele>10</ele>
      </rtept>
      <rtept lat="33.380954" lon="126.881074">
         <ele>10</ele>
      </rtept>
      <rtept lat="33.380786" lon="126.881159">
         <ele>10</ele>
      </rtept>
      <rtept lat="33.380661" lon="126.881185">
         <ele>10</ele>
      </rtept>
      <rtept lat="33.380508" lon="126.881178">
         <ele>10</ele>
      </rtept>
      <rtept lat="33.379875" lon="126.881009">
         <ele>10</ele>
      </rtept>
      <rtept lat="33.379513" lon="126.88079">
         <ele>10</ele>
      </rtept>
      <rtept lat="33.379387" lon="126.880691">
         <ele>10</ele>
      </rtept>
      <rtept lat="33.379145" lon="126.880357">
         <ele>10</ele>
      </rtept>
      <rtept lat="33.37897" lon="126.880145">
         <ele>10</ele>
      </rtept>
      <rtept lat="33.37842" lon="126.879616">
         <ele>10</ele>
      </rtept>
      <rtept lat="33.376998" lon="126.877833">
         <ele>10</ele>
      </rtept>
      <rtept lat="33.376066" lon="126.876459">
         <ele>10</ele>
      </rtept>
      <rtept lat="33.376009" lon="126.876254">
         <ele>10</ele>
      </rtept>
      <rtept lat="33.376002" lon="126.876138">
         <ele>10</ele>
      </rtept>
      <rtept lat="33.376024" lon="126.875956">
         <ele>10</ele>
      </rtept>
      <rtept lat="33.375928" lon="126.875917">
         <ele>10</ele>
      </rtept>
      <rtept lat="33.375813" lon="126.875795">
         <ele>10</ele>
      </rtept>
      <rtept lat="33.375108" lon="126.874957">
         <ele>10</ele>
      </rtept>
      <rtept lat="33.374536" lon="126.874477">
         <ele>10</ele>
      </rtept>
      <rtept lat="33.373882" lon="126.873899" />
      <rtept lat="33.37381" lon="126.873951" />
      <rtept lat="33.373459" lon="126.873486" />
      <rtept lat="33.373305" lon="126.873353" />
      <rtept lat="33.372868" lon="126.872855" />
      <rtept lat="33.372633" lon="126.872385" />
      <rtept lat="33.372787" lon="126.872111" />
      <rtept lat="33.372716" lon="126.871795" />
      <rtept lat="33.372584" lon="126.871471" />
      <rtept lat="33.372341" lon="126.871147" />
      <rtept lat="33.372075" lon="126.87089" />
      <rtept lat="33.37181" lon="126.870687" />
      <rtept lat="33.371494" lon="126.870687" />
      <rtept lat="33.371117" lon="126.87086" />
      <rtept lat="33.371009" lon="126.87075" />
      <rtept lat="33.370991" lon="126.870722" />
      <rtept lat="33.370847" lon="126.870704" />
      <rtept lat="33.370865" lon="126.871049" />
      <rtept lat="33.370816" lon="126.871242" />
      <rtept lat="33.370788" lon="126.871567" />
      <rtept lat="33.370721" lon="126.871748" />
      <rtept lat="33.370529" lon="126.872003" />
      <rtept lat="33.370462" lon="126.872068" />
      <rtept lat="33.370287" lon="126.87219" />
      <rtept lat="33.370136" lon="126.872256" />
      <rtept lat="33.36961" lon="126.872377" />
      <rtept lat="33.369043" lon="126.872386" />
      <rtept lat="33.3689" lon="126.872371" />
      <rtept lat="33.368495" lon="126.87228" />
      <rtept lat="33.368255" lon="126.872178" />
      <rtept lat="33.367855" lon="126.871912" />
      <rtept lat="33.367262" lon="126.871414" />
      <rtept lat="33.36665" lon="126.871102" />
      <rtept lat="33.366588" lon="126.871017" />
      <rtept lat="33.366559" lon="126.870927" />
      <rtept lat="33.366559" lon="126.870851" />
      <rtept lat="33.366637" lon="126.87066" />
      <rtept lat="33.366515" lon="126.870272" />
      <rtept lat="33.366308" lon="126.869859" />
      <rtept lat="33.36584" lon="126.869353" />
      <rtept lat="33.365608" lon="126.869068" />
      <rtept lat="33.365561" lon="126.868983" />
      <rtept lat="33.365526" lon="126.869013" />
      <rtept lat="33.365439" lon="126.868882" />
      <rtept lat="33.365236" lon="126.868575" />
      <rtept lat="33.365145" lon="126.868353" />
      <rtept lat="33.364912" lon="126.868032" />
      <rtept lat="33.364756" lon="126.86774" />
      <rtept lat="33.364467" lon="126.867391">
         <ele>10</ele>
      </rtept>
      <rtept lat="33.364076" lon="126.867112">
         <ele>10</ele>
      </rtept>
      <rtept lat="33.363966" lon="126.867077">
         <ele>10</ele>
      </rtept>
      <rtept lat="33.363678" lon="126.867033">
         <ele>10</ele>
      </rtept>
      <rtept lat="33.363339" lon="126.867001">
         <ele>10</ele>
      </rtept>
      <rtept lat="33.363189" lon="126.867002">
         <ele>10</ele>
      </rtept>
      <rtept lat="33.362687" lon="126.867164">
         <ele>10</ele>
      </rtept>
      <rtept lat="33.362435" lon="126.867283">
         <ele>10</ele>
      </rtept>
      <rtept lat="33.362343" lon="126.867239">
         <ele>10</ele>
      </rtept>
      <rtept lat="33.361756" lon="126.867125">
         <ele>10</ele>
      </rtept>
      <rtept lat="33.361558" lon="126.867087">
         <ele>10</ele>
      </rtept>
      <rtept lat="33.361172" lon="126.867054">
         <ele>10</ele>
      </rtept>
      <rtept lat="33.360728" lon="126.867148">
         <ele>10</ele>
      </rtept>
      <rtept lat="33.360131" lon="126.867304">
         <ele>10</ele>
      </rtept>
      <rtept lat="33.359853" lon="126.8674">
         <ele>10</ele>
      </rtept>
      <rtept lat="33.359393" lon="126.867415">
         <ele>10</ele>
      </rtept>
      <rtept lat="33.359187" lon="126.867458">
         <ele>10</ele>
      </rtept>
      <rtept lat="33.358624" lon="126.867577">
         <ele>10</ele>
      </rtept>
      <rtept lat="33.357138" lon="126.868206">
         <ele>10</ele>
      </rtept>
      <rtept lat="33.355998" lon="126.868206">
         <ele>10</ele>
      </rtept>
      <rtept lat="33.355274" lon="126.86824">
         <ele>10</ele>
      </rtept>
      <rtept lat="33.354715" lon="126.86794">
         <ele>10</ele>
      </rtept>
      <rtept lat="33.353969" lon="126.867502">
         <ele>10</ele>
      </rtept>
      <rtept lat="33.353365" lon="126.866981">
         <ele>10</ele>
      </rtept>
      <rtept lat="33.352727" lon="126.866902">
         <ele>10</ele>
      </rtept>
      <rtept lat="33.35204" lon="126.865871">
         <ele>10</ele>
      </rtept>
      <rtept lat="33.351696" lon="126.865485">
         <ele>10</ele>
      </rtept>
      <rtept lat="33.350675" lon="126.864641">
         <ele>10</ele>
      </rtept>
      <rtept lat="33.349416" lon="126.863633">
         <ele>10</ele>
      </rtept>
      <rtept lat="33.349313" lon="126.863242">
         <ele>10</ele>
      </rtept>
      <rtept lat="33.349274" lon="126.86272">
         <ele>10</ele>
      </rtept>
      <rtept lat="33.349049" lon="126.862209">
         <ele>10</ele>
      </rtept>
      <rtept lat="33.348843" lon="126.861803">
         <ele>10</ele>
      </rtept>
      <rtept lat="33.348763" lon="126.861423">
         <ele>10</ele>
      </rtept>
      <rtept lat="33.348489" lon="126.861173">
         <ele>10</ele>
      </rtept>
      <rtept lat="33.348488" lon="126.86106">
         <ele>10</ele>
      </rtept>
      <rtept lat="33.348379" lon="126.86014">
         <ele>10</ele>
      </rtept>
      <rtept lat="33.34803" lon="126.859514">
         <ele>10</ele>
      </rtept>
      <rtept lat="33.348099" lon="126.858921">
         <ele>10</ele>
      </rtept>
      <rtept lat="33.347982" lon="126.858788">
         <ele>10</ele>
      </rtept>
      <rtept lat="33.347614" lon="126.858039">
         <ele>10</ele>
      </rtept>
      <rtept lat="33.347997" lon="126.857857">
         <ele>10</ele>
      </rtept>
      <rtept lat="33.348127" lon="126.857717">
         <ele>10</ele>
      </rtept>
      <rtept lat="33.348535" lon="126.857524">
         <ele>10</ele>
      </rtept>
      <rtept lat="33.348835" lon="126.857465">
         <ele>10</ele>
      </rtept>
      <rtept lat="33.348988" lon="126.857326">
         <ele>10</ele>
      </rtept>
      <rtept lat="33.349077" lon="126.856966">
         <ele>10</ele>
      </rtept>
      <rtept lat="33.349252" lon="126.856757">
         <ele>10</ele>
      </rtept>
      <rtept lat="33.349221" lon="126.856483">
         <ele>10</ele>
      </rtept>
      <rtept lat="33.348956" lon="126.85629">
         <ele>10</ele>
      </rtept>
      <rtept lat="33.348826" lon="126.856092">
         <ele>10</ele>
      </rtept>
      <rtept lat="33.348728" lon="126.855711">
         <ele>10</ele>
      </rtept>
      <rtept lat="33.348665" lon="126.855577">
         <ele>10</ele>
      </rtept>
      <rtept lat="33.348481" lon="126.855427">
         <ele>10</ele>
      </rtept>
      <rtept lat="33.348284" lon="126.855378">
         <ele>10</ele>
      </rtept>
      <rtept lat="33.347702" lon="126.855303">
         <ele>10</ele>
      </rtept>
      <rtept lat="33.347419" lon="126.854912">
         <ele>10</ele>
      </rtept>
      <rtept lat="33.347289" lon="126.854772">
         <ele>10</ele>
      </rtept>
      <rtept lat="33.3471" lon="126.854668">
         <ele>10</ele>
      </rtept>
      <rtept lat="33.346915" lon="126.854472" />
      <rtept lat="33.346804" lon="126.85448" />
      <rtept lat="33.346728" lon="126.854418" />
      <rtept lat="33.346568" lon="126.853885" />
      <rtept lat="33.346215" lon="126.85386" />
      <rtept lat="33.345549" lon="126.854124" />
      <rtept lat="33.345231" lon="126.854336">
         <ele>10</ele>
      </rtept>
      <rtept lat="33.345101" lon="126.854392">
         <ele>10</ele>
      </rtept>
      <rtept lat="33.345049" lon="126.854414">
         <ele>10</ele>
      </rtept>
      <rtept lat="33.344833" lon="126.854416">
         <ele>10</ele>
      </rtept>
      <rtept lat="33.344613" lon="126.854482">
         <ele>10</ele>
      </rtept>
      <rtept lat="33.34438" lon="126.854484">
         <ele>10</ele>
      </rtept>
      <rtept lat="33.344238" lon="126.854437">
         <ele>10</ele>
      </rtept>
      <rtept lat="33.344144" lon="126.854365">
         <ele>10</ele>
      </rtept>
      <rtept lat="33.343932" lon="126.854088">
         <ele>10</ele>
      </rtept>
      <rtept lat="33.343866" lon="126.854057">
         <ele>10</ele>
      </rtept>
      <rtept lat="33.343658" lon="126.85405">
         <ele>10</ele>
      </rtept>
      <rtept lat="33.343368" lon="126.854004">
         <ele>10</ele>
      </rtept>
      <rtept lat="33.343191" lon="126.853967">
         <ele>10</ele>
      </rtept>
      <rtept lat="33.343064" lon="126.85389">
         <ele>10</ele>
      </rtept>
      <rtept lat="33.343047" lon="126.853926">
         <ele>10</ele>
      </rtept>
      <rtept lat="33.342978" lon="126.853856">
         <ele>10</ele>
      </rtept>
      <rtept lat="33.342818" lon="126.853606">
         <ele>10</ele>
      </rtept>
      <rtept lat="33.342843" lon="126.853173">
         <ele>10</ele>
      </rtept>
      <rtept lat="33.342806" lon="126.853115">
         <ele>10</ele>
      </rtept>
      <rtept lat="33.342584" lon="126.852899">
         <ele>10</ele>
      </rtept>
      <rtept lat="33.342475" lon="126.853225">
         <ele>10</ele>
      </rtept>
      <rtept lat="33.342405" lon="126.853376">
         <ele>10</ele>
      </rtept>
      <rtept lat="33.342328" lon="126.853467">
         <ele>10</ele>
      </rtept>
      <rtept lat="33.342164" lon="126.853618">
         <ele>10</ele>
      </rtept>
      <rtept lat="33.34188" lon="126.853773">
         <ele>10</ele>
      </rtept>
      <rtept lat="33.341808" lon="126.853848">
         <ele>10</ele>
      </rtept>
      <rtept lat="33.341816" lon="126.85409">
         <ele>10</ele>
      </rtept>
      <rtept lat="33.341798" lon="126.854174">
         <ele>10</ele>
      </rtept>
      <rtept lat="33.341637" lon="126.854347">
         <ele>10</ele>
      </rtept>
      <rtept lat="33.341581" lon="126.854513">
         <ele>10</ele>
      </rtept>
      <rtept lat="33.34146" lon="126.854758">
         <ele>10</ele>
      </rtept>
      <rtept lat="33.341254" lon="126.855049">
         <ele>10</ele>
      </rtept>
      <rtept lat="33.341198" lon="126.85516">
         <ele>10</ele>
      </rtept>
      <rtept lat="33.341098" lon="126.855282">
         <ele>10</ele>
      </rtept>
      <rtept lat="33.340692" lon="126.855178">
         <ele>10</ele>
      </rtept>
      <rtept lat="33.340054" lon="126.855091" />
      <rtept lat="33.339841" lon="126.854984" />
      <rtept lat="33.339801" lon="126.854943" />
      <rtept lat="33.339523" lon="126.855257" />
      <rtept lat="33.339365" lon="126.855313" />
      <rtept lat="33.33935" lon="126.855316" />
      <rtept lat="33.33923" lon="126.854965" />
      <rtept lat="33.339312" lon="126.85468" />
      <rtept lat="33.339326" lon="126.854532" />
      <rtept lat="33.339279" lon="126.85352" />
      <rtept lat="33.339229" lon="126.85323" />
      <rtept lat="33.339212" lon="126.853111" />
      <rtept lat="33.339035" lon="126.852781" />
      <rtept lat="33.33891" lon="126.852584" />
      <rtept lat="33.338599" lon="126.852122" />
      <rtept lat="33.33846" lon="126.852038" />
      <rtept lat="33.338419" lon="126.851986" />
      <rtept lat="33.338118" lon="126.85145" />
      <rtept lat="33.337975" lon="126.851277" />
      <rtept lat="33.33791" lon="126.851203" />
      <rtept lat="33.337685" lon="126.850642" />
      <rtept lat="33.337492" lon="126.850362" />
      <rtept lat="33.337263" lon="126.850276" />
      <rtept lat="33.337058" lon="126.850294" />
      <rtept lat="33.336969" lon="126.850302" />
      <rtept lat="33.336919" lon="126.850079" />
      <rtept lat="33.337064" lon="126.84975" />
      <rtept lat="33.337095" lon="126.849644" />
      <rtept lat="33.336717" lon="126.849382" />
      <rtept lat="33.3368" lon="126.849102" />
      <rtept lat="33.336827" lon="126.849011" />
      <rtept lat="33.336599" lon="126.849175" />
      <rtept lat="33.336395" lon="126.848882" />
      <rtept lat="33.336289" lon="126.848561" />
      <rtept lat="33.336156" lon="126.84798" />
      <rtept lat="33.336002" lon="126.847544" />
      <rtept lat="33.33568" lon="126.846989" />
      <rtept lat="33.334325" lon="126.845951" />
      <rtept lat="33.3342" lon="126.845908" />
      <rtept lat="33.334014" lon="126.845693" />
      <rtept lat="33.333898" lon="126.845484" />
      <rtept lat="33.333692" lon="126.84511" />
      <rtept lat="33.333449" lon="126.844523" />
      <rtept lat="33.333253" lon="126.844168" />
      <rtept lat="33.333036" lon="126.843887" />
      <rtept lat="33.332822" lon="126.843755" />
      <rtept lat="33.332363" lon="126.843567" />
      <rtept lat="33.332121" lon="126.843117" />
      <rtept lat="33.331895" lon="126.842556" />
      <rtept lat="33.331436" lon="126.842319" />
      <rtept lat="33.331073" lon="126.842071" />
      <rtept lat="33.330787" lon="126.842034" />
      <rtept lat="33.330561" lon="126.841974" />
      <rtept lat="33.330336" lon="126.841865" />
      <rtept lat="33.330056" lon="126.841698" />
      <rtept lat="33.330038" lon="126.841183" />
      <rtept lat="33.329944" lon="126.841004" />
      <rtept lat="33.32993" lon="126.840667" />
      <rtept lat="33.330025" lon="126.840419" />
      <rtept lat="33.330095" lon="126.840156" />
      <rtept lat="33.330092" lon="126.839943" />
      <rtept lat="33.330007" lon="126.839714" />
      <rtept lat="33.329928" lon="126.839503" />
      <rtept lat="33.329776" lon="126.839333" />
      <rtept lat="33.329751" lon="126.837762" />
      <rtept lat="33.329505" lon="126.837134" />
      <rtept lat="33.329178" lon="126.836818" />
      <rtept lat="33.328847" lon="126.8367" />
      <rtept lat="33.327702" lon="126.83667" />
      <rtept lat="33.326465" lon="126.836928" />
      <rtept lat="33.326474" lon="126.837049" />
      <rtept lat="33.326439" lon="126.837176" />
      <rtept lat="33.325895" lon="126.837586" />
      <rtept lat="33.325819" lon="126.837591" />
      <rtept lat="33.325737" lon="126.837931" />
      <rtept lat="33.325733" lon="126.83801" />
      <rtept lat="33.325762" lon="126.838096" />
      <rtept lat="33.325791" lon="126.839319" />
      <rtept lat="33.325849" lon="126.839478" />
      <rtept lat="33.32608" lon="126.839977" />
      <rtept lat="33.32607" lon="126.840067" />
      <rtept lat="33.325962" lon="126.840303" />
      <rtept lat="33.325943" lon="126.841565" />
      <rtept lat="33.325923" lon="126.842198" />
      <rtept lat="33.325827" lon="126.842224" />
      <rtept lat="33.325748" lon="126.842314" />
      <rtept lat="33.325719" lon="126.842406" />
      <rtept lat="33.325721" lon="126.842522" />
      <rtept lat="33.325553" lon="126.842507" />
   </rte>
</gpx>