<?xml version="1.0" encoding="utf-8"?>
<gpx version="1.1" creator="Movescount - http://www.movescount.com" xmlns:xsi="http://www.w3.org/2001/XMLSchema-instance" xsi:schemaLocation="http://www.topografix.com/GPX/1/1 http://www.topografix.com/GPX/1/1/gpx.xsd http://www.cluetrust.com/XML/GPXDATA/1/0 http://www.cluetrust.com/Schemas/gpxdata10.xsd http://www.garmin.com/xmlschemas/TrackPointExtension/v1 http://www.garmin.com/xmlschemas/TrackPointExtensionv1.xsd" xmlns:gpxdata="http://www.cluetrust.com/XML/GPXDATA/1/0" xmlns:gpxtpx="http://www.garmin.com/xmlschemas/TrackPointExtension/v1" xmlns="http://www.topografix.com/GPX/1/1">
   <rte>
      <name>ollegil 11</name>
      <rtept lat="33.219156" lon="126.252792" />
      <rtept lat="33.219186" lon="126.252694" />
      <rtept lat="33.219167" lon="126.25211" />
      <rtept lat="33.219486" lon="126.25208" />
      <rtept lat="33.219588" lon="126.251744" />
      <rtept lat="33.219734" lon="126.251265" />
      <rtept lat="33.219611" lon="126.251212" />
      <rtept lat="33.219876" lon="126.250501" />
      <rtept lat="33.219945" lon="126.250479" />
      <rtept lat="33.220089" lon="126.250433" />
      <rtept lat="33.220276" lon="126.250401" />
      <rtept lat="33.220273" lon="126.250114" />
      <rtept lat="33.220484" lon="126.250044" />
      <rtept lat="33.220498" lon="126.250072" />
      <rtept lat="33.220641" lon="126.250056" />
      <rtept lat="33.220706" lon="126.250048" />
      <rtept lat="33.220688" lon="126.249743" />
      <rtept lat="33.220737" lon="126.249424" />
      <rtept lat="33.220918" lon="126.249171" />
      <rtept lat="33.220675" lon="126.248995" />
      <rtept lat="33.220458" lon="126.248926" />
      <rtept lat="33.220093" lon="126.248873" />
      <rtept lat="33.220032" lon="126.24884" />
      <rtept lat="33.219863" lon="126.248812" />
      <rtept lat="33.219847" lon="126.248701" />
      <rtept lat="33.219871" lon="126.247832" />
      <rtept lat="33.220033" lon="126.246891" />
      <rtept lat="33.220046" lon="126.246824" />
      <rtept lat="33.220721" lon="126.247029" />
      <rtept lat="33.220908" lon="126.246356" />
      <rtept lat="33.221144" lon="126.246464" />
      <rtept lat="33.221503" lon="126.245895" />
      <rtept lat="33.221538" lon="126.245775" />
      <rtept lat="33.221541" lon="126.245616" />
      <rtept lat="33.221498" lon="126.245457" />
      <rtept lat="33.221481" lon="126.245217" />
      <rtept lat="33.221436" lon="126.245135" />
      <rtept lat="33.22135" lon="126.245054" />
      <rtept lat="33.221285" lon="126.244955" />
      <rtept lat="33.221282" lon="126.244806" />
      <rtept lat="33.221324" lon="126.244679" />
      <rtept lat="33.221377" lon="126.244594" />
      <rtept lat="33.221448" lon="126.244523" />
      <rtept lat="33.221546" lon="126.244487" />
      <rtept lat="33.221646" lon="126.244473" />
      <rtept lat="33.222132" lon="126.243946" />
      <rtept lat="33.222235" lon="126.243358" />
      <rtept lat="33.222274" lon="126.243277" />
      <rtept lat="33.22268" lon="126.242955" />
      <rtept lat="33.222869" lon="126.242729" />
      <rtept lat="33.223097" lon="126.242558" />
      <rtept lat="33.223254" lon="126.242219" />
      <rtept lat="33.223417" lon="126.241943" />
      <rtept lat="33.223704" lon="126.241773" />
      <rtept lat="33.22374" lon="126.24173" />
      <rtept lat="33.223766" lon="126.24149" />
      <rtept lat="33.223819" lon="126.241331" />
      <rtept lat="33.223911" lon="126.241249" />
      <rtept lat="33.224009" lon="126.241228" />
      <rtept lat="33.224133" lon="126.241274" />
      <rtept lat="33.224341" lon="126.241292" />
      <rtept lat="33.224503" lon="126.241331" />
      <rtept lat="33.224669" lon="126.241348" />
      <rtept lat="33.224764" lon="126.24138" />
      <rtept lat="33.225039" lon="126.241617" />
      <rtept lat="33.225238" lon="126.2416" />
      <rtept lat="33.225362" lon="126.241649" />
      <rtept lat="33.225457" lon="126.241723" />
      <rtept lat="33.225525" lon="126.241805" />
      <rtept lat="33.225702" lon="126.241842" />
      <rtept lat="33.2258" lon="126.241862" />
      <rtept lat="33.225832" lon="126.242381" />
      <rtept lat="33.226046" lon="126.242438" />
      <rtept lat="33.226284" lon="126.242462" />
      <rtept lat="33.226287" lon="126.242822" />
      <rtept lat="33.226274" lon="126.24289" />
      <rtept lat="33.226076" lon="126.242982" />
      <rtept lat="33.226011" lon="126.243096" />
      <rtept lat="33.225949" lon="126.243432" />
      <rtept lat="33.225957" lon="126.243663" />
      <rtept lat="33.225934" lon="126.244017" />
      <rtept lat="33.225944" lon="126.244369" />
      <rtept lat="33.226145" lon="126.244701" />
      <rtept lat="33.226835" lon="126.245458" />
      <rtept lat="33.226825" lon="126.245461" />
      <rtept lat="33.22685" lon="126.245588" />
      <rtept lat="33.226976" lon="126.245995" />
      <rtept lat="33.227012" lon="126.246333" />
      <rtept lat="33.226931" lon="126.246618" />
      <rtept lat="33.226949" lon="126.246907" />
      <rtept lat="33.226981" lon="126.246988" />
      <rtept lat="33.227631" lon="126.24717">
         <ele>10</ele>
      </rtept>
      <rtept lat="33.227497" lon="126.247352">
         <ele>10</ele>
      </rtept>
      <rtept lat="33.22738" lon="126.24765">
         <ele>10</ele>
      </rtept>
      <rtept lat="33.227254" lon="126.248136">
         <ele>10</ele>
      </rtept>
      <rtept lat="33.227287" lon="126.248241">
         <ele>10</ele>
      </rtept>
      <rtept lat="33.229133" lon="126.249539">
         <ele>10</ele>
      </rtept>
      <rtept lat="33.228826" lon="126.250833">
         <ele>10</ele>
      </rtept>
      <rtept lat="33.228946" lon="126.250934">
         <ele>10</ele>
      </rtept>
      <rtept lat="33.229022" lon="126.251459">
         <ele>10</ele>
      </rtept>
      <rtept lat="33.22942" lon="126.251687">
         <ele>10</ele>
      </rtept>
      <rtept lat="33.229942" lon="126.25198">
         <ele>10</ele>
      </rtept>
      <rtept lat="33.230149" lon="126.252012">
         <ele>10</ele>
      </rtept>
      <rtept lat="33.230689" lon="126.252456">
         <ele>10</ele>
      </rtept>
      <rtept lat="33.231226" lon="126.252619">
         <ele>20</ele>
      </rtept>
      <rtept lat="33.231928" lon="126.252895">
         <ele>20</ele>
      </rtept>
      <rtept lat="33.232211" lon="126.252979">
         <ele>20</ele>
      </rtept>
      <rtept lat="33.233001" lon="126.253301">
         <ele>30</ele>
      </rtept>
      <rtept lat="33.233264" lon="126.253377">
         <ele>30</ele>
      </rtept>
      <rtept lat="33.23356" lon="126.253526">
         <ele>33.38545</ele>
      </rtept>
      <rtept lat="33.234357" lon="126.253452">
         <ele>40.13456</ele>
      </rtept>
      <rtept lat="33.234685" lon="126.253797">
         <ele>46.46812</ele>
      </rtept>
      <rtept lat="33.234888" lon="126.253825">
         <ele>48.8516</ele>
      </rtept>
      <rtept lat="33.235076" lon="126.253629">
         <ele>49.0648</ele>
      </rtept>
      <rtept lat="33.235459" lon="126.253629">
         <ele>53.41327</ele>
      </rtept>
      <rtept lat="33.235896" lon="126.253564">
         <ele>57.67784</ele>
      </rtept>
      <rtept lat="33.236427" lon="126.253629">
         <ele>63.70673</ele>
      </rtept>
      <rtept lat="33.237107" lon="126.253442">
         <ele>66.46548</ele>
      </rtept>
      <rtept lat="33.237596" lon="126.253355">
         <ele>67.13061</ele>
      </rtept>
      <rtept lat="33.237803" lon="126.254573">
         <ele>81.49713</ele>
      </rtept>
      <rtept lat="33.237811" lon="126.254707">
         <ele>83.35636</ele>
      </rtept>
      <rtept lat="33.23661" lon="126.254663">
         <ele>76.72723</ele>
      </rtept>
      <rtept lat="33.236391" lon="126.254996">
         <ele>78.14587</ele>
      </rtept>
      <rtept lat="33.236269" lon="126.255064">
         <ele>77.56272</ele>
      </rtept>
      <rtept lat="33.235922" lon="126.255437">
         <ele>77.83311</ele>
      </rtept>
      <rtept lat="33.235896" lon="126.255674">
         <ele>80.10612</ele>
      </rtept>
      <rtept lat="33.235754" lon="126.256007">
         <ele>81.54911</ele>
      </rtept>
      <rtept lat="33.23562" lon="126.256222">
         <ele>81.27489</ele>
      </rtept>
      <rtept lat="33.235434" lon="126.256469">
         <ele>79.68131</ele>
      </rtept>
      <rtept lat="33.235306" lon="126.256789">
         <ele>78.36243</ele>
      </rtept>
      <rtept lat="33.235315" lon="126.256856">
         <ele>78.59254</ele>
      </rtept>
      <rtept lat="33.235648" lon="126.256998">
         <ele>84.42473</ele>
      </rtept>
      <rtept lat="33.235978" lon="126.257247">
         <ele>90.44166</ele>
      </rtept>
      <rtept lat="33.236308" lon="126.257502">
         <ele>97.17765</ele>
      </rtept>
      <rtept lat="33.23641" lon="126.257811">
         <ele>100.3743</ele>
      </rtept>
      <rtept lat="33.236475" lon="126.258206">
         <ele>101.3853</ele>
      </rtept>
      <rtept lat="33.236345" lon="126.258803">
         <ele>98.9127</ele>
      </rtept>
      <rtept lat="33.236219" lon="126.259132">
         <ele>97.32553</ele>
      </rtept>
      <rtept lat="33.236168" lon="126.259685">
         <ele>97.51981</ele>
      </rtept>
      <rtept lat="33.236271" lon="126.259982">
         <ele>99.39604</ele>
      </rtept>
      <rtept lat="33.236488" lon="126.260226">
         <ele>103.3849</ele>
      </rtept>
      <rtept lat="33.236297" lon="126.260402">
         <ele>98.52193</ele>
      </rtept>
      <rtept lat="33.236531" lon="126.260944">
         <ele>100.1415</ele>
      </rtept>
      <rtept lat="33.23707" lon="126.262074">
         <ele>99.96242</ele>
      </rtept>
      <rtept lat="33.237789" lon="126.262821">
         <ele>101.4485</ele>
      </rtept>
      <rtept lat="33.238656" lon="126.263307">
         <ele>101.6671</ele>
      </rtept>
      <rtept lat="33.238664" lon="126.26185">
         <ele>122.109</ele>
      </rtept>
      <rtept lat="33.23889" lon="126.261747">
         <ele>125.2381</ele>
      </rtept>
      <rtept lat="33.239398" lon="126.261626">
         <ele>129.3146</ele>
      </rtept>
      <rtept lat="33.239351" lon="126.261075">
         <ele>137.1449</ele>
      </rtept>
      <rtept lat="33.239687" lon="126.260692">
         <ele>141.2197</ele>
      </rtept>
      <rtept lat="33.239898" lon="126.259608">
         <ele>148.8508</ele>
      </rtept>
      <rtept lat="33.239989" lon="126.258305">
         <ele>147.9658</ele>
      </rtept>
      <rtept lat="33.239992" lon="126.258263">
         <ele>147.4465</ele>
      </rtept>
      <rtept lat="33.240218" lon="126.258226">
         <ele>140.2086</ele>
      </rtept>
      <rtept lat="33.240335" lon="126.258478">
         <ele>138.4579</ele>
      </rtept>
      <rtept lat="33.240913" lon="126.258459">
         <ele>120.0446</ele>
      </rtept>
      <rtept lat="33.241015" lon="126.259048">
         <ele>118.2014</ele>
      </rtept>
      <rtept lat="33.241054" lon="126.259375">
         <ele>117.0807</ele>
      </rtept>
      <rtept lat="33.241413" lon="126.259337">
         <ele>108.1159</ele>
      </rtept>
      <rtept lat="33.242163" lon="126.259739">
         <ele>95.12154</ele>
      </rtept>
      <rtept lat="33.24253" lon="126.260477">
         <ele>87.73795</ele>
      </rtept>
      <rtept lat="33.242765" lon="126.260804">
         <ele>83.63448</ele>
      </rtept>
      <rtept lat="33.242964" lon="126.261271">
         <ele>80</ele>
      </rtept>
      <rtept lat="33.243314" lon="126.261861">
         <ele>74.35762</ele>
      </rtept>
      <rtept lat="33.243529" lon="126.26229">
         <ele>70</ele>
      </rtept>
      <rtept lat="33.243852" lon="126.262869">
         <ele>66.14552</ele>
      </rtept>
      <rtept lat="33.243987" lon="126.26347">
         <ele>61.99564</ele>
      </rtept>
      <rtept lat="33.244453" lon="126.26377">
         <ele>60</ele>
      </rtept>
      <rtept lat="33.244785" lon="126.263921">
         <ele>54.51622</ele>
      </rtept>
      <rtept lat="33.244963" lon="126.264075">
         <ele>50</ele>
      </rtept>
      <rtept lat="33.245072" lon="126.264351">
         <ele>50</ele>
      </rtept>
      <rtept lat="33.245114" lon="126.264456">
         <ele>50</ele>
      </rtept>
      <rtept lat="33.245148" lon="126.264447">
         <ele>50</ele>
      </rtept>
      <rtept lat="33.246206" lon="126.264048">
         <ele>50</ele>
      </rtept>
      <rtept lat="33.246315" lon="126.26399">
         <ele>50</ele>
      </rtept>
      <rtept lat="33.246857" lon="126.263385">
         <ele>50</ele>
      </rtept>
      <rtept lat="33.247869" lon="126.263354">
         <ele>40</ele>
      </rtept>
      <rtept lat="33.249075" lon="126.263251">
         <ele>40</ele>
      </rtept>
      <rtept lat="33.248841" lon="126.26249">
         <ele>40</ele>
      </rtept>
      <rtept lat="33.248763" lon="126.262154">
         <ele>40</ele>
      </rtept>
      <rtept lat="33.248548" lon="126.262056">
         <ele>40</ele>
      </rtept>
      <rtept lat="33.248486" lon="126.261687">
         <ele>40</ele>
      </rtept>
      <rtept lat="33.248368" lon="126.261314">
         <ele>40</ele>
      </rtept>
      <rtept lat="33.24807" lon="126.260818">
         <ele>40</ele>
      </rtept>
      <rtept lat="33.247915" lon="126.260534">
         <ele>40</ele>
      </rtept>
      <rtept lat="33.247876" lon="126.260169">
         <ele>40</ele>
      </rtept>
      <rtept lat="33.247775" lon="126.259558">
         <ele>50</ele>
      </rtept>
      <rtept lat="33.247248" lon="126.257783">
         <ele>50</ele>
      </rtept>
      <rtept lat="33.246904" lon="126.256919">
         <ele>50</ele>
      </rtept>
      <rtept lat="33.246783" lon="126.256844">
         <ele>50</ele>
      </rtept>
      <rtept lat="33.24672" lon="126.256564">
         <ele>50</ele>
      </rtept>
      <rtept lat="33.246681" lon="126.256466">
         <ele>50</ele>
      </rtept>
      <rtept lat="33.246509" lon="126.256485">
         <ele>50</ele>
      </rtept>
      <rtept lat="33.246439" lon="126.256443">
         <ele>50</ele>
      </rtept>
      <rtept lat="33.246392" lon="126.256289">
         <ele>50</ele>
      </rtept>
      <rtept lat="33.246326" lon="126.255803">
         <ele>50</ele>
      </rtept>
      <rtept lat="33.246342" lon="126.255654">
         <ele>50</ele>
      </rtept>
      <rtept lat="33.246912" lon="126.255604">
         <ele>50</ele>
      </rtept>
      <rtept lat="33.247863" lon="126.256473">
         <ele>50</ele>
      </rtept>
      <rtept lat="33.248132" lon="126.256806">
         <ele>50</ele>
      </rtept>
      <rtept lat="33.24833" lon="126.256988">
         <ele>50</ele>
      </rtept>
      <rtept lat="33.248473" lon="126.25716">
         <ele>50</ele>
      </rtept>
      <rtept lat="33.248913" lon="126.257278">
         <ele>50</ele>
      </rtept>
      <rtept lat="33.249335" lon="126.257417">
         <ele>50</ele>
      </rtept>
      <rtept lat="33.250035" lon="126.257675">
         <ele>40</ele>
      </rtept>
      <rtept lat="33.250721" lon="126.257903">
         <ele>40</ele>
      </rtept>
      <rtept lat="33.25138" lon="126.258216">
         <ele>40</ele>
      </rtept>
      <rtept lat="33.251887" lon="126.258618">
         <ele>40</ele>
      </rtept>
      <rtept lat="33.252356" lon="126.258253">
         <ele>40</ele>
      </rtept>
      <rtept lat="33.252481" lon="126.257992">
         <ele>40</ele>
      </rtept>
      <rtept lat="33.252817" lon="126.258123">
         <ele>40</ele>
      </rtept>
      <rtept lat="33.253051" lon="126.25816">
         <ele>40</ele>
      </rtept>
      <rtept lat="33.252903" lon="126.258786">
         <ele>40</ele>
      </rtept>
      <rtept lat="33.252809" lon="126.259038">
         <ele>40</ele>
      </rtept>
      <rtept lat="33.252911" lon="126.258935">
         <ele>40</ele>
      </rtept>
      <rtept lat="33.253028" lon="126.258851">
         <ele>40</ele>
      </rtept>
      <rtept lat="33.253215" lon="126.258963">
         <ele>40</ele>
      </rtept>
      <rtept lat="33.253278" lon="126.259206">
         <ele>40</ele>
      </rtept>
      <rtept lat="33.253324" lon="126.259692">
         <ele>40</ele>
      </rtept>
      <rtept lat="33.253379" lon="126.259841">
         <ele>40</ele>
      </rtept>
      <rtept lat="33.253207" lon="126.260019">
         <ele>40</ele>
      </rtept>
      <rtept lat="33.253332" lon="126.260121">
         <ele>40</ele>
      </rtept>
      <rtept lat="33.253473" lon="126.260318">
         <ele>40</ele>
      </rtept>
      <rtept lat="33.253425" lon="126.26073">
         <ele>40</ele>
      </rtept>
      <rtept lat="33.253407" lon="126.26093">
         <ele>40</ele>
      </rtept>
      <rtept lat="33.25324" lon="126.261311">
         <ele>40</ele>
      </rtept>
      <rtept lat="33.253208" lon="126.261423">
         <ele>40</ele>
      </rtept>
      <rtept lat="33.2532" lon="126.261557">
         <ele>40</ele>
      </rtept>
      <rtept lat="33.253216" lon="126.261664">
         <ele>40</ele>
      </rtept>
      <rtept lat="33.253181" lon="126.261754">
         <ele>40</ele>
      </rtept>
      <rtept lat="33.253003" lon="126.261948">
         <ele>40</ele>
      </rtept>
      <rtept lat="33.252756" lon="126.262593">
         <ele>40</ele>
      </rtept>
      <rtept lat="33.253355" lon="126.262574">
         <ele>40</ele>
      </rtept>
      <rtept lat="33.253602" lon="126.262531">
         <ele>40</ele>
      </rtept>
      <rtept lat="33.25436" lon="126.262352">
         <ele>40</ele>
      </rtept>
      <rtept lat="33.254607" lon="126.262347">
         <ele>40</ele>
      </rtept>
      <rtept lat="33.255447" lon="126.262494">
         <ele>40</ele>
      </rtept>
      <rtept lat="33.255796" lon="126.262644">
         <ele>40</ele>
      </rtept>
      <rtept lat="33.256024" lon="126.262679">
         <ele>40</ele>
      </rtept>
      <rtept lat="33.256612" lon="126.262617">
         <ele>40</ele>
      </rtept>
      <rtept lat="33.257287" lon="126.262468">
         <ele>40</ele>
      </rtept>
      <rtept lat="33.257875" lon="126.262367">
         <ele>40</ele>
      </rtept>
      <rtept lat="33.259433" lon="126.262519">
         <ele>40</ele>
      </rtept>
      <rtept lat="33.259554" lon="126.262041">
         <ele>40</ele>
      </rtept>
      <rtept lat="33.259441" lon="126.261787">
         <ele>40</ele>
      </rtept>
      <rtept lat="33.259872" lon="126.260705">
         <ele>40</ele>
      </rtept>
      <rtept lat="33.25998" lon="126.260456">
         <ele>40</ele>
      </rtept>
      <rtept lat="33.260335" lon="126.258955">
         <ele>40</ele>
      </rtept>
      <rtept lat="33.260554" lon="126.258339">
         <ele>40</ele>
      </rtept>
      <rtept lat="33.260814" lon="126.258304">
         <ele>40</ele>
      </rtept>
      <rtept lat="33.261033" lon="126.257667">
         <ele>40</ele>
      </rtept>
      <rtept lat="33.261463" lon="126.256585">
         <ele>40</ele>
      </rtept>
      <rtept lat="33.262417" lon="126.256615">
         <ele>40</ele>
      </rtept>
      <rtept lat="33.262745" lon="126.256605">
         <ele>40</ele>
      </rtept>
      <rtept lat="33.26301" lon="126.256615">
         <ele>40</ele>
      </rtept>
      <rtept lat="33.263441" lon="126.256671">
         <ele>40</ele>
      </rtept>
      <rtept lat="33.264295" lon="126.25661">
         <ele>50</ele>
      </rtept>
      <rtept lat="33.264576" lon="126.256713">
         <ele>50</ele>
      </rtept>
      <rtept lat="33.265338" lon="126.257091">
         <ele>50</ele>
      </rtept>
      <rtept lat="33.266413" lon="126.257725">
         <ele>50</ele>
      </rtept>
      <rtept lat="33.266505" lon="126.257828">
         <ele>50</ele>
      </rtept>
      <rtept lat="33.266621" lon="126.258099">
         <ele>50</ele>
      </rtept>
      <rtept lat="33.267303" lon="126.258228">
         <ele>50</ele>
      </rtept>
      <rtept lat="33.26748" lon="126.258106">
         <ele>50</ele>
      </rtept>
      <rtept lat="33.267582" lon="126.258131">
         <ele>50</ele>
      </rtept>
      <rtept lat="33.268173" lon="126.258334">
         <ele>50</ele>
      </rtept>
      <rtept lat="33.268261" lon="126.258554">
         <ele>50</ele>
      </rtept>
      <rtept lat="33.268418" lon="126.258554">
         <ele>50</ele>
      </rtept>
      <rtept lat="33.268805" lon="126.258773">
         <ele>50</ele>
      </rtept>
      <rtept lat="33.269002" lon="126.258741">
         <ele>50</ele>
      </rtept>
      <rtept lat="33.26957" lon="126.259008">
         <ele>50</ele>
      </rtept>
      <rtept lat="33.269628" lon="126.259033">
         <ele>50</ele>
      </rtept>
      <rtept lat="33.270199" lon="126.258952">
         <ele>60</ele>
      </rtept>
      <rtept lat="33.270464" lon="126.258936">
         <ele>60</ele>
      </rtept>
      <rtept lat="33.270702" lon="126.258879">
         <ele>60</ele>
      </rtept>
      <rtept lat="33.270736" lon="126.259163">
         <ele>60</ele>
      </rtept>
      <rtept lat="33.270835" lon="126.259344">
         <ele>60</ele>
      </rtept>
      <rtept lat="33.270905" lon="126.259535">
         <ele>60</ele>
      </rtept>
      <rtept lat="33.271061" lon="126.259643">
         <ele>60</ele>
      </rtept>
      <rtept lat="33.271253" lon="126.259624">
         <ele>60</ele>
      </rtept>
      <rtept lat="33.271479" lon="126.259577">
         <ele>60</ele>
      </rtept>
      <rtept lat="33.271682" lon="126.25946">
         <ele>60</ele>
      </rtept>
      <rtept lat="33.271955" lon="126.259428">
         <ele>60</ele>
      </rtept>
      <rtept lat="33.272174" lon="126.259498">
         <ele>60</ele>
      </rtept>
      <rtept lat="33.272592" lon="126.25954">
         <ele>60</ele>
      </rtept>
      <rtept lat="33.27346" lon="126.259568">
         <ele>70</ele>
      </rtept>
      <rtept lat="33.274068" lon="126.259531">
         <ele>70</ele>
      </rtept>
      <rtept lat="33.275397" lon="126.259793">
         <ele>70</ele>
      </rtept>
      <rtept lat="33.27585" lon="126.259793">
         <ele>70</ele>
      </rtept>
      <rtept lat="33.276142" lon="126.259821">
         <ele>70</ele>
      </rtept>
      <rtept lat="33.27741" lon="126.259942">
         <ele>80</ele>
      </rtept>
      <rtept lat="33.277973" lon="126.259506">
         <ele>80</ele>
      </rtept>
      <rtept lat="33.278787" lon="126.25958">
         <ele>80</ele>
      </rtept>
      <rtept lat="33.279508" lon="126.259913">
         <ele>80</ele>
      </rtept>
      <rtept lat="33.279989" lon="126.260011">
         <ele>80</ele>
      </rtept>
      <rtept lat="33.280291" lon="126.260073">
         <ele>80</ele>
      </rtept>
      <rtept lat="33.280786" lon="126.259854">
         <ele>80</ele>
      </rtept>
      <rtept lat="33.281004" lon="126.259499">
         <ele>80</ele>
      </rtept>
      <rtept lat="33.280978" lon="126.259265">
         <ele>80</ele>
      </rtept>
      <rtept lat="33.280761" lon="126.258942">
         <ele>80</ele>
      </rtept>
      <rtept lat="33.280767" lon="126.258829">
         <ele>80</ele>
      </rtept>
      <rtept lat="33.280777" lon="126.258631">
         <ele>80</ele>
      </rtept>
      <rtept lat="33.280759" lon="126.258223">
         <ele>80</ele>
      </rtept>
      <rtept lat="33.280723" lon="126.258019">
         <ele>80</ele>
      </rtept>
      <rtept lat="33.280813" lon="126.257922">
         <ele>80</ele>
      </rtept>
      <rtept lat="33.280903" lon="126.257751">
         <ele>80</ele>
      </rtept>
      <rtept lat="33.281515" lon="126.257572">
         <ele>80</ele>
      </rtept>
      <rtept lat="33.281572" lon="126.257086">
         <ele>80</ele>
      </rtept>
      <rtept lat="33.281553" lon="126.257087">
         <ele>80</ele>
      </rtept>
      <rtept lat="33.28155" lon="126.257026">
         <ele>80</ele>
      </rtept>
      <rtept lat="33.281174" lon="126.256617">
         <ele>80</ele>
      </rtept>
      <rtept lat="33.280896" lon="126.256367">
         <ele>80</ele>
      </rtept>
      <rtept lat="33.280798" lon="126.256071">
         <ele>80</ele>
      </rtept>
      <rtept lat="33.280964" lon="126.255186">
         <ele>80</ele>
      </rtept>
      <rtept lat="33.281017" lon="126.254797">
         <ele>80</ele>
      </rtept>
      <rtept lat="33.28113" lon="126.254457">
         <ele>80</ele>
      </rtept>
      <rtept lat="33.281284" lon="126.254308">
         <ele>80</ele>
      </rtept>
      <rtept lat="33.281508" lon="126.254124">
         <ele>80</ele>
      </rtept>
      <rtept lat="33.281621" lon="126.254273">
         <ele>80</ele>
      </rtept>
      <rtept lat="33.281722" lon="126.254358">
         <ele>80</ele>
      </rtept>
      <rtept lat="33.28184" lon="126.25479">
         <ele>80</ele>
      </rtept>
      <rtept lat="33.281822" lon="126.255823">
         <ele>80</ele>
      </rtept>
      <rtept lat="33.281964" lon="126.25622">
         <ele>80</ele>
      </rtept>
      <rtept lat="33.282384" lon="126.256481">
         <ele>80</ele>
      </rtept>
      <rtept lat="33.28281" lon="126.256701">
         <ele>80</ele>
      </rtept>
      <rtept lat="33.283257" lon="126.256701">
         <ele>80</ele>
      </rtept>
      <rtept lat="33.283366" lon="126.256741">
         <ele>80</ele>
      </rtept>
      <rtept lat="33.283502" lon="126.25688">
         <ele>80</ele>
      </rtept>
      <rtept lat="33.283896" lon="126.25714">
         <ele>90</ele>
      </rtept>
      <rtept lat="33.284576" lon="126.257522">
         <ele>90</ele>
      </rtept>
      <rtept lat="33.28516" lon="126.257872">
         <ele>90</ele>
      </rtept>
      <rtept lat="33.285595" lon="126.258156">
         <ele>90</ele>
      </rtept>
      <rtept lat="33.285609" lon="126.257457">
         <ele>90</ele>
      </rtept>
      <rtept lat="33.285745" lon="126.256546">
         <ele>90</ele>
      </rtept>
      <rtept lat="33.285921" lon="126.254896">
         <ele>90</ele>
      </rtept>
      <rtept lat="33.285813" lon="126.254497">
         <ele>90</ele>
      </rtept>
      <rtept lat="33.2855" lon="126.254278">
         <ele>90</ele>
      </rtept>
      <rtept lat="33.285038" lon="126.254074">
         <ele>90</ele>
      </rtept>
      <rtept lat="33.284619" lon="126.253611">
         <ele>90</ele>
      </rtept>
      <rtept lat="33.284352" lon="126.253282">
         <ele>90</ele>
      </rtept>
      <rtept lat="33.284305" lon="126.253133">
         <ele>90</ele>
      </rtept>
      <rtept lat="33.28379" lon="126.252432">
         <ele>80</ele>
      </rtept>
      <rtept lat="33.283173" lon="126.251909">
         <ele>80</ele>
      </rtept>
      <rtept lat="33.282689" lon="126.251666">
         <ele>80</ele>
      </rtept>
      <rtept lat="33.282338" lon="126.251582">
         <ele>80</ele>
      </rtept>
      <rtept lat="33.282205" lon="126.251918">
         <ele>80</ele>
      </rtept>
      <rtept lat="33.2819" lon="126.252516">
         <ele>80</ele>
      </rtept>
      <rtept lat="33.281401" lon="126.252208">
         <ele>80</ele>
      </rtept>
      <rtept lat="33.280893" lon="126.251834">
         <ele>80</ele>
      </rtept>
      <rtept lat="33.280433" lon="126.251451">
         <ele>80</ele>
      </rtept>
      <rtept lat="33.280047" lon="126.250983">
         <ele>80</ele>
      </rtept>
      <rtept lat="33.278894" lon="126.249938">
         <ele>70</ele>
      </rtept>
      <rtept lat="33.278348" lon="126.249334">
         <ele>70</ele>
      </rtept>
      <rtept lat="33.278177" lon="126.249129">
         <ele>70</ele>
      </rtept>
      <rtept lat="33.277987" lon="126.248853">
         <ele>70</ele>
      </rtept>
      <rtept lat="33.278233" lon="126.248592">
         <ele>70</ele>
      </rtept>
      <rtept lat="33.278245" lon="126.248433">
         <ele>70</ele>
      </rtept>
      <rtept lat="33.278236" lon="126.248419">
         <ele>70</ele>
      </rtept>
      <rtept lat="33.278395" lon="126.248306">
         <ele>70</ele>
      </rtept>
      <rtept lat="33.278503" lon="126.248186">
         <ele>70</ele>
      </rtept>
      <rtept lat="33.278579" lon="126.248002">
         <ele>70</ele>
      </rtept>
      <rtept lat="33.278636" lon="126.247792">
         <ele>70</ele>
      </rtept>
      <rtept lat="33.278717" lon="126.247584">
         <ele>70</ele>
      </rtept>
      <rtept lat="33.278591" lon="126.246295">
         <ele>70</ele>
      </rtept>
      <rtept lat="33.278522" lon="126.246231">
         <ele>70</ele>
      </rtept>
      <rtept lat="33.278418" lon="126.246184">
         <ele>70</ele>
      </rtept>
      <rtept lat="33.278247" lon="126.246214">
         <ele>70</ele>
      </rtept>
      <rtept lat="33.278108" lon="126.246207">
         <ele>70</ele>
      </rtept>
      <rtept lat="33.277753" lon="126.246051">
         <ele>70</ele>
      </rtept>
      <rtept lat="33.277673" lon="126.24606">
         <ele>70</ele>
      </rtept>
      <rtept lat="33.277589" lon="126.246021">
         <ele>70</ele>
      </rtept>
      <rtept lat="33.277554" lon="126.245965">
         <ele>70</ele>
      </rtept>
      <rtept lat="33.277546" lon="126.245953">
         <ele>70</ele>
      </rtept>
      <rtept lat="33.277628" lon="126.245724">
         <ele>70</ele>
      </rtept>
      <rtept lat="33.277476" lon="126.245577">
         <ele>70</ele>
      </rtept>
      <rtept lat="33.277522" lon="126.245045">
         <ele>70</ele>
      </rtept>
      <rtept lat="33.277388" lon="126.244863">
         <ele>70</ele>
      </rtept>
      <rtept lat="33.277433" lon="126.244564">
         <ele>70</ele>
      </rtept>
      <rtept lat="33.277068" lon="126.244379">
         <ele>70</ele>
      </rtept>
      <rtept lat="33.276763" lon="126.244178">
         <ele>70</ele>
      </rtept>
      <rtept lat="33.276437" lon="126.243763">
         <ele>70</ele>
      </rtept>
      <rtept lat="33.275936" lon="126.242911">
         <ele>70</ele>
      </rtept>
      <rtept lat="33.275498" lon="126.241989">
         <ele>60</ele>
      </rtept>
      <rtept lat="33.275394" lon="126.241825">
         <ele>60</ele>
      </rtept>
      <rtept lat="33.275267" lon="126.241671">
         <ele>60</ele>
      </rtept>
      <rtept lat="33.275039" lon="126.241437">
         <ele>60</ele>
      </rtept>
      <rtept lat="33.274855" lon="126.241215">
         <ele>60</ele>
      </rtept>
      <rtept lat="33.274848" lon="126.241152">
         <ele>60</ele>
      </rtept>
      <rtept lat="33.274821" lon="126.241096">
         <ele>60</ele>
      </rtept>
      <rtept lat="33.274779" lon="126.241057">
         <ele>60</ele>
      </rtept>
      <rtept lat="33.274728" lon="126.241041">
         <ele>60</ele>
      </rtept>
      <rtept lat="33.274647" lon="126.240758">
         <ele>60</ele>
      </rtept>
      <rtept lat="33.274611" lon="126.240546">
         <ele>60</ele>
      </rtept>
      <rtept lat="33.274604" lon="126.24015">
         <ele>60</ele>
      </rtept>
      <rtept lat="33.274562" lon="126.236711">
         <ele>50</ele>
      </rtept>
   </rte>
</gpx>