<?xml version="1.0" encoding="utf-8"?>
<kml xmlns:gx="http://www.google.com/kml/ext/2.2" xmlns="http://www.opengis.net/kml/2.2">
  <Document>
    <Style id="base_track_style">
      <LineStyle>
        <color>7f00ffff</color>
        <width>4</width>
      </LineStyle>
    </Style>
    <Folder><Placemark>
  <styleUrl>#base_track_style</styleUrl>
  <name>route</name>
  <MultiGeometry>
    <LineString>
      <coordinates>126.361622,33.237293,0
126.36152,33.237166,0
126.36119,33.236877,0
126.360975,33.236776,0
126.360844,33.236803,0
126.360814,33.236913,0
126.360495,33.237012,0
126.360254,33.236978,10
126.360039,33.236893,10
126.359857,33.236767,10
126.359669,33.236668,10
126.359521,33.236713,10
126.359227,33.236959,11.55318
126.359186,33.237146,10.72022
126.359071,33.237198,12.30391
126.358949,33.237277,14.31866
126.358784,33.237526,21.14806
126.358582,33.237831,27.95816
126.358459,33.238437,46.11732
126.35855,33.239294,63.09139
126.358502,33.239644,70.26346
126.3584,33.239899,76.54236
126.358287,33.240065,81.64926
126.357976,33.240361,91.95099
126.357692,33.240698,98.42381
126.357338,33.240985,103.9792
126.357059,33.240963,107.0587
126.357198,33.24072,104.3912
126.357509,33.24024,98.09072
126.357552,33.240002,99.18423
126.357504,33.239325,93.56395
126.357316,33.238885,89.40898
126.357166,33.238634,86.29091
126.356897,33.238116,76.67014
126.356603,33.23762,60.90331
126.356204,33.237275,51.24715
126.35592,33.237062,46.36311
126.355606,33.23689,44.17734
126.355104,33.236582,37.39717
126.354792,33.236464,36.50971
126.354439,33.236245,31.72964
126.354106,33.236109,30.88895
126.353717,33.235984,27.84356
126.353391,33.235907,28.98203
126.353023,33.235866,33.22001
126.352492,33.235748,35.15133
126.352355,33.235692,34.14184
126.351735,33.235463,31.61393
126.351381,33.235315,29.37882
126.350949,33.235221,27.26695
126.35056,33.235232,25.14633
126.349986,33.235292,20.19816
126.349491,33.23541,21.73757
126.348797,33.235795,20.30299
126.348528,33.236168,26.17353
126.348347,33.236535,33.26504
126.348095,33.237449,53.29151
126.348253,33.238504,63.59644
126.348588,33.238956,65.71843
126.349068,33.239351,71.27616
126.34923,33.239398,74.15288
126.349645,33.239568,79.4775
126.350414,33.239779,83.52667
126.351121,33.240031,83.70355
126.351093,33.24041,79.35863
126.350796,33.240694,74.50259
126.351129,33.240819,78.44334
126.351093,33.240973,81.13281
126.350832,33.241092,77.97185
126.349322,33.241537,79.16568
126.348937,33.241622,80.00627
126.348546,33.241771,83.13571
126.34789,33.242129,88.04462
126.347816,33.242199,88.98617
126.347803,33.242237,90.03109
126.348002,33.242419,100.4333
126.348037,33.242567,106.1306
126.347825,33.242774,107.1441
126.347265,33.242854,94.1488
126.347167,33.243011,94.819
126.347273,33.243449,105.9333
126.347492,33.243929,117.5651
126.347973,33.244582,130.3071
126.348487,33.245144,140.5487
126.349019,33.245613,152.2024
126.349514,33.246111,158.9647
126.349814,33.246556,158.0052
126.349876,33.246794,153.9555
126.350068,33.247551,137.6121
126.35009,33.247844,129.4465
126.349884,33.248055,119.5296
126.349378,33.248303,103.9544
126.348869,33.248587,89.08507
126.348479,33.248866,78.25426
126.347715,33.248984,65.24126
126.34746,33.249085,61.2347
126.347028,33.249061,60
126.346681,33.249132,60
126.346405,33.249321,60
126.346349,33.24944,60
126.346136,33.249694,60
126.345896,33.249866,50
126.345726,33.249813,50
126.345485,33.249605,50
126.34511,33.249528,50
126.344961,33.24941,50
126.344749,33.249369,50
126.344636,33.24912,50
126.344798,33.248848,50
126.34482,33.248741,50
126.344937,33.248552,50
126.345167,33.248416,50.97923
126.345208,33.24828,52.9221
126.345074,33.248079,54.26358
126.344802,33.247875,53.4874
126.344425,33.247646,50.1175
126.344355,33.247603,50.55648
126.343289,33.247246,40
126.342619,33.246794,40
126.342443,33.246604,36.90839
126.342331,33.246538,35.4174
126.342177,33.246405,32.9704
126.341883,33.24612,27.93957
126.341864,33.245843,24.62903
126.341818,33.245562,20.88407
126.341734,33.24528,20
126.341696,33.245073,20
126.341743,33.24487,20
126.341836,33.244706,20
126.342453,33.244753,20
126.342574,33.244589,20
126.342541,33.244327,20
126.3427,33.244105,20
126.342854,33.243851,25.33967
126.34278,33.243617,20
126.342901,33.243191,24.82343
126.34291,33.242851,22.70305
126.342654,33.242007,13.42133
126.342719,33.241757,11.38672
126.342999,33.241535,10
126.342971,33.240964,10
126.342999,33.240855,10
126.343419,33.240406,10
126.343686,33.240218,10
126.343774,33.240066,10
126.343986,33.239765,10
126.344116,33.239644,0
126.344076,33.239553,0
126.344164,33.239227,0
126.344254,33.239011,0
126.343898,33.238948,0
126.342747,33.238862,10
126.341983,33.238834,10
126.341849,33.238841,10
126.340095,33.239421,10
126.339855,33.239528,10
126.339172,33.239657,10
126.339091,33.239692,10
126.3387,33.239774,10
126.338555,33.239844,10
126.338459,33.239776,10
126.338473,33.239685,10
126.338399,33.239606,10
126.338296,33.23953,10
126.338288,33.239502,10
126.338362,33.239032,10
126.338683,33.239032,10
126.338753,33.238999,10
126.338791,33.238955,10
126.33881,33.238904,10
126.338804,33.238834,10
126.338783,33.238762,10
126.338564,33.238469,10
126.338551,33.238393,10
126.338612,33.238102,10
126.338682,33.238,10
126.3383,33.237923,10
126.338215,33.237917,0
126.337825,33.23795,0
126.33757,33.237915,0
126.33738,33.237868,0
126.336984,33.237681,0
126.336792,33.237613,0
126.336668,33.2379,0
126.336389,33.23869,0
126.336217,33.23913,0
126.336058,33.239424,0
126.33545,33.240034,0
126.334968,33.240376,0
</coordinates>
    </LineString>
  </MultiGeometry>
</Placemark></Folder>
  </Document>
</kml>