<?xml version="1.0" encoding="utf-8"?>
<gpx version="1.1" creator="Movescount - http://www.movescount.com" xmlns:xsi="http://www.w3.org/2001/XMLSchema-instance" xsi:schemaLocation="http://www.topografix.com/GPX/1/1 http://www.topografix.com/GPX/1/1/gpx.xsd http://www.cluetrust.com/XML/GPXDATA/1/0 http://www.cluetrust.com/Schemas/gpxdata10.xsd http://www.garmin.com/xmlschemas/TrackPointExtension/v1 http://www.garmin.com/xmlschemas/TrackPointExtensionv1.xsd" xmlns:gpxdata="http://www.cluetrust.com/XML/GPXDATA/1/0" xmlns:gpxtpx="http://www.garmin.com/xmlschemas/TrackPointExtension/v1" xmlns="http://www.topografix.com/GPX/1/1">
   <rte>
      <name>ollegil 10</name>
      <rtept lat="33.240392" lon="126.334948" />
      <rtept lat="33.240552" lon="126.334434" />
      <rtept lat="33.240738" lon="126.333934" />
      <rtept lat="33.240825" lon="126.333602" />
      <rtept lat="33.240903" lon="126.333271" />
      <rtept lat="33.240915" lon="126.332714" />
      <rtept lat="33.241045" lon="126.332462" />
      <rtept lat="33.241044" lon="126.332135">
         <ele>10</ele>
      </rtept>
      <rtept lat="33.241094" lon="126.332029">
         <ele>10</ele>
      </rtept>
      <rtept lat="33.241285" lon="126.332006">
         <ele>10</ele>
      </rtept>
      <rtept lat="33.241802" lon="126.332191">
         <ele>10</ele>
      </rtept>
      <rtept lat="33.241894" lon="126.332194">
         <ele>10</ele>
      </rtept>
      <rtept lat="33.242062" lon="126.332199">
         <ele>10.86853</ele>
      </rtept>
      <rtept lat="33.242118" lon="126.332118">
         <ele>11.77665</ele>
      </rtept>
      <rtept lat="33.242183" lon="126.331883">
         <ele>13.41546</ele>
      </rtept>
      <rtept lat="33.24209" lon="126.331449">
         <ele>14.49394</ele>
      </rtept>
      <rtept lat="33.242015" lon="126.330837">
         <ele>17.05075</ele>
      </rtept>
      <rtept lat="33.241719" lon="126.330197">
         <ele>20</ele>
      </rtept>
      <rtept lat="33.241309" lon="126.329488">
         <ele>10</ele>
      </rtept>
      <rtept lat="33.241648" lon="126.32908">
         <ele>20</ele>
      </rtept>
      <rtept lat="33.241751" lon="126.328955">
         <ele>20</ele>
      </rtept>
      <rtept lat="33.242357" lon="126.328671">
         <ele>20</ele>
      </rtept>
      <rtept lat="33.242393" lon="126.328226">
         <ele>20</ele>
      </rtept>
      <rtept lat="33.242186" lon="126.327754">
         <ele>15.0578</ele>
      </rtept>
      <rtept lat="33.241316" lon="126.32763">
         <ele>10</ele>
      </rtept>
      <rtept lat="33.241136" lon="126.327491">
         <ele>10</ele>
      </rtept>
      <rtept lat="33.240973" lon="126.327186">
         <ele>10</ele>
      </rtept>
      <rtept lat="33.240916" lon="126.327078">
         <ele>10</ele>
      </rtept>
      <rtept lat="33.240758" lon="126.326027">
         <ele>10</ele>
      </rtept>
      <rtept lat="33.240393" lon="126.325198">
         <ele>10</ele>
      </rtept>
      <rtept lat="33.2403" lon="126.324988">
         <ele>10</ele>
      </rtept>
      <rtept lat="33.239923" lon="126.324427">
         <ele>10</ele>
      </rtept>
      <rtept lat="33.239948" lon="126.323665">
         <ele>10</ele>
      </rtept>
      <rtept lat="33.239661" lon="126.322517">
         <ele>10</ele>
      </rtept>
      <rtept lat="33.239337" lon="126.32188">
         <ele>10</ele>
      </rtept>
      <rtept lat="33.239304" lon="126.32153">
         <ele>10</ele>
      </rtept>
      <rtept lat="33.239235" lon="126.320815">
         <ele>10</ele>
      </rtept>
      <rtept lat="33.238782" lon="126.319153">
         <ele>10</ele>
      </rtept>
      <rtept lat="33.23829" lon="126.318266">
         <ele>10</ele>
      </rtept>
      <rtept lat="33.237454" lon="126.316975">
         <ele>10</ele>
      </rtept>
      <rtept lat="33.237297" lon="126.316734">
         <ele>10</ele>
      </rtept>
      <rtept lat="33.236724" lon="126.315981">
         <ele>12.74704</ele>
      </rtept>
      <rtept lat="33.236579" lon="126.31579">
         <ele>14.58983</ele>
      </rtept>
      <rtept lat="33.236032" lon="126.314679">
         <ele>24.26098</ele>
      </rtept>
      <rtept lat="33.235861" lon="126.314581">
         <ele>22.4959</ele>
      </rtept>
      <rtept lat="33.235554" lon="126.31467">
         <ele>17.68727</ele>
      </rtept>
      <rtept lat="33.235127" lon="126.314425">
         <ele>13.92749</ele>
      </rtept>
      <rtept lat="33.234793" lon="126.314486">
         <ele>10</ele>
      </rtept>
      <rtept lat="33.23469" lon="126.314309">
         <ele>10</ele>
      </rtept>
      <rtept lat="33.234594" lon="126.314278">
         <ele>10</ele>
      </rtept>
      <rtept lat="33.234424" lon="126.314414">
         <ele>10</ele>
      </rtept>
      <rtept lat="33.233858" lon="126.314269">
         <ele>10</ele>
      </rtept>
      <rtept lat="33.233589" lon="126.314085">
         <ele>10</ele>
      </rtept>
      <rtept lat="33.233592" lon="126.313947">
         <ele>10</ele>
      </rtept>
      <rtept lat="33.233595" lon="126.313797" />
      <rtept lat="33.233695" lon="126.313781" />
      <rtept lat="33.233707" lon="126.313546" />
      <rtept lat="33.233798" lon="126.313065" />
      <rtept lat="33.233807" lon="126.312338" />
      <rtept lat="33.233789" lon="126.312045" />
      <rtept lat="33.233674" lon="126.311484" />
      <rtept lat="33.233356" lon="126.310686" />
      <rtept lat="33.233243" lon="126.310608" />
      <rtept lat="33.232762" lon="126.310125" />
      <rtept lat="33.232385" lon="126.310702" />
      <rtept lat="33.231576" lon="126.309996" />
      <rtept lat="33.231528" lon="126.309954" />
      <rtept lat="33.230297" lon="126.309206" />
      <rtept lat="33.228699" lon="126.30861" />
      <rtept lat="33.228336" lon="126.308489" />
      <rtept lat="33.228213" lon="126.308472" />
      <rtept lat="33.22816" lon="126.308313" />
      <rtept lat="33.227855" lon="126.307912" />
      <rtept lat="33.228219" lon="126.306918" />
      <rtept lat="33.228222" lon="126.306539" />
      <rtept lat="33.228065" lon="126.305998" />
      <rtept lat="33.228015" lon="126.305824" />
      <rtept lat="33.227781" lon="126.305285" />
      <rtept lat="33.228086" lon="126.305081" />
      <rtept lat="33.228001" lon="126.304909" />
      <rtept lat="33.227838" lon="126.304454" />
      <rtept lat="33.227384" lon="126.302564" />
      <rtept lat="33.227088" lon="126.301569" />
      <rtept lat="33.226956" lon="126.301254" />
      <rtept lat="33.226786" lon="126.301015" />
      <rtept lat="33.226263" lon="126.300499" />
      <rtept lat="33.225646" lon="126.299989" />
      <rtept lat="33.225526" lon="126.299897" />
      <rtept lat="33.225205" lon="126.299818" />
      <rtept lat="33.224886" lon="126.29956" />
      <rtept lat="33.224644" lon="126.299176" />
      <rtept lat="33.223871" lon="126.297947" />
      <rtept lat="33.222379" lon="126.296614" />
      <rtept lat="33.221775" lon="126.296125" />
      <rtept lat="33.22065" lon="126.295057" />
      <rtept lat="33.22015" lon="126.29463" />
      <rtept lat="33.219411" lon="126.294642" />
      <rtept lat="33.218856" lon="126.29471" />
      <rtept lat="33.218003" lon="126.2942" />
      <rtept lat="33.21766" lon="126.293967" />
      <rtept lat="33.217127" lon="126.293669" />
      <rtept lat="33.216618" lon="126.293754" />
      <rtept lat="33.216134" lon="126.293634" />
      <rtept lat="33.215593" lon="126.293996" />
      <rtept lat="33.215291" lon="126.294161" />
      <rtept lat="33.215072" lon="126.29422" />
      <rtept lat="33.214743" lon="126.294192" />
      <rtept lat="33.214445" lon="126.294059" />
      <rtept lat="33.214274" lon="126.293962" />
      <rtept lat="33.213783" lon="126.29338" />
      <rtept lat="33.213076" lon="126.292911" />
      <rtept lat="33.212224" lon="126.292432" />
      <rtept lat="33.211739" lon="126.292213" />
      <rtept lat="33.210502" lon="126.291798" />
      <rtept lat="33.210213" lon="126.291673" />
      <rtept lat="33.209703" lon="126.291571" />
      <rtept lat="33.209061" lon="126.291502" />
      <rtept lat="33.208159" lon="126.2915" />
      <rtept lat="33.207887" lon="126.291329">
         <ele>10</ele>
      </rtept>
      <rtept lat="33.207696" lon="126.291264">
         <ele>10</ele>
      </rtept>
      <rtept lat="33.207514" lon="126.291131">
         <ele>10</ele>
      </rtept>
      <rtept lat="33.207367" lon="126.290923">
         <ele>10</ele>
      </rtept>
      <rtept lat="33.207226" lon="126.290722">
         <ele>10</ele>
      </rtept>
      <rtept lat="33.206534" lon="126.290059">
         <ele>10</ele>
      </rtept>
      <rtept lat="33.206531" lon="126.289876">
         <ele>10</ele>
      </rtept>
      <rtept lat="33.206574" lon="126.289359">
         <ele>15.97722</ele>
      </rtept>
      <rtept lat="33.205444" lon="126.289239">
         <ele>20</ele>
      </rtept>
      <rtept lat="33.204711" lon="126.289002">
         <ele>27.73732</ele>
      </rtept>
      <rtept lat="33.204341" lon="126.289478">
         <ele>31.64033</ele>
      </rtept>
      <rtept lat="33.20423" lon="126.289531">
         <ele>33.46476</ele>
      </rtept>
      <rtept lat="33.203725" lon="126.289769">
         <ele>42.59705</ele>
      </rtept>
      <rtept lat="33.203589" lon="126.289926">
         <ele>44.47038</ele>
      </rtept>
      <rtept lat="33.203358" lon="126.29032">
         <ele>45.6968</ele>
      </rtept>
      <rtept lat="33.20326" lon="126.290539">
         <ele>44.98056</ele>
      </rtept>
      <rtept lat="33.203073" lon="126.29112">
         <ele>36.24844</ele>
      </rtept>
      <rtept lat="33.202868" lon="126.291495">
         <ele>36.1451</ele>
      </rtept>
      <rtept lat="33.202737" lon="126.291694">
         <ele>35.90847</ele>
      </rtept>
      <rtept lat="33.202629" lon="126.292017">
         <ele>35.56035</ele>
      </rtept>
      <rtept lat="33.202569" lon="126.292292">
         <ele>36.53467</ele>
      </rtept>
      <rtept lat="33.202503" lon="126.292508">
         <ele>38.83112</ele>
      </rtept>
      <rtept lat="33.202363" lon="126.292753">
         <ele>38.14907</ele>
      </rtept>
      <rtept lat="33.202342" lon="126.292789">
         <ele>37.71933</ele>
      </rtept>
      <rtept lat="33.202252" lon="126.292837">
         <ele>38.26376</ele>
      </rtept>
      <rtept lat="33.202012" lon="126.292843">
         <ele>38.57733</ele>
      </rtept>
      <rtept lat="33.201509" lon="126.292586">
         <ele>46.83432</ele>
      </rtept>
      <rtept lat="33.201378" lon="126.292592">
         <ele>47.95602</ele>
      </rtept>
      <rtept lat="33.201288" lon="126.292658">
         <ele>47.79637</ele>
      </rtept>
      <rtept lat="33.201203" lon="126.292783">
         <ele>46.41241</ele>
      </rtept>
      <rtept lat="33.20115" lon="126.292939">
         <ele>43.96066</ele>
      </rtept>
      <rtept lat="33.20106" lon="126.293053">
         <ele>37.71284</ele>
      </rtept>
      <rtept lat="33.200952" lon="126.293125">
         <ele>38.29039</ele>
      </rtept>
      <rtept lat="33.200809" lon="126.293113">
         <ele>37.77567</ele>
      </rtept>
      <rtept lat="33.200131" lon="126.292798">
         <ele>51.62134</ele>
      </rtept>
      <rtept lat="33.199967" lon="126.292801">
         <ele>51.69453</ele>
      </rtept>
      <rtept lat="33.199813" lon="126.292957">
         <ele>48.58817</ele>
      </rtept>
      <rtept lat="33.199703" lon="126.293069">
         <ele>46.03675</ele>
      </rtept>
      <rtept lat="33.199527" lon="126.29331">
         <ele>40.97213</ele>
      </rtept>
      <rtept lat="33.199314" lon="126.293437">
         <ele>38.51491</ele>
      </rtept>
      <rtept lat="33.198804" lon="126.293608">
         <ele>25.22563</ele>
      </rtept>
      <rtept lat="33.198658" lon="126.293708">
         <ele>25.2332</ele>
      </rtept>
      <rtept lat="33.198533" lon="126.294114">
         <ele>15.63609</ele>
      </rtept>
      <rtept lat="33.198256" lon="126.294391">
         <ele>15.85121</ele>
      </rtept>
      <rtept lat="33.198048" lon="126.294417">
         <ele>18.84943</ele>
      </rtept>
      <rtept lat="33.19791" lon="126.294435">
         <ele>16.77761</ele>
      </rtept>
      <rtept lat="33.197632" lon="126.294325">
         <ele>15.66681</ele>
      </rtept>
      <rtept lat="33.197529" lon="126.293924">
         <ele>17.78238</ele>
      </rtept>
      <rtept lat="33.197416" lon="126.29373">
         <ele>18.2626</ele>
      </rtept>
      <rtept lat="33.197309" lon="126.293543">
         <ele>19.2706</ele>
      </rtept>
      <rtept lat="33.197078" lon="126.293208">
         <ele>19.51664</ele>
      </rtept>
      <rtept lat="33.196908" lon="126.29303">
         <ele>19.50086</ele>
      </rtept>
      <rtept lat="33.196889" lon="126.292966">
         <ele>19.21856</ele>
      </rtept>
      <rtept lat="33.196908" lon="126.292906">
         <ele>17.79368</ele>
      </rtept>
      <rtept lat="33.196894" lon="126.292872">
         <ele>17.47155</ele>
      </rtept>
      <rtept lat="33.1968" lon="126.29275">
         <ele>17.15913</ele>
      </rtept>
      <rtept lat="33.196741" lon="126.292702">
         <ele>17.49796</ele>
      </rtept>
      <rtept lat="33.196675" lon="126.292593">
         <ele>17.46767</ele>
      </rtept>
      <rtept lat="33.196403" lon="126.292379">
         <ele>17.7543</ele>
      </rtept>
      <rtept lat="33.196273" lon="126.292177">
         <ele>16.51683</ele>
      </rtept>
      <rtept lat="33.196119" lon="126.291872">
         <ele>15.51687</ele>
      </rtept>
      <rtept lat="33.195927" lon="126.29137">
         <ele>15.33227</ele>
      </rtept>
      <rtept lat="33.1959" lon="126.291205">
         <ele>15.86585</ele>
      </rtept>
      <rtept lat="33.195865" lon="126.291136">
         <ele>15.46293</ele>
      </rtept>
      <rtept lat="33.195829" lon="126.291019">
         <ele>15.14799</ele>
      </rtept>
      <rtept lat="33.195855" lon="126.290877">
         <ele>15.84776</ele>
      </rtept>
      <rtept lat="33.195782" lon="126.290615">
         <ele>15.03997</ele>
      </rtept>
      <rtept lat="33.195853" lon="126.290382">
         <ele>15.8971</ele>
      </rtept>
      <rtept lat="33.195836" lon="126.290274">
         <ele>15.47473</ele>
      </rtept>
      <rtept lat="33.1958" lon="126.290211">
         <ele>14.82691</ele>
      </rtept>
      <rtept lat="33.195761" lon="126.28996">
         <ele>13.86329</ele>
      </rtept>
      <rtept lat="33.195764" lon="126.289834">
         <ele>13.56593</ele>
      </rtept>
      <rtept lat="33.19578" lon="126.289785">
         <ele>13.66928</ele>
      </rtept>
      <rtept lat="33.195767" lon="126.2896">
         <ele>12.96381</ele>
      </rtept>
      <rtept lat="33.19577" lon="126.289487">
         <ele>12.70325</ele>
      </rtept>
      <rtept lat="33.195856" lon="126.289211">
         <ele>13.14097</ele>
      </rtept>
      <rtept lat="33.196096" lon="126.288919">
         <ele>14.10751</ele>
      </rtept>
      <rtept lat="33.19622" lon="126.288715">
         <ele>13.87733</ele>
      </rtept>
      <rtept lat="33.196298" lon="126.288473">
         <ele>12.42766</ele>
      </rtept>
      <rtept lat="33.196376" lon="126.288259">
         <ele>11.07265</ele>
      </rtept>
      <rtept lat="33.196533" lon="126.287977">
         <ele>10.19708</ele>
      </rtept>
      <rtept lat="33.196641" lon="126.287887">
         <ele>10.19841</ele>
      </rtept>
      <rtept lat="33.196724" lon="126.287739">
         <ele>10.08213</ele>
      </rtept>
      <rtept lat="33.196845" lon="126.287608">
         <ele>10.69889</ele>
      </rtept>
      <rtept lat="33.197007" lon="126.287542">
         <ele>12.85592</ele>
      </rtept>
      <rtept lat="33.197238" lon="126.287371">
         <ele>16.00696</ele>
      </rtept>
      <rtept lat="33.197376" lon="126.28731">
         <ele>18.12037</ele>
      </rtept>
      <rtept lat="33.197477" lon="126.28727">
         <ele>19.68068</ele>
      </rtept>
      <rtept lat="33.197593" lon="126.287289">
         <ele>21.47395</ele>
      </rtept>
      <rtept lat="33.197756" lon="126.287342">
         <ele>23.72501</ele>
      </rtept>
      <rtept lat="33.198013" lon="126.287505">
         <ele>26.05763</ele>
      </rtept>
      <rtept lat="33.198132" lon="126.287409">
         <ele>24.25284</ele>
      </rtept>
      <rtept lat="33.19831" lon="126.287409">
         <ele>23.52895</ele>
      </rtept>
      <rtept lat="33.198705" lon="126.287283">
         <ele>18.61074</ele>
      </rtept>
      <rtept lat="33.198897" lon="126.287324">
         <ele>21.04966</ele>
      </rtept>
      <rtept lat="33.19903" lon="126.287413">
         <ele>20.9333</ele>
      </rtept>
      <rtept lat="33.199236" lon="126.287385">
         <ele>20.29469</ele>
      </rtept>
      <rtept lat="33.199275" lon="126.287363">
         <ele>20.23188</ele>
      </rtept>
      <rtept lat="33.199556" lon="126.287377">
         <ele>21.6541</ele>
      </rtept>
      <rtept lat="33.199792" lon="126.287322">
         <ele>22.50391</ele>
      </rtept>
      <rtept lat="33.2001" lon="126.287167">
         <ele>23.19835</ele>
      </rtept>
      <rtept lat="33.200284" lon="126.287106">
         <ele>25.06112</ele>
      </rtept>
      <rtept lat="33.200707" lon="126.28656">
         <ele>22.09377</ele>
      </rtept>
      <rtept lat="33.200982" lon="126.286645">
         <ele>30.78568</ele>
      </rtept>
      <rtept lat="33.20123" lon="126.286759">
         <ele>39.13082</ele>
      </rtept>
      <rtept lat="33.201581" lon="126.286999">
         <ele>48.47046</ele>
      </rtept>
      <rtept lat="33.202247" lon="126.287551">
         <ele>47.44577</ele>
      </rtept>
      <rtept lat="33.202605" lon="126.28773">
         <ele>48.41494</ele>
      </rtept>
      <rtept lat="33.203452" lon="126.287954">
         <ele>40.14267</ele>
      </rtept>
      <rtept lat="33.203819" lon="126.288092">
         <ele>36.86978</ele>
      </rtept>
      <rtept lat="33.204013" lon="126.287864">
         <ele>33.48859</ele>
      </rtept>
      <rtept lat="33.204182" lon="126.287817">
         <ele>31.72047</ele>
      </rtept>
      <rtept lat="33.204214" lon="126.287808">
         <ele>31.40854</ele>
      </rtept>
      <rtept lat="33.204399" lon="126.287673">
         <ele>30</ele>
      </rtept>
      <rtept lat="33.204719" lon="126.287496">
         <ele>30</ele>
      </rtept>
      <rtept lat="33.204974" lon="126.287078">
         <ele>30</ele>
      </rtept>
      <rtept lat="33.20514" lon="126.286463">
         <ele>30</ele>
      </rtept>
      <rtept lat="33.205288" lon="126.286151">
         <ele>30</ele>
      </rtept>
      <rtept lat="33.205495" lon="126.285797">
         <ele>30</ele>
      </rtept>
      <rtept lat="33.205714" lon="126.284707">
         <ele>30</ele>
      </rtept>
      <rtept lat="33.205661" lon="126.284254">
         <ele>30</ele>
      </rtept>
      <rtept lat="33.20585" lon="126.283858">
         <ele>30</ele>
      </rtept>
      <rtept lat="33.20604" lon="126.283723">
         <ele>30</ele>
      </rtept>
      <rtept lat="33.206182" lon="126.283575">
         <ele>30</ele>
      </rtept>
      <rtept lat="33.206194" lon="126.283355">
         <ele>30</ele>
      </rtept>
      <rtept lat="33.206117" lon="126.283178">
         <ele>30</ele>
      </rtept>
      <rtept lat="33.206069" lon="126.28293">
         <ele>30</ele>
      </rtept>
      <rtept lat="33.206046" lon="126.282449">
         <ele>30</ele>
      </rtept>
      <rtept lat="33.205489" lon="126.282513">
         <ele>30</ele>
      </rtept>
      <rtept lat="33.205453" lon="126.282286">
         <ele>30</ele>
      </rtept>
      <rtept lat="33.205471" lon="126.282039">
         <ele>20</ele>
      </rtept>
      <rtept lat="33.205394" lon="126.281699">
         <ele>20</ele>
      </rtept>
      <rtept lat="33.205641" lon="126.281779">
         <ele>20</ele>
      </rtept>
      <rtept lat="33.205718" lon="126.281266">
         <ele>20</ele>
      </rtept>
      <rtept lat="33.205683" lon="126.280586">
         <ele>20</ele>
      </rtept>
      <rtept lat="33.205407" lon="126.278251">
         <ele>10</ele>
      </rtept>
      <rtept lat="33.205149" lon="126.276282">
         <ele>10</ele>
      </rtept>
      <rtept lat="33.206479" lon="126.273952">
         <ele>10</ele>
      </rtept>
      <rtept lat="33.206758" lon="126.273594">
         <ele>10</ele>
      </rtept>
      <rtept lat="33.206785" lon="126.273325">
         <ele>10</ele>
      </rtept>
      <rtept lat="33.206663" lon="126.272968">
         <ele>10</ele>
      </rtept>
      <rtept lat="33.206527" lon="126.272927">
         <ele>10</ele>
      </rtept>
      <rtept lat="33.206193" lon="126.272618">
         <ele>10</ele>
      </rtept>
      <rtept lat="33.206663" lon="126.271764">
         <ele>10</ele>
      </rtept>
      <rtept lat="33.20888" lon="126.270919">
         <ele>10</ele>
      </rtept>
      <rtept lat="33.208851" lon="126.270634">
         <ele>10</ele>
      </rtept>
      <rtept lat="33.208799" lon="126.27013">
         <ele>10</ele>
      </rtept>
      <rtept lat="33.208908" lon="126.270049">
         <ele>10</ele>
      </rtept>
      <rtept lat="33.208935" lon="126.267536">
         <ele>10</ele>
      </rtept>
      <rtept lat="33.208642" lon="126.267235">
         <ele>10</ele>
      </rtept>
      <rtept lat="33.208445" lon="126.267203">
         <ele>10</ele>
      </rtept>
      <rtept lat="33.206805" lon="126.268179">
         <ele>10</ele>
      </rtept>
      <rtept lat="33.206595" lon="126.267512">
         <ele>10</ele>
      </rtept>
      <rtept lat="33.20669" lon="126.267365">
         <ele>10</ele>
      </rtept>
      <rtept lat="33.206717" lon="126.266081">
         <ele>10</ele>
      </rtept>
      <rtept lat="33.206833" lon="126.265764">
         <ele>10</ele>
      </rtept>
      <rtept lat="33.20722" lon="126.265438">
         <ele>10</ele>
      </rtept>
      <rtept lat="33.207353" lon="126.264576">
         <ele>10</ele>
      </rtept>
      <rtept lat="33.207304" lon="126.264224">
         <ele>10</ele>
      </rtept>
      <rtept lat="33.207945" lon="126.263867">
         <ele>10</ele>
      </rtept>
      <rtept lat="33.207998" lon="126.263814">
         <ele>10</ele>
      </rtept>
      <rtept lat="33.208278" lon="126.263534" />
      <rtept lat="33.208691" lon="126.263415" />
      <rtept lat="33.209093" lon="126.263526" />
      <rtept lat="33.209722" lon="126.263317" />
      <rtept lat="33.21065" lon="126.262281" />
      <rtept lat="33.211318" lon="126.260685" />
      <rtept lat="33.211232" lon="126.259459" />
      <rtept lat="33.211189" lon="126.258835" />
      <rtept lat="33.211237" lon="126.258543" />
      <rtept lat="33.211284" lon="126.257603" />
      <rtept lat="33.21126" lon="126.256387" />
      <rtept lat="33.211279" lon="126.25613" />
      <rtept lat="33.211321" lon="126.255891" />
      <rtept lat="33.21144" lon="126.255597" />
      <rtept lat="33.211608" lon="126.255357" />
      <rtept lat="33.213584" lon="126.253238" />
      <rtept lat="33.213663" lon="126.253175" />
      <rtept lat="33.213968" lon="126.252962" />
      <rtept lat="33.214208" lon="126.252872" />
      <rtept lat="33.214812" lon="126.252748" />
      <rtept lat="33.215603" lon="126.25261" />
      <rtept lat="33.21592" lon="126.25252" />
      <rtept lat="33.216117" lon="126.252398" />
      <rtept lat="33.218975" lon="126.252127" />
      <rtept lat="33.216117" lon="126.252398" />
      <rtept lat="33.21592" lon="126.25252" />
      <rtept lat="33.215603" lon="126.25261" />
      <rtept lat="33.214812" lon="126.252748" />
      <rtept lat="33.215602" lon="126.252609" />
      <rtept lat="33.21592" lon="126.252519" />
      <rtept lat="33.216117" lon="126.252397" />
      <rtept lat="33.219167" lon="126.252107" />
      <rtept lat="33.219172" lon="126.252255" />
      <rtept lat="33.219186" lon="126.252694" />
      <rtept lat="33.219164" lon="126.252776" />
   </rte>
</gpx>