<?xml version="1.0" encoding="utf-8"?>
<gpx version="1.1" creator="Movescount - http://www.movescount.com" xmlns:xsi="http://www.w3.org/2001/XMLSchema-instance" xsi:schemaLocation="http://www.topografix.com/GPX/1/1 http://www.topografix.com/GPX/1/1/gpx.xsd http://www.cluetrust.com/XML/GPXDATA/1/0 http://www.cluetrust.com/Schemas/gpxdata10.xsd http://www.garmin.com/xmlschemas/TrackPointExtension/v1 http://www.garmin.com/xmlschemas/TrackPointExtensionv1.xsd" xmlns:gpxdata="http://www.cluetrust.com/XML/GPXDATA/1/0" xmlns:gpxtpx="http://www.garmin.com/xmlschemas/TrackPointExtension/v1" xmlns="http://www.topografix.com/GPX/1/1">
   <rte>
      <name>Jeju-kwaneumsa-seongpanak</name>
      <rtept lat="33.421903" lon="126.550126">
         <ele>584.0182</ele>
      </rtept>
      <rtept lat="33.421628" lon="126.55015">
         <ele>587.7246</ele>
      </rtept>
      <rtept lat="33.421374" lon="126.550122">
         <ele>591.1871</ele>
      </rtept>
      <rtept lat="33.42123" lon="126.549924">
         <ele>592.4516</ele>
      </rtept>
      <rtept lat="33.42103" lon="126.549504">
         <ele>593.1617</ele>
      </rtept>
      <rtept lat="33.420829" lon="126.549409">
         <ele>595.4461</ele>
      </rtept>
      <rtept lat="33.420528" lon="126.549418">
         <ele>600.8652</ele>
      </rtept>
      <rtept lat="33.419998" lon="126.549177">
         <ele>605.0891</ele>
      </rtept>
      <rtept lat="33.419204" lon="126.54852">
         <ele>611.7233</ele>
      </rtept>
      <rtept lat="33.419024" lon="126.548371">
         <ele>613.8835</ele>
      </rtept>
      <rtept lat="33.418057" lon="126.548147">
         <ele>627.1934</ele>
      </rtept>
      <rtept lat="33.416925" lon="126.548062">
         <ele>643.2218</ele>
      </rtept>
      <rtept lat="33.416473" lon="126.547873">
         <ele>647.8482</ele>
      </rtept>
      <rtept lat="33.415922" lon="126.547744">
         <ele>654.0735</ele>
      </rtept>
      <rtept lat="33.415435" lon="126.548002">
         <ele>660</ele>
      </rtept>
      <rtept lat="33.415076" lon="126.548645">
         <ele>663.6984</ele>
      </rtept>
      <rtept lat="33.414539" lon="126.549074">
         <ele>671.4548</ele>
      </rtept>
      <rtept lat="33.413708" lon="126.549332">
         <ele>685.6437</ele>
      </rtept>
      <rtept lat="33.413314" lon="126.548989">
         <ele>693.467</ele>
      </rtept>
      <rtept lat="33.412734" lon="126.548748">
         <ele>703.2468</ele>
      </rtept>
      <rtept lat="33.412375" lon="126.548293">
         <ele>710.2729</ele>
      </rtept>
      <rtept lat="33.412266" lon="126.548236">
         <ele>712.0823</ele>
      </rtept>
      <rtept lat="33.411831" lon="126.54801">
         <ele>721.0892</ele>
      </rtept>
      <rtept lat="33.411551" lon="126.54777">
         <ele>726.1621</ele>
      </rtept>
      <rtept lat="33.411258" lon="126.547272">
         <ele>738.5447</ele>
      </rtept>
      <rtept lat="33.411215" lon="126.5468">
         <ele>744.7381</ele>
      </rtept>
      <rtept lat="33.411028" lon="126.5465">
         <ele>751.2749</ele>
      </rtept>
      <rtept lat="33.410663" lon="126.545796">
         <ele>760.3677</ele>
      </rtept>
      <rtept lat="33.410369" lon="126.545538">
         <ele>765.744</ele>
      </rtept>
      <rtept lat="33.410355" lon="126.545212">
         <ele>764.322</ele>
      </rtept>
      <rtept lat="33.410212" lon="126.54468">
         <ele>764.7982</ele>
      </rtept>
      <rtept lat="33.409946" lon="126.544405">
         <ele>768.2304</ele>
      </rtept>
      <rtept lat="33.409373" lon="126.544371">
         <ele>776.7895</ele>
      </rtept>
      <rtept lat="33.408986" lon="126.544019">
         <ele>783.0348</ele>
      </rtept>
      <rtept lat="33.408406" lon="126.543392">
         <ele>791.5737</ele>
      </rtept>
      <rtept lat="33.407897" lon="126.543049">
         <ele>796.4621</ele>
      </rtept>
      <rtept lat="33.407697" lon="126.542706">
         <ele>796.8132</ele>
      </rtept>
      <rtept lat="33.407575" lon="126.542268">
         <ele>794.9669</ele>
      </rtept>
      <rtept lat="33.407317" lon="126.542096">
         <ele>798.3117</ele>
      </rtept>
      <rtept lat="33.406787" lon="126.542011">
         <ele>806.7267</ele>
      </rtept>
      <rtept lat="33.40597" lon="126.541925">
         <ele>815.3882</ele>
      </rtept>
      <rtept lat="33.404881" lon="126.542002">
         <ele>825.1646</ele>
      </rtept>
      <rtept lat="33.40443" lon="126.542002">
         <ele>831.3849</ele>
      </rtept>
      <rtept lat="33.403864" lon="126.541496">
         <ele>833.6606</ele>
      </rtept>
      <rtept lat="33.403082" lon="126.540569">
         <ele>843.5958</ele>
      </rtept>
      <rtept lat="33.402989" lon="126.540071">
         <ele>837.5006</ele>
      </rtept>
      <rtept lat="33.402796" lon="126.539865">
         <ele>837.8221</ele>
      </rtept>
      <rtept lat="33.402416" lon="126.539762">
         <ele>842.0699</ele>
      </rtept>
      <rtept lat="33.401814" lon="126.540002">
         <ele>854.326</ele>
      </rtept>
      <rtept lat="33.401119" lon="126.540234">
         <ele>870.6044</ele>
      </rtept>
      <rtept lat="33.400575" lon="126.540311">
         <ele>885.0836</ele>
      </rtept>
      <rtept lat="33.400109" lon="126.539891">
         <ele>900.5405</ele>
      </rtept>
      <rtept lat="33.399278" lon="126.539453">
         <ele>925.1572</ele>
      </rtept>
      <rtept lat="33.398317" lon="126.539367">
         <ele>950.6806</ele>
      </rtept>
      <rtept lat="33.398028" lon="126.539258">
         <ele>957.3971</ele>
      </rtept>
      <rtept lat="33.396834" lon="126.538809">
         <ele>983.0745</ele>
      </rtept>
      <rtept lat="33.395229" lon="126.538311">
         <ele>1016.25</ele>
      </rtept>
      <rtept lat="33.394548" lon="126.538054">
         <ele>1038.084</ele>
      </rtept>
      <rtept lat="33.392864" lon="126.537728">
         <ele>1094.568</ele>
      </rtept>
      <rtept lat="33.392362" lon="126.537831">
         <ele>1111.389</ele>
      </rtept>
      <rtept lat="33.391187" lon="126.537916">
         <ele>1147.794</ele>
      </rtept>
      <rtept lat="33.390098" lon="126.537882">
         <ele>1174.69</ele>
      </rtept>
      <rtept lat="33.388729" lon="126.537573">
         <ele>1205.032</ele>
      </rtept>
      <rtept lat="33.3863" lon="126.536964">
         <ele>1263.103</ele>
      </rtept>
      <rtept lat="33.38521" lon="126.536251">
         <ele>1290.278</ele>
      </rtept>
      <rtept lat="33.383906" lon="126.535239">
         <ele>1319.478</ele>
      </rtept>
      <rtept lat="33.38268" lon="126.534535">
         <ele>1348.491</ele>
      </rtept>
      <rtept lat="33.381613" lon="126.533994">
         <ele>1378.26</ele>
      </rtept>
      <rtept lat="33.380846" lon="126.533711">
         <ele>1395.906</ele>
      </rtept>
      <rtept lat="33.380258" lon="126.533196">
         <ele>1414.351</ele>
      </rtept>
      <rtept lat="33.378581" lon="126.531548">
         <ele>1448.885</ele>
      </rtept>
      <rtept lat="33.378058" lon="126.531152">
         <ele>1459.959</ele>
      </rtept>
      <rtept lat="33.377746" lon="126.531252">
         <ele>1468.087</ele>
      </rtept>
      <rtept lat="33.377505" lon="126.5312">
         <ele>1473.01</ele>
      </rtept>
      <rtept lat="33.376968" lon="126.530784">
         <ele>1484.291</ele>
      </rtept>
      <rtept lat="33.376374" lon="126.530605">
         <ele>1497.197</ele>
      </rtept>
      <rtept lat="33.376108" lon="126.530355">
         <ele>1510.35</ele>
      </rtept>
      <rtept lat="33.375341" lon="126.530243">
         <ele>1533.257</ele>
      </rtept>
      <rtept lat="33.374474" lon="126.52996">
         <ele>1544.019</ele>
      </rtept>
      <rtept lat="33.374101" lon="126.529763">
         <ele>1547.286</ele>
      </rtept>
      <rtept lat="33.373807" lon="126.529823">
         <ele>1534.683</ele>
      </rtept>
      <rtept lat="33.372815" lon="126.529763">
         <ele>1515.239</ele>
      </rtept>
      <rtept lat="33.372703" lon="126.529642">
         <ele>1518.043</ele>
      </rtept>
      <rtept lat="33.372532" lon="126.529713">
         <ele>1515.616</ele>
      </rtept>
      <rtept lat="33.371623" lon="126.529689">
         <ele>1525.656</ele>
      </rtept>
      <rtept lat="33.371023" lon="126.530029">
         <ele>1538.03</ele>
      </rtept>
      <rtept lat="33.370766" lon="126.53032">
         <ele>1543.883</ele>
      </rtept>
      <rtept lat="33.370589" lon="126.530405">
         <ele>1548.202</ele>
      </rtept>
      <rtept lat="33.370141" lon="126.530795">
         <ele>1558.287</ele>
      </rtept>
      <rtept lat="33.369478" lon="126.531126">
         <ele>1571.944</ele>
      </rtept>
      <rtept lat="33.36929" lon="126.531303">
         <ele>1575.505</ele>
      </rtept>
      <rtept lat="33.369213" lon="126.531712">
         <ele>1581.876</ele>
      </rtept>
      <rtept lat="33.369283" lon="126.532101">
         <ele>1591.796</ele>
      </rtept>
      <rtept lat="33.369229" lon="126.532384">
         <ele>1603.217</ele>
      </rtept>
      <rtept lat="33.369265" lon="126.532573">
         <ele>1611.149</ele>
      </rtept>
      <rtept lat="33.369352" lon="126.532861">
         <ele>1623.745</ele>
      </rtept>
      <rtept lat="33.369462" lon="126.532932">
         <ele>1626.398</ele>
      </rtept>
      <rtept lat="33.369886" lon="126.532912">
         <ele>1626.888</ele>
      </rtept>
      <rtept lat="33.369945" lon="126.533101">
         <ele>1635.147</ele>
      </rtept>
      <rtept lat="33.369896" lon="126.53324">
         <ele>1639.654</ele>
      </rtept>
      <rtept lat="33.369487" lon="126.53378">
         <ele>1661.865</ele>
      </rtept>
      <rtept lat="33.369186" lon="126.533945">
         <ele>1674.121</ele>
      </rtept>
      <rtept lat="33.3686" lon="126.533965">
         <ele>1694.245</ele>
      </rtept>
      <rtept lat="33.368428" lon="126.533879">
         <ele>1696.902</ele>
      </rtept>
      <rtept lat="33.368059" lon="126.533694">
         <ele>1701.298</ele>
      </rtept>
      <rtept lat="33.36693" lon="126.534157">
         <ele>1759.799</ele>
      </rtept>
      <rtept lat="33.366529" lon="126.534149">
         <ele>1773.753</ele>
      </rtept>
      <rtept lat="33.366181" lon="126.533981">
         <ele>1778.204</ele>
      </rtept>
      <rtept lat="33.36562" lon="126.533967">
         <ele>1791.681</ele>
      </rtept>
      <rtept lat="33.364998" lon="126.534159">
         <ele>1812.841</ele>
      </rtept>
      <rtept lat="33.364939" lon="126.534332">
         <ele>1820.74</ele>
      </rtept>
      <rtept lat="33.364857" lon="126.534415">
         <ele>1825.521</ele>
      </rtept>
      <rtept lat="33.364228" lon="126.53453">
         <ele>1846.865</ele>
      </rtept>
      <rtept lat="33.36405" lon="126.534632">
         <ele>1854.191</ele>
      </rtept>
      <rtept lat="33.363761" lon="126.534683">
         <ele>1861.428</ele>
      </rtept>
      <rtept lat="33.36355" lon="126.53457">
         <ele>1861.029</ele>
      </rtept>
      <rtept lat="33.363481" lon="126.53478">
         <ele>1866.37</ele>
      </rtept>
      <rtept lat="33.363452" lon="126.534962">
         <ele>1870.823</ele>
      </rtept>
      <rtept lat="33.363309" lon="126.53507">
         <ele>1874.23</ele>
      </rtept>
      <rtept lat="33.363266" lon="126.535251">
         <ele>1879.05</ele>
      </rtept>
      <rtept lat="33.363138" lon="126.535386">
         <ele>1882.821</ele>
      </rtept>
      <rtept lat="33.36304" lon="126.535627">
         <ele>1888.936</ele>
      </rtept>
      <rtept lat="33.362867" lon="126.53579">
         <ele>1893.219</ele>
      </rtept>
      <rtept lat="33.362583" lon="126.535815">
         <ele>1895.538</ele>
      </rtept>
      <rtept lat="33.362366" lon="126.535958">
         <ele>1899.945</ele>
      </rtept>
      <rtept lat="33.36181" lon="126.535783">
         <ele>1896.71</ele>
      </rtept>
      <rtept lat="33.361635" lon="126.535748">
         <ele>1895.957</ele>
      </rtept>
      <rtept lat="33.361505" lon="126.53578">
         <ele>1896.874</ele>
      </rtept>
      <rtept lat="33.361327" lon="126.535788">
         <ele>1896.972</ele>
      </rtept>
      <rtept lat="33.360931" lon="126.535602">
         <ele>1893.232</ele>
      </rtept>
      <rtept lat="33.360807" lon="126.535675">
         <ele>1893.926</ele>
      </rtept>
      <rtept lat="33.360931" lon="126.535602">
         <ele>1893.232</ele>
      </rtept>
      <rtept lat="33.361113" lon="126.535678">
         <ele>1894.511</ele>
      </rtept>
      <rtept lat="33.361027" lon="126.535701">
         <ele>1894.787</ele>
      </rtept>
      <rtept lat="33.360947" lon="126.535723">
         <ele>1894.934</ele>
      </rtept>
      <rtept lat="33.36086" lon="126.536206">
         <ele>1896.61</ele>
      </rtept>
      <rtept lat="33.360895" lon="126.536619">
         <ele>1894.11</ele>
      </rtept>
      <rtept lat="33.360851" lon="126.536848">
         <ele>1889.944</ele>
      </rtept>
      <rtept lat="33.360864" lon="126.537062">
         <ele>1885.655</ele>
      </rtept>
      <rtept lat="33.361015" lon="126.53773">
         <ele>1873.263</ele>
      </rtept>
      <rtept lat="33.36112" lon="126.538011">
         <ele>1867.797</ele>
      </rtept>
      <rtept lat="33.361266" lon="126.538187">
         <ele>1865.677</ele>
      </rtept>
      <rtept lat="33.361499" lon="126.538402">
         <ele>1862.627</ele>
      </rtept>
      <rtept lat="33.361539" lon="126.538709">
         <ele>1851.087</ele>
      </rtept>
      <rtept lat="33.361604" lon="126.538816">
         <ele>1847.696</ele>
      </rtept>
      <rtept lat="33.361665" lon="126.539056">
         <ele>1838.621</ele>
      </rtept>
      <rtept lat="33.361785" lon="126.539184">
         <ele>1835.245</ele>
      </rtept>
      <rtept lat="33.36182" lon="126.539222">
         <ele>1834.252</ele>
      </rtept>
      <rtept lat="33.361888" lon="126.539366">
         <ele>1829.536</ele>
      </rtept>
      <rtept lat="33.362321" lon="126.539816">
         <ele>1816.487</ele>
      </rtept>
      <rtept lat="33.362584" lon="126.540037">
         <ele>1809.272</ele>
      </rtept>
      <rtept lat="33.362771" lon="126.540324">
         <ele>1800.185</ele>
      </rtept>
      <rtept lat="33.362873" lon="126.54057">
         <ele>1792.642</ele>
      </rtept>
      <rtept lat="33.363039" lon="126.540662">
         <ele>1790.153</ele>
      </rtept>
      <rtept lat="33.363107" lon="126.540764">
         <ele>1787.126</ele>
      </rtept>
      <rtept lat="33.363184" lon="126.541011">
         <ele>1780.669</ele>
      </rtept>
      <rtept lat="33.363301" lon="126.541154">
         <ele>1776.887</ele>
      </rtept>
      <rtept lat="33.363434" lon="126.541571">
         <ele>1766.659</ele>
      </rtept>
      <rtept lat="33.36358" lon="126.54176">
         <ele>1762.477</ele>
      </rtept>
      <rtept lat="33.363651" lon="126.542002">
         <ele>1757.602</ele>
      </rtept>
      <rtept lat="33.363707" lon="126.542124">
         <ele>1755.491</ele>
      </rtept>
      <rtept lat="33.363815" lon="126.542362">
         <ele>1751.707</ele>
      </rtept>
      <rtept lat="33.363835" lon="126.54252">
         <ele>1749.066</ele>
      </rtept>
      <rtept lat="33.363779" lon="126.5428">
         <ele>1743.987</ele>
      </rtept>
      <rtept lat="33.363776" lon="126.542964">
         <ele>1741.242</ele>
      </rtept>
      <rtept lat="33.363873" lon="126.54322">
         <ele>1737.534</ele>
      </rtept>
      <rtept lat="33.363907" lon="126.543414">
         <ele>1734.45</ele>
      </rtept>
      <rtept lat="33.363877" lon="126.543626">
         <ele>1730.636</ele>
      </rtept>
      <rtept lat="33.363906" lon="126.543795">
         <ele>1728.096</ele>
      </rtept>
      <rtept lat="33.364162" lon="126.544209">
         <ele>1723.126</ele>
      </rtept>
      <rtept lat="33.36424" lon="126.544463">
         <ele>1719.768</ele>
      </rtept>
      <rtept lat="33.364361" lon="126.544674">
         <ele>1717.243</ele>
      </rtept>
      <rtept lat="33.364377" lon="126.544805">
         <ele>1715.451</ele>
      </rtept>
      <rtept lat="33.364301" lon="126.544988">
         <ele>1712.551</ele>
      </rtept>
      <rtept lat="33.364427" lon="126.545247">
         <ele>1709.431</ele>
      </rtept>
      <rtept lat="33.364597" lon="126.545767">
         <ele>1702.278</ele>
      </rtept>
      <rtept lat="33.364619" lon="126.546162">
         <ele>1695.808</ele>
      </rtept>
      <rtept lat="33.364748" lon="126.546325">
         <ele>1693.127</ele>
      </rtept>
      <rtept lat="33.364783" lon="126.546399">
         <ele>1691.816</ele>
      </rtept>
      <rtept lat="33.364894" lon="126.546638">
         <ele>1687.294</ele>
      </rtept>
      <rtept lat="33.364911" lon="126.546841">
         <ele>1683.318</ele>
      </rtept>
      <rtept lat="33.365159" lon="126.54771">
         <ele>1666.842</ele>
      </rtept>
      <rtept lat="33.36532" lon="126.54804">
         <ele>1659.576</ele>
      </rtept>
      <rtept lat="33.365343" lon="126.54821">
         <ele>1657.116</ele>
      </rtept>
      <rtept lat="33.365443" lon="126.548306">
         <ele>1654.618</ele>
      </rtept>
      <rtept lat="33.365521" lon="126.548444">
         <ele>1651.409</ele>
      </rtept>
      <rtept lat="33.365557" lon="126.548667">
         <ele>1646.802</ele>
      </rtept>
      <rtept lat="33.365668" lon="126.54896">
         <ele>1640.145</ele>
      </rtept>
      <rtept lat="33.365902" lon="126.549244">
         <ele>1632.21</ele>
      </rtept>
      <rtept lat="33.366026" lon="126.549437">
         <ele>1627.199</ele>
      </rtept>
      <rtept lat="33.366092" lon="126.549604">
         <ele>1623.423</ele>
      </rtept>
      <rtept lat="33.366194" lon="126.549859">
         <ele>1617.659</ele>
      </rtept>
      <rtept lat="33.366354" lon="126.550004">
         <ele>1613.056</ele>
      </rtept>
      <rtept lat="33.366449" lon="126.550131">
         <ele>1609.595</ele>
      </rtept>
      <rtept lat="33.366505" lon="126.550326">
         <ele>1605.095</ele>
      </rtept>
      <rtept lat="33.366673" lon="126.550567">
         <ele>1598.037</ele>
      </rtept>
      <rtept lat="33.366884" lon="126.550774">
         <ele>1590.658</ele>
      </rtept>
      <rtept lat="33.366951" lon="126.550907">
         <ele>1586.809</ele>
      </rtept>
      <rtept lat="33.367003" lon="126.551137">
         <ele>1581.007</ele>
      </rtept>
      <rtept lat="33.367208" lon="126.551421">
         <ele>1572.099</ele>
      </rtept>
      <rtept lat="33.367276" lon="126.55169">
         <ele>1565.728</ele>
      </rtept>
      <rtept lat="33.367386" lon="126.55193">
         <ele>1559.531</ele>
      </rtept>
      <rtept lat="33.367596" lon="126.552169">
         <ele>1552.357</ele>
      </rtept>
      <rtept lat="33.367634" lon="126.55228">
         <ele>1550.207</ele>
      </rtept>
      <rtept lat="33.367717" lon="126.552522">
         <ele>1544.581</ele>
      </rtept>
      <rtept lat="33.367815" lon="126.55272">
         <ele>1540.032</ele>
      </rtept>
      <rtept lat="33.368104" lon="126.552823">
         <ele>1536.232</ele>
      </rtept>
      <rtept lat="33.368425" lon="126.553066">
         <ele>1531.043</ele>
      </rtept>
      <rtept lat="33.368496" lon="126.553254">
         <ele>1528.568</ele>
      </rtept>
      <rtept lat="33.368614" lon="126.553421">
         <ele>1526.555</ele>
      </rtept>
      <rtept lat="33.36893" lon="126.553701">
         <ele>1523.152</ele>
      </rtept>
      <rtept lat="33.369074" lon="126.55392">
         <ele>1519.333</ele>
      </rtept>
      <rtept lat="33.369184" lon="126.554033">
         <ele>1519.149</ele>
      </rtept>
      <rtept lat="33.36922" lon="126.554212">
         <ele>1516.941</ele>
      </rtept>
      <rtept lat="33.369182" lon="126.554448">
         <ele>1514.221</ele>
      </rtept>
      <rtept lat="33.369202" lon="126.554917">
         <ele>1508.496</ele>
      </rtept>
      <rtept lat="33.369302" lon="126.55515">
         <ele>1505.33</ele>
      </rtept>
      <rtept lat="33.369458" lon="126.555442">
         <ele>1501.135</ele>
      </rtept>
      <rtept lat="33.36969" lon="126.556363">
         <ele>1490.222</ele>
      </rtept>
      <rtept lat="33.369735" lon="126.556717">
         <ele>1486.48</ele>
      </rtept>
      <rtept lat="33.369922" lon="126.556973">
         <ele>1484.299</ele>
      </rtept>
      <rtept lat="33.370018" lon="126.557167">
         <ele>1482.707</ele>
      </rtept>
      <rtept lat="33.370112" lon="126.557283">
         <ele>1478.069</ele>
      </rtept>
      <rtept lat="33.370196" lon="126.557476">
         <ele>1479.622</ele>
      </rtept>
      <rtept lat="33.370304" lon="126.557943">
         <ele>1473.924</ele>
      </rtept>
      <rtept lat="33.370284" lon="126.558117">
         <ele>1471.487</ele>
      </rtept>
      <rtept lat="33.370225" lon="126.558254">
         <ele>1469.289</ele>
      </rtept>
      <rtept lat="33.370093" lon="126.55838">
         <ele>1466.442</ele>
      </rtept>
      <rtept lat="33.37004" lon="126.558721">
         <ele>1460.111</ele>
      </rtept>
      <rtept lat="33.370163" lon="126.559319">
         <ele>1450.178</ele>
      </rtept>
      <rtept lat="33.370282" lon="126.559661">
         <ele>1445.262</ele>
      </rtept>
      <rtept lat="33.370344" lon="126.559899">
         <ele>1441.642</ele>
      </rtept>
      <rtept lat="33.370543" lon="126.560136">
         <ele>1438.001</ele>
      </rtept>
      <rtept lat="33.370792" lon="126.560575">
         <ele>1431.147</ele>
      </rtept>
      <rtept lat="33.370848" lon="126.560898">
         <ele>1426.149</ele>
      </rtept>
      <rtept lat="33.371028" lon="126.561161">
         <ele>1419.201</ele>
      </rtept>
      <rtept lat="33.371079" lon="126.561296">
         <ele>1417.682</ele>
      </rtept>
      <rtept lat="33.371081" lon="126.561433">
         <ele>1415.011</ele>
      </rtept>
      <rtept lat="33.371084" lon="126.561598">
         <ele>1411.704</ele>
      </rtept>
      <rtept lat="33.370929" lon="126.56194">
         <ele>1406.313</ele>
      </rtept>
      <rtept lat="33.370945" lon="126.562218">
         <ele>1399.757</ele>
      </rtept>
      <rtept lat="33.371134" lon="126.562688">
         <ele>1390</ele>
      </rtept>
      <rtept lat="33.371129" lon="126.562913">
         <ele>1382.057</ele>
      </rtept>
      <rtept lat="33.371059" lon="126.563195">
         <ele>1376.845</ele>
      </rtept>
      <rtept lat="33.371052" lon="126.563422">
         <ele>1372.124</ele>
      </rtept>
      <rtept lat="33.371187" lon="126.56401">
         <ele>1358.748</ele>
      </rtept>
      <rtept lat="33.371154" lon="126.564367">
         <ele>1351.124</ele>
      </rtept>
      <rtept lat="33.371209" lon="126.564562">
         <ele>1346.897</ele>
      </rtept>
      <rtept lat="33.371227" lon="126.56486">
         <ele>1340.859</ele>
      </rtept>
      <rtept lat="33.371325" lon="126.565088">
         <ele>1336.78</ele>
      </rtept>
      <rtept lat="33.371585" lon="126.56535">
         <ele>1332.135</ele>
      </rtept>
      <rtept lat="33.37191" lon="126.565591">
         <ele>1327.299</ele>
      </rtept>
      <rtept lat="33.372042" lon="126.565699">
         <ele>1324.815</ele>
      </rtept>
      <rtept lat="33.372148" lon="126.565882">
         <ele>1321.262</ele>
      </rtept>
      <rtept lat="33.372197" lon="126.566045">
         <ele>1318.358</ele>
      </rtept>
      <rtept lat="33.372261" lon="126.566159">
         <ele>1315.879</ele>
      </rtept>
      <rtept lat="33.37249" lon="126.566348">
         <ele>1309.942</ele>
      </rtept>
      <rtept lat="33.372565" lon="126.566443">
         <ele>1307.296</ele>
      </rtept>
      <rtept lat="33.372688" lon="126.566658">
         <ele>1302.143</ele>
      </rtept>
      <rtept lat="33.372861" lon="126.566869">
         <ele>1296.285</ele>
      </rtept>
      <rtept lat="33.37289" lon="126.567116">
         <ele>1292.421</ele>
      </rtept>
      <rtept lat="33.372844" lon="126.567523">
         <ele>1288.03</ele>
      </rtept>
      <rtept lat="33.372781" lon="126.567714">
         <ele>1287.219</ele>
      </rtept>
      <rtept lat="33.372761" lon="126.56793">
         <ele>1285.659</ele>
      </rtept>
      <rtept lat="33.372783" lon="126.568133">
         <ele>1283.678</ele>
      </rtept>
      <rtept lat="33.372831" lon="126.568301">
         <ele>1281.722</ele>
      </rtept>
      <rtept lat="33.372892" lon="126.568365">
         <ele>1280.036</ele>
      </rtept>
      <rtept lat="33.373211" lon="126.568553">
         <ele>1272.05</ele>
      </rtept>
      <rtept lat="33.373657" lon="126.569013">
         <ele>1260.422</ele>
      </rtept>
      <rtept lat="33.373877" lon="126.569308">
         <ele>1254.521</ele>
      </rtept>
      <rtept lat="33.373965" lon="126.569359">
         <ele>1252.104</ele>
      </rtept>
      <rtept lat="33.374111" lon="126.569341">
         <ele>1248.543</ele>
      </rtept>
      <rtept lat="33.374327" lon="126.569265">
         <ele>1244.236</ele>
      </rtept>
      <rtept lat="33.37447" lon="126.569273">
         <ele>1241.281</ele>
      </rtept>
      <rtept lat="33.3748" lon="126.569237">
         <ele>1235.758</ele>
      </rtept>
      <rtept lat="33.374916" lon="126.569269">
         <ele>1233.578</ele>
      </rtept>
      <rtept lat="33.375216" lon="126.569434">
         <ele>1227.552</ele>
      </rtept>
      <rtept lat="33.375577" lon="126.569514">
         <ele>1222.17</ele>
      </rtept>
      <rtept lat="33.375814" lon="126.569671">
         <ele>1218.143</ele>
      </rtept>
      <rtept lat="33.37595" lon="126.569836">
         <ele>1215.498</ele>
      </rtept>
      <rtept lat="33.376182" lon="126.570027">
         <ele>1211.773</ele>
      </rtept>
      <rtept lat="33.376369" lon="126.570325">
         <ele>1207.15</ele>
      </rtept>
      <rtept lat="33.376628" lon="126.570831">
         <ele>1199.179</ele>
      </rtept>
      <rtept lat="33.376712" lon="126.570883">
         <ele>1197.684</ele>
      </rtept>
      <rtept lat="33.376908" lon="126.57094">
         <ele>1195.135</ele>
      </rtept>
      <rtept lat="33.37741" lon="126.571258">
         <ele>1187.094</ele>
      </rtept>
      <rtept lat="33.377668" lon="126.571502">
         <ele>1182.598</ele>
      </rtept>
      <rtept lat="33.378159" lon="126.571752">
         <ele>1181.144</ele>
      </rtept>
      <rtept lat="33.378213" lon="126.571855">
         <ele>1177.852</ele>
      </rtept>
      <rtept lat="33.378273" lon="126.57218">
         <ele>1174.544</ele>
      </rtept>
      <rtept lat="33.378129" lon="126.572577">
         <ele>1170</ele>
      </rtept>
      <rtept lat="33.377961" lon="126.57282">
         <ele>1170</ele>
      </rtept>
      <rtept lat="33.37795" lon="126.572953">
         <ele>1167.541</ele>
      </rtept>
      <rtept lat="33.377835" lon="126.573344">
         <ele>1164.414</ele>
      </rtept>
      <rtept lat="33.377806" lon="126.573556">
         <ele>1162.562</ele>
      </rtept>
      <rtept lat="33.377846" lon="126.573784">
         <ele>1160</ele>
      </rtept>
      <rtept lat="33.378052" lon="126.574301">
         <ele>1155.835</ele>
      </rtept>
      <rtept lat="33.378124" lon="126.574573">
         <ele>1153.564</ele>
      </rtept>
      <rtept lat="33.378214" lon="126.575126">
         <ele>1150</ele>
      </rtept>
      <rtept lat="33.378388" lon="126.575321">
         <ele>1150</ele>
      </rtept>
      <rtept lat="33.378481" lon="126.575573">
         <ele>1145.545</ele>
      </rtept>
      <rtept lat="33.378686" lon="126.575754">
         <ele>1143.875</ele>
      </rtept>
      <rtept lat="33.37893" lon="126.575877">
         <ele>1140</ele>
      </rtept>
      <rtept lat="33.379192" lon="126.575886">
         <ele>1140</ele>
      </rtept>
      <rtept lat="33.379617" lon="126.576011">
         <ele>1140</ele>
      </rtept>
      <rtept lat="33.379741" lon="126.57611">
         <ele>1140</ele>
      </rtept>
      <rtept lat="33.379874" lon="126.576318">
         <ele>1137.332</ele>
      </rtept>
      <rtept lat="33.380037" lon="126.576702">
         <ele>1133.417</ele>
      </rtept>
      <rtept lat="33.380297" lon="126.576981">
         <ele>1130</ele>
      </rtept>
      <rtept lat="33.380438" lon="126.577311">
         <ele>1126.813</ele>
      </rtept>
      <rtept lat="33.380511" lon="126.57775">
         <ele>1122.723</ele>
      </rtept>
      <rtept lat="33.380549" lon="126.578191">
         <ele>1120</ele>
      </rtept>
      <rtept lat="33.380715" lon="126.578542">
         <ele>1116.362</ele>
      </rtept>
      <rtept lat="33.380758" lon="126.578861">
         <ele>1114.115</ele>
      </rtept>
      <rtept lat="33.380679" lon="126.57909">
         <ele>1110</ele>
      </rtept>
      <rtept lat="33.380735" lon="126.579463">
         <ele>1110</ele>
      </rtept>
      <rtept lat="33.380753" lon="126.580129">
         <ele>1104.406</ele>
      </rtept>
      <rtept lat="33.380672" lon="126.580333">
         <ele>1102.527</ele>
      </rtept>
      <rtept lat="33.380469" lon="126.580549">
         <ele>1100</ele>
      </rtept>
      <rtept lat="33.380269" lon="126.580994">
         <ele>1095.426</ele>
      </rtept>
      <rtept lat="33.380171" lon="126.58112">
         <ele>1093.921</ele>
      </rtept>
      <rtept lat="33.380232" lon="126.581427">
         <ele>1090</ele>
      </rtept>
      <rtept lat="33.380181" lon="126.581632">
         <ele>1090</ele>
      </rtept>
      <rtept lat="33.380115" lon="126.58177">
         <ele>1090</ele>
      </rtept>
      <rtept lat="33.380116" lon="126.582062">
         <ele>1090</ele>
      </rtept>
      <rtept lat="33.380037" lon="126.582397">
         <ele>1085.506</ele>
      </rtept>
      <rtept lat="33.379711" lon="126.582694">
         <ele>1080</ele>
      </rtept>
      <rtept lat="33.379389" lon="126.583046">
         <ele>1080</ele>
      </rtept>
      <rtept lat="33.379196" lon="126.583283">
         <ele>1080</ele>
      </rtept>
      <rtept lat="33.379096" lon="126.583506">
         <ele>1080</ele>
      </rtept>
      <rtept lat="33.378967" lon="126.583958">
         <ele>1070</ele>
      </rtept>
      <rtept lat="33.378767" lon="126.584218">
         <ele>1070</ele>
      </rtept>
      <rtept lat="33.378712" lon="126.584401">
         <ele>1070</ele>
      </rtept>
      <rtept lat="33.378712" lon="126.584787">
         <ele>1070</ele>
      </rtept>
      <rtept lat="33.378875" lon="126.585518">
         <ele>1065.036</ele>
      </rtept>
      <rtept lat="33.379307" lon="126.586701">
         <ele>1056.177</ele>
      </rtept>
      <rtept lat="33.379427" lon="126.58763">
         <ele>1050</ele>
      </rtept>
      <rtept lat="33.379413" lon="126.588368">
         <ele>1040</ele>
      </rtept>
      <rtept lat="33.379489" lon="126.588655">
         <ele>1040</ele>
      </rtept>
      <rtept lat="33.37954" lon="126.589017">
         <ele>1040</ele>
      </rtept>
      <rtept lat="33.379615" lon="126.589317">
         <ele>1040</ele>
      </rtept>
      <rtept lat="33.379757" lon="126.589511">
         <ele>1036.215</ele>
      </rtept>
      <rtept lat="33.379806" lon="126.589698">
         <ele>1034.725</ele>
      </rtept>
      <rtept lat="33.379819" lon="126.58992">
         <ele>1030</ele>
      </rtept>
      <rtept lat="33.38" lon="126.59029">
         <ele>1030</ele>
      </rtept>
      <rtept lat="33.380027" lon="126.590559">
         <ele>1030</ele>
      </rtept>
      <rtept lat="33.379935" lon="126.590944">
         <ele>1025.073</ele>
      </rtept>
      <rtept lat="33.379979" lon="126.591188">
         <ele>1023.008</ele>
      </rtept>
      <rtept lat="33.379964" lon="126.591483">
         <ele>1020</ele>
      </rtept>
      <rtept lat="33.379922" lon="126.591774">
         <ele>1020</ele>
      </rtept>
      <rtept lat="33.380061" lon="126.592132">
         <ele>1015.288</ele>
      </rtept>
      <rtept lat="33.380188" lon="126.592278">
         <ele>1013.771</ele>
      </rtept>
      <rtept lat="33.380226" lon="126.592517">
         <ele>1010</ele>
      </rtept>
      <rtept lat="33.380223" lon="126.592975">
         <ele>1007.943</ele>
      </rtept>
      <rtept lat="33.380351" lon="126.593389">
         <ele>1004.075</ele>
      </rtept>
      <rtept lat="33.380337" lon="126.593568">
         <ele>1002.555</ele>
      </rtept>
      <rtept lat="33.380345" lon="126.593815">
         <ele>999.5141</ele>
      </rtept>
      <rtept lat="33.380462" lon="126.594039">
         <ele>997.5732</ele>
      </rtept>
      <rtept lat="33.380623" lon="126.594091">
         <ele>996.6259</ele>
      </rtept>
      <rtept lat="33.380763" lon="126.594259">
         <ele>994.3475</ele>
      </rtept>
      <rtept lat="33.380843" lon="126.594495">
         <ele>991.3699</ele>
      </rtept>
      <rtept lat="33.38086" lon="126.594633">
         <ele>989.6982</ele>
      </rtept>
      <rtept lat="33.380792" lon="126.594841">
         <ele>987.3439</ele>
      </rtept>
      <rtept lat="33.380781" lon="126.595148">
         <ele>983.5706</ele>
      </rtept>
      <rtept lat="33.380917" lon="126.595929">
         <ele>973.5639</ele>
      </rtept>
      <rtept lat="33.3812" lon="126.596832">
         <ele>961.8015</ele>
      </rtept>
      <rtept lat="33.381284" lon="126.597005">
         <ele>959.441</ele>
      </rtept>
      <rtept lat="33.381506" lon="126.597286">
         <ele>954.9253</ele>
      </rtept>
      <rtept lat="33.381573" lon="126.597457">
         <ele>952.3986</ele>
      </rtept>
      <rtept lat="33.381849" lon="126.597723">
         <ele>947.3654</ele>
      </rtept>
      <rtept lat="33.382217" lon="126.598228">
         <ele>937.8063</ele>
      </rtept>
      <rtept lat="33.382473" lon="126.598693">
         <ele>929.5074</ele>
      </rtept>
      <rtept lat="33.382541" lon="126.598913">
         <ele>926.0426</ele>
      </rtept>
      <rtept lat="33.38253" lon="126.599145">
         <ele>922.4758</ele>
      </rtept>
      <rtept lat="33.382689" lon="126.599341">
         <ele>920.6249</ele>
      </rtept>
      <rtept lat="33.382717" lon="126.599588">
         <ele>916.2687</ele>
      </rtept>
      <rtept lat="33.382847" lon="126.599767">
         <ele>914.1775</ele>
      </rtept>
      <rtept lat="33.382874" lon="126.600169">
         <ele>909.3398</ele>
      </rtept>
      <rtept lat="33.382863" lon="126.600636">
         <ele>902.97</ele>
      </rtept>
      <rtept lat="33.382754" lon="126.601146">
         <ele>895.3021</ele>
      </rtept>
      <rtept lat="33.382702" lon="126.602238">
         <ele>880.3401</ele>
      </rtept>
      <rtept lat="33.38256" lon="126.602645">
         <ele>874.8967</ele>
      </rtept>
      <rtept lat="33.382609" lon="126.603251">
         <ele>867.4863</ele>
      </rtept>
      <rtept lat="33.382596" lon="126.603438">
         <ele>865.4016</ele>
      </rtept>
      <rtept lat="33.382496" lon="126.603645">
         <ele>863.2637</ele>
      </rtept>
      <rtept lat="33.382583" lon="126.60415">
         <ele>857.9443</ele>
      </rtept>
      <rtept lat="33.382666" lon="126.604892">
         <ele>850</ele>
      </rtept>
      <rtept lat="33.382817" lon="126.605397">
         <ele>846.4806</ele>
      </rtept>
      <rtept lat="33.382838" lon="126.605612">
         <ele>844.7725</ele>
      </rtept>
      <rtept lat="33.382818" lon="126.605859">
         <ele>842.911</ele>
      </rtept>
      <rtept lat="33.382623" lon="126.606495">
         <ele>840</ele>
      </rtept>
      <rtept lat="33.382365" lon="126.607034">
         <ele>840</ele>
      </rtept>
      <rtept lat="33.382344" lon="126.607594">
         <ele>830</ele>
      </rtept>
      <rtept lat="33.38243" lon="126.607929">
         <ele>830</ele>
      </rtept>
      <rtept lat="33.382604" lon="126.608266">
         <ele>830</ele>
      </rtept>
      <rtept lat="33.382617" lon="126.608545">
         <ele>830</ele>
      </rtept>
      <rtept lat="33.382544" lon="126.608967">
         <ele>830</ele>
      </rtept>
      <rtept lat="33.382545" lon="126.609472">
         <ele>830</ele>
      </rtept>
      <rtept lat="33.382377" lon="126.610153">
         <ele>820</ele>
      </rtept>
      <rtept lat="33.382408" lon="126.610317">
         <ele>820</ele>
      </rtept>
      <rtept lat="33.382734" lon="126.610801">
         <ele>820</ele>
      </rtept>
      <rtept lat="33.383178" lon="126.611955">
         <ele>820</ele>
      </rtept>
      <rtept lat="33.383547" lon="126.612835">
         <ele>810</ele>
      </rtept>
      <rtept lat="33.384054" lon="126.614411">
         <ele>800</ele>
      </rtept>
      <rtept lat="33.384064" lon="126.614565">
         <ele>800</ele>
      </rtept>
      <rtept lat="33.384017" lon="126.614741">
         <ele>800</ele>
      </rtept>
      <rtept lat="33.38402" lon="126.61491">
         <ele>800</ele>
      </rtept>
      <rtept lat="33.384046" lon="126.614983">
         <ele>800</ele>
      </rtept>
      <rtept lat="33.384217" lon="126.615265">
         <ele>800</ele>
      </rtept>
      <rtept lat="33.384293" lon="126.615525">
         <ele>790</ele>
      </rtept>
      <rtept lat="33.384272" lon="126.615841">
         <ele>790</ele>
      </rtept>
      <rtept lat="33.384161" lon="126.616168">
         <ele>790</ele>
      </rtept>
      <rtept lat="33.384201" lon="126.616894">
         <ele>783.8997</ele>
      </rtept>
      <rtept lat="33.384138" lon="126.617399">
         <ele>779.3886</ele>
      </rtept>
      <rtept lat="33.384137" lon="126.617577">
         <ele>777.5777</ele>
      </rtept>
      <rtept lat="33.384236" lon="126.617799">
         <ele>774.9813</ele>
      </rtept>
      <rtept lat="33.384425" lon="126.618112">
         <ele>771.0472</ele>
      </rtept>
      <rtept lat="33.384727" lon="126.618435">
         <ele>766.863</ele>
      </rtept>
      <rtept lat="33.384795" lon="126.618623">
         <ele>764.9586</ele>
      </rtept>
      <rtept lat="33.384841" lon="126.619018">
         <ele>760</ele>
      </rtept>
      <rtept lat="33.384931" lon="126.619646">
         <ele>756.403</ele>
      </rtept>
   </rte>
</gpx>